name,address,latitude,longitude
효천점,전북 전주시 완산구 효천중앙로 57 ,35.7987646,127.1050295
효천우미린2차점,전북 전주시 완산구 효천서로 20,35.8010311,127.1030238
효천연세수학점,전북 전주시 완산구 효천서로 20,35.8010311,127.1030238
효자포스코,전북 전주시 완산구 ,35.8122,127.1197
효자세븐팰리스점,전북 전주시 완산구 호,35.8157564,127.1535233
효자문학점,전북 전주시 완산구 유연로 217-11 ,35.8251263,127.0985439
효자골든팰리스점,전북 전주시 완산구 호,35.8157564,127.1535233
화천 사내교실점,강원 화천군 사내면 포화로 1142 ,38.0605028,127.5090726
화일 캠퍼스,서울 강서구 까치산로4길 50 ,37.5407521,126.8457235
화성지사직영점,경기 화성시 동탄기흥로 557,37.2013835,127.0926688
화성시 동탄화남초점,경기 화성시 동탄순환대로,37.1871149,127.1238032
화성메이루즈점,경기 화성시 동탄숲속로 95 ,37.2077062,127.0565255
화성 호수아이파크점,경기 화성시 동탄순환대로,37.1871149,127.1238032
화성 호수 하우스디점,경기 화성시 동탄대로,37.1932945,127.0989825
화성 호수 공원점,경기 화성시 동탄순환대로 127-23 ,37.1677602,127.1072669
화성 현대 아이파크점,경기 화성시 동탄반석로 193 ,37.199207,127.0714206
화성 향남화원초점,경기 화성시 향남읍 ,37.1324577,126.92032615707518
화성 향남하길초점,경기 화성시 향남읍 ,37.1324577,126.92032615707518
화성 향남 행정초점,경기 화성시 향남읍 ,37.1324577,126.92032615707518
화성 향남 상신초점,경기 화성시 향남읍 ,37.1324577,126.92032615707518
화성 향남 부영7단지점,경기 화성시 향남읍 ,37.1324577,126.92032615707518
화성 향남 배움트리점,경기 화성시 향남읍 ,37.1324577,126.92032615707518
화성 향남 7단지점,경기 화성시 향남읍 ,37.1324577,126.92032615707518
화성 태안우미린점,경기 화성시 안녕,37.203492,126.996765
화성 태안우미린센트포레점,경기 화성시 장조4로 33,37.2054958,127.0020229
화성 클라이 학원점,경기 화성시 향남읍 향남,37.122899,126.9127815
화성 최강e해법셀파수학점,경기 화성시 동탄지성로 319-19 ,37.2119646,127.0544522
화성 제일 풍경채점,경기 화성시 동탄대로,37.1932945,127.0989825
화성 율목초점,경기 화성시 동탄반석로 124 ,37.199207,127.0714206
화성 월드 나루점,경기 화성시 반송동 212,37.19469,127.07526
화성 우방아이유쉘점,경기 화성시 기안,37.2242671,126.97566608253632
화성 우리 공부방점,경기 화성시 동탄지성로 256 ,37.2119646,127.0544522
화성 예원초점,경기 화성시 동탄반석로 277 ,37.199207,127.0714206
화성 예당롯데캐슬점,경기 화성시 동탄반석로 229 ,37.199207,127.0714206
화성 안성비룡점,경기 안성시 비,37.007773,127.279971
화성 안성 만정초점,경기 안성시 공도읍 송원길 64 ,37.0072596,127.1723665
화성 안녕현대점,경기 화성시 화산로 10 ,37.2083774,127.0124816
화성 신일해피트리1점,경기 화성시 효행로,37.2146519,127.0520304
화성 신봉담e편한해법공부방,경기 화성시 봉담읍 ,37.2200304,126.94998354801668
화성 신동탄 sk뷰점,경기 화성시 동탄원천로 382-37 ,37.2047564,127.0841435
화성 숲속모아점,경기 화성시 동탄숲속로 96 ,37.2077062,127.0565255
화성 송산한승점,경기 화성시 화산,37.06652,126.80307
화성 송산새솔점,경기 화성시 수,37.238242,126.951576
화성 송산대방점,경기 화성시 수노을1로 107 ,37.28630015,126.82245710721796
화성 송골 우남2차점,경기 화성시 10용사로 286 ,37.1946797,127.0668002
화성 센트럴 힐즈점,경기 화성시 효행로 1051 ,37.2143822,127.0420237
화성 세정초점,경기 화성시 동탄순환대로10길 88 ,37.1669194,127.1229121
화성 서동탄역 파크자이1차점,경기 화성시 서동탄로 53 ,37.2011883,127.0506582
화성 봉담초점,경기 화성시 봉담읍 ,37.2200304,126.94998354801668
화성 봉담신창2단지점,경기 화성시 봉담읍 수,37.1893124,126.9677258
화성 봉담신안점,경기 화성시 봉담읍 ,37.2200304,126.94998354801668
화성 봉담상봉점,경기 화성시 봉담읍 동화,37.2151983,126.96157991631608
화성 봉담 중심상가점,경기 화성시 봉담읍 동화,37.2151983,126.96157991631608
화성 병점 아이파크 캐슬점,경기 화성시 병점,37.206834,127.0331291
화성 병점 송화초점,경기 화성시 병점동 490-2,37.2072052,127.0419929
화성 병점 센터점,경기 화성시 병점2로 30 ,37.2101714,127.0483831
화성 병점 늘벗 신창점,경기 화성시 병점1로 65 ,37.2090894,127.0457066
화성 발안우림점,경기 화성시 향남읍 발안,37.132862450000005,126.91616597106892
화성 반정아이파크5단지점,경기 화성시 동탄지성로,37.2119646,127.0544522
화성 반정아이파크4단지점,경기 화성시 반정로 184 ,37.2319107,127.034727
화성 반월대림점,경기 화성시 반송동 23-1,37.19469,127.07526
화성 반월e편한 세상점,경기 화성시 효행로 1337-23 ,37.2146519,127.0520304
화성 반월 포레자이점,경기 화성시 반월동 17,37.23018,127.06497
화성 반월 롯데캐슬점,경기 화성시 효행로 1337-2,37.2147548,127.0491196
화성 목동 베라체점,경기 화성시 동탄순환대로20길 13 ,37.186778,127.1266255
화성 모아미래도점,경기 화성시 10용사로 349-13,37.1946797,127.0668002
화성 동탄호수리더학원점,경기 화성시 동탄대로6길 29 ,37.1696465,127.1163735
화성 동탄호반2차점,경기 화성시 동탄순환대로22길 46 ,37.1975987,127.1199348
화성 동탄한화점,경기 화성시 반송동 42-8,37.19469,127.07526
화성 동탄포스코점,경기 화성시 동탄대로시범길 19 ,37.2014372,127.1012377
화성 동탄파크푸르지오점,경기 화성시 동탄대로,37.1932945,127.0989825
화성 동탄파크자이점,경기 화성시 동탄대로24길 117 ,37.2104895,127.1117603
화성 동탄카림점,경기 화성시 동탄순환대로 617,37.1871149,127.1238032
화성 동탄자연앤데시앙점,경기 화성시 동탄숲속로 68 ,37.2077062,127.0565255
화성 동탄이지더원점,경기 화성시 동탄원천로 315-33 ,37.2047564,127.0841435
화성 동탄역점,경기 화성시 동탄대로,37.1932945,127.0989825
화성 동탄쌍용점,경기 화성시 반송동 ,37.19469,127.07526
화성 동탄반도10차점,경기 화성시 동탄순환대로12길 85 ,37.1676823,127.1250719
화성 동탄롯데점,경기 화성시 동탄순환대로,37.1871149,127.1238032
화성 동탄대림점,경기 화성시 동탄순환대로20길 31 ,37.186778,127.1266255
화성 동탄남명점,경기 화성시 10용사로 343-10 ,37.1946797,127.0668002
화성 동탄kcc점,경기 화성시 동탄시범한빛길 33 ,37.2096738,127.0674849
화성 동탄76-2블럭점,경기 화성시 효행로 1051 ,37.2143822,127.0420237
화성 동탄2 이지점,경기 화성시 동탄순환대로28길 17 ,37.20841645,127.1104323736714
화성 동탄2 동원2차점,경기 화성시 동탄순환대로19길 21 ,37.1863018,127.1202455
화성 동탄 파라곤점,경기 화성시 동탄기흥로 393-20,37.2013835,127.0926688
화성 동탄 월드점,경기 화성시 동탄중앙로 187 ,37.1953892,127.0695803
화성 동탄 예솔초점,경기 화성시 동탄순환대로22길 46 ,37.1975987,127.1199348
화성 동탄 영천점,경기 화성시 동탄순환대로27길 45 ,37.2075139,127.1067096
화성 동탄 솔빛점,경기 화성시 동탄반석로 70 ,37.199207,127.0714206
화성 동탄 삼부점,경기 화성시 동탄반석로 205 ,37.199207,127.0714206
화성 동탄 목동점,경기 화성시 동탄순환대로,37.1871149,127.1238032
화성 동탄 르파비스점,경기 화성시 동탄면 동탄순환대로,37.164754,127.0888889
화성 동탄 레이크빌점,경기 화성시 동탄면 동탄대로,37.1942504,127.0986483
화성 동탄 늘봄초점,경기 화성시 동탄대로24길 74 ,37.2104895,127.1117603
화성 동원 3차점,경기 화성시 동부대로 1062 ,37.1717325,127.0865108
화성 도연쌤 스터디 하우스점,경기 화성시 동탄순환대로 881-10 ,37.1871149,127.1238032
화성 더샵레이크점,경기 화성시 동탄대로10길 20,37.1754042,127.1087312
화성 다은금곡점,경기 화성시 동탄중앙로 171 ,37.1953892,127.0695803
화성 남양점,경기 화성시 남양읍 시청로 6 ,37.2015184,126.8249767
화성 나루한화우림점,경기 화성시 동탄반석로 42 ,37.199207,127.0714206
화성 기안신미주점,경기 화성시 기안,37.2242671,126.97566608253632
화성 기산 참누리점,경기 화성시 동탄지성로 292 ,37.2119646,127.0544522
화성 금강펜테리움4차점,경기 화성시 동탄순환대로20길 45 ,37.186778,127.1266255
화성 2동탄상록점,경기 화성시 동탄순환대로29길 52 ,37.2048472,127.1081899
화성 2동탄반도점,경기 화성시 동탄대로시범길 168 ,37.2014372,127.1012377
화성 2동탄kcc점,경기 화성시 동탄청계로 303-14 ,37.2014412,127.1196058
화성 2동탄 한화점,경기 화성시 동탄대로시범길 20 ,37.2014372,127.1012377
화성 2동탄 푸르지오점,경기 화성시 동탄순환대로,37.1871149,127.1238032
화성 2동탄 치동초점,경기 화성시 동탄순환대로 881-10 ,37.1871149,127.1238032
화성 2동탄 중흥 s클래스점,경기 화성시 동부대로 951 ,37.1717325,127.0865108
화성 2동탄 금호어울림점,경기 화성시 동탄대로,37.1932945,127.0989825
화성 2동탄 A7블럭점,경기 화성시 병점중앙로 204 ,37.2088829,127.0403629
화성 금호 레이크 2차점,경기 화성시 동탄대로,37.1932945,127.0989825
화곡월정초점,서울 강서구 가로공원로76길 73 ,37.5348312,126.8378596
홍성 내포스타힐스점,충남 홍성군 홍북읍 홍예로 213 ,36.6556722,126.68701
호성학원점,전북 전주시 덕진구 호성,35.8635009,127.1544129
호성동신점,전북 전주시 덕진구 소리로 192 ,35.8583867,127.1448572
혁신온빛초점,전북 전주시 덕진구 장,35.8341201,127.1627059
혁신만성초점,전북 전주시 덕진구 오,35.8294,127.1342
혁신만성양현초점,전북 전주시 덕진구 만성,35.8456999,127.0781702
혁신대방시티점,전북 전주시 덕진구 중동 775-2,35.8366637,127.064701
해운대 센텀롯데캐슬1차 102동점,부산 해운대구 반여로 133 ,35.20182,129.12372
해운대 센텀두산위브점,부산광역시 해운대구 해운대로383번길 70 ,35.1757248,129.1407893
해운대 센텀sk뷰102동점,부산 해운대구 삼어로 55 ,35.20177,129.11579
해운대 반송삼한5차1호점,부산 해운대구 신반송로 72 ,35.2276685,129.1594142
해법수학 연세학원,부산 연제구 토곡로 40 ,35.1820062,129.1029611
해법수학 명륜아이파크2차점,부산 동래구 시실로 49 ,35.2178807,129.085097
함안 호암점,경남 함안군 칠원읍 호암길 22 ,35.2738402,128.5229406
함안 가야점,경남 함안군 가야읍 말산리 48,35.2784659,128.4106452647451
한일타운대림,경기 수원시 팔달구 팔달로 124,37.2818991,127.0057903
하남 천현초교점,경기 하남시 ,37.5392918,127.214948
하남 유니온시티점,경기 하남시 하남유니온,37.54699675,127.22087909368872
하남 위드점,경기 하남시 미사강변,37.57121775,127.18485724138051
하남 신장중점,경기 하남시 ,37.5392918,127.214948
하남 신우초교점,경기 하남시 신,37.4781606,127.1472435
하남 성안점,경기 하남시 덕풍북로 111 ,37.55586345,127.201652125
하남 북위례센터점,경기 하남시 학암동 ,37.47703,127.15832
하남 미사윤슬점,경기 하남시 미사강변서로 127 ,37.5517405,127.1840206
하남 미사써밋점,경기 하남시 미사강변,37.57121775,127.18485724138051
하남 미사강변점,경기 하남시 미사강변,37.57121775,127.18485724138051
하남 미사18단지점,경기 하남시 미사강변서로 127 ,37.5517405,127.1840206
하남 미사 청아초교점,경기 하남시 미사강변중앙,37.5576645,127.1937242
하남 미사 중앙초교점,경기 하남시 미사강변,37.57121775,127.18485724138051
하남 망월초점,경기 하남시 미사강변북로,37.5712047,127.1797269
하남 덕풍한솔점,경기 하남시 덕풍동 548-11,37.5451587,127.2021787
하남 덕풍초교점,경기 하남시 덕풍공원로 1,37.5351344,127.1984709
하남 덕풍주공2점,경기 하남시 덕풍,37.5417742,127.2067037
하남 나룰초교점,경기 하남시 덕풍북로,37.5559438,127.2029278
하남 감일초교점,경기 하남시 감일,37.5000585,127.16835073239488
하남 감일 단샘점,경기 하남시 감이동 443-1,37.5008886,127.164829
하계 송 쌤the스마트학원,서울 노원구 하계동 270,37.63793,127.07251
필탑학원,전북 전주시 완산구 호,35.8157564,127.1535233
포항 흥해남산초점,경북 포항시 북구 흥해읍 중성로32번길 11,36.1070669,129.3466913
포항 효자점,경북 포항시 남구 효성로15번길 31 ,36.0077412,129.3366197
포항 효자상도점,경북 포항시 남구 상도동 694,36.01528,129.35519
포항 효곡점,경북 포항시 남구 효자동길1번길 20 ,36.0072692,129.3289867
포항 환호해맞이그린빌점,경북 포항시 북구 삼호로 413 ,36.0427183,129.3675923
포항 해맞이초점,경북 포항시 북구 삼호로 413,36.0427183,129.3675923
포항 한양수자인점,경북 포항시 북구 장량중앙로 33 ,36.0899175,129.3889129
포항 학천점,경북 포항시 북구 흥해읍 도음로 877 ,36.0779671,129.3100756
포항 푸르지오점,경북 포항시 북구 침촌지구로 10 ,36.0860195,129.3770909
포항 초곡호반점,경북 포항시 북구 흥해읍 초곡지구로 176 ,36.0934522,129.3371836
포항 초곡점,경북 포항시 북구 흥해읍 초곡지구로58번길 38-6,36.0963838,129.3372691
포항 초곡삼구점,경북 포항시 북구 흥해읍 초곡지구로58번길 52 ,36.0963838,129.3372691
포항 지곡점,경북 포항시 남구 연일읍 연지로 90-3,36.0275387,129.3066115
포항 장성점,경북 포항시 북구 새천년대로1249번길 10-6 ,36.07507715,129.38373
포항 이동점,경북 포항시 남구 포스코대로 161 ,36.0151816,129.3657815
포항 이동SAS점,경북 포항시 남구 대이로 137-1 ,36.0292094,129.3395944
포항 유강점,경북 포항시 남구 연일읍 유강길9번길 57 ,36.0036254,129.317598
포항 우현점,경북 포항시 북구 우창동로 66 ,36.0573398,129.3659498
포항 우방신천지1호점,경북 포항시 북구 새천년대로1020번길 8 ,36.0590348,129.3725129
포항 오천힐스테이트점,경북 포항시 남구 오천읍 북원로9번길 13 ,35.9789308,129.4036165
포항 오천부영2차점,경북 포항시 남구 오천읍 남원로 85 ,35.9706359,129.4048082
포항 연일점,경북 포항시 북구 삼호로217번길 19,36.0580481,129.3760698
포항 양서초점,경북 포항시 북구 장량로139번길 34 ,36.0845081,129.3944728
포항 양덕풍림아이원1호점,경북 포항시 북구 양덕로 68 ,36.0848373,129.40235339999998
포항 양덕삼성쉐르빌점,경북 포항시 북구 양덕로50번길 33 ,36.0831171,129.4052789
포항 양덕e편한2차점,경북 포항시 북구 천마로90번길 9 ,36.0846002,129.3991555
포항 신흥초점,경북 포항시 남구 상도로 46-1 ,36.0107709,129.3520845
포항 메트로시티점,경북 포항시 북구 우창로 166-1 ,36.0630203,129.3618379
포항 두산위브점,경북 포항시 북구 새천년대로 1235 ,36.0471272,129.3582928
포항 동해위드점,경북 포항시 남구 동해면 연오로,35.9841201,129.4416696
포항 대림힐이룸점,경북 포항시 북구 양학로34번길 1 ,36.0275182,129.3496552
포항 남부초등점,경북 포항시 북구 중흥로255번길 37-9 ,36.026627,129.358975
포항 구정초점,경북 포항시 남구 오천읍 구정길 29 ,35.980504,129.4096383
포승 직영점,경기 평택시 포승읍 2,36.94987745,126.87189316905553
평화지곡초점,전북 전주시 완산구 평화동2가 909-1,35.7855706,127.1346311
평화일성점,전북 전주시 완산구 평화19길 15 ,35.7951027,127.1378322
평화미소드림점,전북 전주시 완산구 평화동2가 457-4,35.7855706,127.1346311
평택 현촌리더스점,경기 평택시 현촌,37.0002354,127.13227767206864
평택 칠원동광점,경기 평택시 동,36.9947451,127.09100369314396
평택 지웰푸르지오점,경기 평택시 ,36.9924966,127.1127168
평택 이화초점,경기 평택시 비전,37.00110925,127.09351248087808
평택 용죽초점,경기 평택시 ,36.9924966,127.1127168
평택 용이동금호어울림점,경기 평택시 현촌,37.0002354,127.13227767206864
평택 용이동e편한세상점,경기 평택시 신,37.1019878,127.0639423
평택 안중EiE점,경기 평택시 안중읍 현화리 4,36.99055975,126.8977033466292
평택 소사벌초점,경기 평택시 동부,37.1267158,127.0794086
평택 센트럴자이5단지점,경기 평택시 동,36.9947451,127.09100369314396
평택 세교부영1차점,경기 평택시 세교,37.01339205,127.08908354490956
평택 비전한빛점,경기 평택시 평남로 737 ,36.9908051,127.121629
평택 비전푸르지오1차점,경기 평택시 ,36.9924966,127.1127168
평택 비전아이파크점,경기 평택시 용이동 ,36.9975723,127.1337314
평택 덕동초점 스마트 해법수학교습소,경기 평택시 평택,36.9899168,127.0863693
평택 더샵모산초점,경기 평택시 지제동삭1로 163 ,37.0215628,127.0804238
평택 고덕파라곤점,경기 평택시 고,36.99241,127.10123
평택 고덕자이점,경기 평택시 고덕면 ,37.0423374,127.0177605
평택 가재우림점,경기 평택시 막곡길 11 ,37.0413719,127.085511
평택 가내초점,경기 평택시 ,36.9924966,127.1127168
평촌 어바인퍼스트점,경기 안양시 동안구 경수대로 581 ,37.3913982,126.9449118
펠릭스해법학원,서울 구로구 새말로 31 ,37.5055354,126.8900335
파주 해솔롯데7단지점,경기 파주시 가온로 205 ,37.72567359999999,126.74331695109984
파주 해솔2단지점,경기 파주시 와석순환로 347 ,37.7237785,126.7651588
파주 해법정문보습학원점,경기 파주시 금촌동 931-13,37.7584627,126.7697535
파주 해법와석학원점,경기 파주시 한빛로 9 ,37.7087892,126.7547909
파주 해법스터디학원점,경기 파주시 가온로 104 ,37.7260195,126.755148
파주 해법top학원,경기 파주시 송화로 13 ,37.7815821,126.7736532
파주 해냄스마트해법수학점,경기 파주시 금바위로 100-1 ,37.7271102,126.7584409
파주 한울벽산블루밍점,경기 파주시 동패로 117 ,37.7088749,126.7370874
파주 한빛마을7단지점,경기 파주시 와석순환로 61 ,37.7237785,126.7651588
파주 하이엔드 영수학원점,경기 파주시 해올2길 20,37.7348502,126.7315228
파주 플라토영어스마트해법수학점,경기 파주시 탄현면 참매미길 74 ,37.7771861,126.7021179
파주 풍림아이원점,경기 파주시 후곡로 77 ,37.7553211,126.7736413
파주 책향기10단지점,경기 파주시 책향기로 441 ,37.7275883,126.7764545
파주 좋아서하는수학독서학원점,경기 파주시 초,37.96913,126.79654
파주 재성점,경기 파주시 동패로 100 ,37.7088749,126.7370874
파주 이룸점,경기 파주시 가람로 109,37.73300125,126.75423799061656
파주 운정힐스테이트수학애점,경기 파주시 교하로 100 ,37.7271076,126.7339799
파주 운정중흥S클래스점,경기 파주시 심학산로 234 ,37.71902825,126.74000495
파주 운정연리지점,경기 파주시 해솔로 20 ,37.7325096,126.7478738
파주 운정아이파크점,경기 파주시 심학산로 384 ,37.7172731,126.7464832
파주 운정산내7단지점,경기 파주시 청암로 50 ,37.7290102,126.7379512
파주 엘크루스마트해법학원,경기 파주시 가람로,37.7347471,126.7575612
파주 에이플러스학원점,경기 파주시 미래로 369-72 ,37.7250305,126.7509804
파주 선유e해법솔루션학원점,경기 파주시 문산읍 사임당로 65-21 ,37.8627615,126.8014485
파주 서원마을7단지점,경기 파주시 쇠재로 30 ,37.7527338,126.7776983
파주 새말점,경기 파주시 문산읍 문향로17번길 45 ,37.8533482,126.7846261
파주 산내푸르지오점,경기 파주시 심학산로 385 ,37.7172731,126.7464832
파주 산내센트럴푸르지오점,경기 파주시 심학산로 385,37.7172731,126.7464832
파주 바른e해법수학학원점,경기 파주시 숲속노을로 275 ,37.7121599,126.7147932
파주 문산힐스테이트1차점,경기 파주시 문산읍 방촌로 1744 ,37.8400296,126.7484709
파주 문산한양수자인점,경기 파주시 문산읍 당동1로 52 ,37.8644411,126.7723673
파주 문산자연앤5단지점,경기 파주시 문산읍 당동1로 12 ,37.8610009,126.77765780392548
파주 더위너스학원점,경기 파주시 정담길 61 ,37.7705413,126.7764813
파주 금촌유앤아이점,경기도 파주시 ,37.7598955,126.7801502
파주 금촌513점,경기 파주시 금촌2동 쇠재,37.75373255,126.7785998703586
파주 금릉502점,경기 파주시 쇠재로 133 ,37.7527338,126.7776983
파주 금릉4단지점,경기 파주시 후곡로 50 ,37.7553211,126.7736413
파주 강한수학점,경기 파주시 새꽃로 10 ,37.7641219,126.7716416
파주 가람해법학원,경기 파주시 가람로 6 ,37.7332752,126.7510243
파주 가람비발디점,경기 파주시 가람로,37.7347471,126.7575612
파주 e해법드림학원,경기 파주시 금촌동 237-1,37.7584627,126.7697535
통영 죽림중앙점,경남 통영시 광도면 ,34.88297875,128.4196378662415
통영 죽림점,경남 통영시 광도면 죽림리 1578-2,34.8916916,128.4124742
통영 용남엘리트점,경남 통영시 용남,34.877431,128.448535
통영 미수점,경남 통영시 진남아랫길 3 ,34.8314949,128.4087762140004
통영 무전점,경남 통영시 무전1길 50 ,34.8612617,128.42364191732537
칠곡 장곡부영점,경북 칠곡군 석적읍 북중리3길 68 ,36.0784683,128.4107809
칠곡 석적점,경북 칠곡군 석적읍 남율로9길 62 ,36.0685978,128.4080779
칠곡 북삼인평점,경북 칠곡군 북삼읍 인평리,36.06843,128.33853
칠곡 북삼대동점,경북 칠곡군 북삼읍 인강5길 61 ,36.0686802,128.3366891
충주 호암힐데스하임점,충북 충주시 호암토성2로 1 ,36.955506,127.9353217
충주 연수아이파크점,충북 충주시 연수동 605,36.9894069,127.94011420017026
충주 남산동일하이빌점,충북 충주시 염밭로 22 ,36.9597879,127.9440128
충주 교현점,충북 충주시 교현동 592-16,36.9742617,127.9380041
충주 교현성남점,충북 충주시 교현동 269-3,36.9742617,127.9380041
충북 킹덤수학학원점,충북 청주시 흥덕구 덕암로108번길 61,36.6504516,127.4603713
충북 청출어람학원점,충북 진천군 이월면 송림8길 7-4 ,36.9307164,127.4298447
충북 중흥s클래스점,충북 청주시 상당구 단재로 312 ,36.5651474,127.5185182
충북 오창The Best점,충북 청주시 청원구 오창읍 오창중앙로 32,36.7097623,127.4268993
충북 영동점,충북 영동군 계산로 32-12,36.1747369,127.7786274
충북 스마트해법영어수학학원 광혜원점,충북 진천군 광혜원면 화랑1길 7,36.9936544,127.4373093
충북 스마트해법수학 하복대점,충북 청주시 흥덕구 가경동 1240,36.6200658,127.4341467
충북 스마트해법수학 보은1교실점,충북 보은군 보은읍 삼산로4길 18 ,36.4848874,127.719354
충북 스마트해법수학 내곡초점,충북 청주시 흥덕구 송화로108번길 111 ,36.6665803,127.4551269
충북 동성점,충북 음성군 맹동면 학예로 55 ,36.9112488,127.5415983
충남 홍성초교점,충남 홍성군 홍성읍 오관리 654-,36.5883966,126.65794219767356
충남 청양점,충남 청양군 청양읍 칠갑산로7길 15-1 ,36.4531337,126.805
충남 조치원 자이점,세종특별자치시 조치원읍 도원로 16 ,36.5903951,127.2891337565759
충남 예산석탑점,충남 예산군 예산읍 아리랑로 43 ,36.6868277,126.83558690639668
충남 부여 규암초점,충남 부여군 규암면 계백로 8,36.2761859,126.9033753
충남 당진신평리가점,충남 당진시 신평면 신평로 792 ,36.8827498,126.7769294
충남 당진송악대림점,충남 당진시 송악읍 반촌로 103 ,36.8971686,126.7056184
충남 당진거산점,충남 당진시 신평면 거산,36.8919285,126.7321516
충남 논산 자이점,충남 논산시 시민로132번길 7 ,36.1808085,127.1039348
충남 금산1호점,충남 금산군 금산읍 비호산로 4 ,36.1116686,127.4847741
충남 계룡점,충남 계룡시 신도안면 신도안1길 61 ,36.2943707,127.2438399
충남 계룡신성1차점,충남 계룡시 장안1길 9 ,36.2725005,127.2468587
충남 계룡 한라비발디점,충남 계룡시 두마면 농소리 972,36.2557566,127.2527323
충남 계룡 신성점,충남 계룡시 장안1길 9 ,36.2725005,127.2468587
춘천 장학 해온채점,강원 춘천시 동면 ,37.91017115,127.78126389556064
춘천 우두롯데인벤스점,강원 춘천시 충열로 27 ,37.9000794,127.7301915
춘천 석사에버빌1차점,강원 춘천시 지석로 115 ,37.850306,127.7483405
춘천 만천점,강원 춘천시 동면 ,37.91017115,127.78126389556064
춘천 동부초점,강원 춘천시 후석로186번길 9 ,37.8674287,127.7552569
춘천 남부초교점,강원 춘천시 춘주로147번길 12-14 ,37.8595387,127.7254486
최여정 해법수학,전남 강진군 강진읍 서문길 15-9 ,34.6415419,126.7627963
청주 효성스마트해법수학점,충북 청주시 흥덕구 가경로 61 ,36.6193814,127.4423722
청주 파크자이점,충북 청주시 흥덕구 비하동 422,36.6329253,127.4177365
청주 주성e해법수학점,충북 청주시 상당구 사직대로361번길 158-2 ,36.6403727,127.4867463
청주 율량대원1차점,충북 청주시 청원구 율량로 103 ,36.67253585,127.49818089775322
청주 우미린2차해법수학점,충북 청주시 상당구 수영로,36.6332288,127.5122916
청주 용담점,충북 청주시 상당구 용담동 425,36.6366461,127.5078315
청주 신봉점,충북 청주시 흥덕구 신봉동 310,36.6550801,127.468
청주 시티프라디움교실,충북 청주시 상당구 중고개로142번길 31 ,36.618122,127.5187949
청주 스마트해법직지학원점,충북 청주시 흥덕구 대신로74번길 10 ,36.6397694,127.4367683
청주 스마트해법영어수학 수곡점,충북 청주시 서원구 수곡로 39 ,36.6208702,127.469806
청주 스마트해법수학운동초점,충북 청주시 상당구 월운로 116 ,36.6037916,127.5160491
청주 스마트해법수학 푸르지오점,충북 청주시 흥덕구 송화로214번길 7 ,36.6687427,127.4559807
청주 스마트해법수학 분평4단지점,충북 청주시 서원구 1순환로1137번길 80 ,36.6083845,127.4931043
청주 스마트해법수학 금천용담점,충북 청주시 상당구 산성로112번길 32 ,36.6324911,127.5048705
청주 수곡한솔점,충북 청주시 서원구 수곡동 315,36.6176868,127.4835758
청주 분평초점,충북 청주시 서원구 분평동 1200-2,36.6059863,127.4898563
청주 더하이스트점,충북 청주시 청원구 오창읍 중부로 760 ,36.7376627,127.4581188
청주 더베스트학원점,충북 청주시 흥덕구 옥산면 오송가락로 1071 ,36.6773346,127.38898986540966
청주 내덕덕벌초점,충북 청주시 청원구 1순환로341번길 73 ,36.6550756,127.478395
청주 금천부영점,충북 청주시 상당구 금천동 ,36.6267342,127.5051017
철산푸르지오하늘채점,경기 광명시 디지털로 24 ,37.4745097,126.8758483
철산13단지1호점,경기 광명시 철산,37.4760012,126.8675973
철산 도덕파크1점,경기 광명시 철산동 625-2,37.480209,126.8678124
천안타워스마트해법수학교습소,충남 천안시 서북구 미라15길 23,36.8071424,127.1306233
천안굿모닝힐1호점,충남 천안시 동남구 신부8길 21 ,36.8153848,127.1631421
천안 청당벽산1호점,충남 천안시 동남구 청당2길 118 ,36.7800106,127.1557942
천안 차암효성해링턴점,충남 천안시 서북구 3공단6로 123 ,36.84664565,127.10619098292769
천안 월봉일성1호점,충남 천안시 서북구 쌍용동 1556,36.7980536,127.1219741
천안 용곡용소초점,충남 천안시 동남구 일봉로 87-4 ,36.7920706,127.1358312
천안 용곡세광2차점,충남 천안시 동남구 풍세로 769-28 ,36.7605459,127.1281688
천안 쌍정센터점,충남 천안시 서북구 월봉1길 16 ,36.7904147,127.1145534
천안 쌍용마을뜨란채점,충남 천안시 서북구 봉서산1길 41 ,36.8070877,127.11862863685216
천안 신흥초교점,충남 천안시 동남구 목천읍 신계5길 30 ,36.7742466,127.2158773
천안 신안초점,충남 천안시 동남구 원성25길 13-7 ,36.813717,127.1627273
천안 신부힐스테이트점,충남 천안시 동남구 신부동 300-3,36.8193168,127.1585929
천안 신방통정비발디점,충남 천안시 동남구 통정9로 70 ,36.773894,127.1296681
천안 성지새말2단지점,충남 천안시 동남구 일봉로 17 ,36.7933952,127.1322439
천안 성성푸르지오3차점,충남 천안시 서북구 성성6로 68 ,36.8415275,127.1315334
천안 불당호반2차점,충남 천안시 서북구 불당동 1613,36.8119683,127.1089675
천안 불당린스트라우스2단지점,충남 천안시 서북구 불당19로 111 ,36.8079373,127.10335330625418
천안 불당동일1호점,충남 천안시 서북구 시청로 73 ,36.808497,127.113625
천안 불당대원점,충남 천안시 서북구 불당13길 2 ,36.8045366,127.11558061742974
천안 벽산태영점,충남 천안시 서북구 월봉4로 140-14 ,36.7943912,127.1146535
천안 백석환서1호점,충남 천안시 서북구 한들2로 34-28 ,36.8252891,127.11877
천안 백석주공2차점,충남 천안시 서북구 백석3로 91 ,36.8211451,127.1191393
천안 목천부영1호점,충남 천안시 동남구 목천읍 삼성5길 62 ,36.7606247,127.1795181
천안 두정포레나점,충남 천안시 서북구 천안대로 980-17 ,36.9630845,127.1228001
창원 한들초점,경남 창원시 의창구 소봉로 50 ,35.2529799,128.6677979
창원 팔용중앙점,경남 창원시 의창구 사화로90번길 6 ,35.2521707,128.6154925
창원 팔용벽산A점,경남 창원시 의창구 반계로 104-8 ,35.253326,128.6158345
창원 토월초점,경남 창원시 성산구 비음로4번길 4 ,35.2273435,128.697914
창원 토월성원1단지점,경남 창원시 성산구 원이대로 774 ,35.2161408,128.69360112538777
창원 청담베스트점,경남 창원시 성산구 대암로 247,35.2036045,128.7083776
창원 중동유니시티점,경남 창원시 의창구 중동로 34 ,35.25298415,128.62327500107455
창원 용호다산점,경남 창원시 성산구 용지로 233 ,35.229284,128.681734
창원 안민초등점,경남 창원시 성산구 안민로117번길 14-1 ,35.1865113,128.6895765
창원 소답점,경남 창원시 의창구 읍성로79번길 8-1 ,35.2665223,128.6266285
창원 성주유니온빌리지점,경남 창원시 성산구 삼정자로 79,35.1957123,128.717478
창원 사파동성점,경남 창원시 성산구 비음로 150 ,35.2201294,128.7060939
창원 북면힐스테이트점,경남 창원시 의창구 북면 동전로 86 ,35.3001648,128.5959281
창원 북면힐스테이트4차점,경남 창원시 의창구 북면 감계리 ,35.3075437,128.5997304
창원 북면휴먼빌점,경남 창원시 의창구 북면 감계로 297 ,35.302245,128.5913465
창원 북면무동엘리트점,경남 창원시 의창구 북면 무동로226번길 14 ,35.3180511,128.5850936
창원 북면감계푸르지오점,경남 창원시 의창구 북면 감계리 ,35.3075437,128.5997304
창원 북면감계아내1차점,경남 창원시 의창구 북면 감계로 277 ,35.302245,128.5913465
창원 봉림점,경남 창원시 의창구 사림로 47,35.2413445,128.6844866
창원 반송점,경남 창원시 성산구 반송로 148-6,35.2362221,128.6709425
창원 반림현대A점,경남 창원시 성산구 반송로 177 ,35.2362221,128.6709425
창원 반림점,경남 창원시 성산구 반림동 14-2,35.23775,128.67297
창원 도계점,경남 창원시 의창구 하남천동길 20 ,35.2613105,128.6398316
창원 대방점,경남 창원시 성산구 대정로 138 ,35.2070552,128.6981168
창원 남양우성점,경남 창원시 성산구 남양동 17,35.1962,128.69517
창원 남양성원2차점,경남 창원시 성산구 대정로 99 ,35.2070552,128.6981168
창원 남양다락방점,경남 창원시 성산구 대암로 40-14 ,35.2036045,128.7083776
창원 가음동더샵점,경남 창원시 성산구 대정로 36 ,35.2070552,128.6981168
창녕 밝은미래점,경남 창녕군 창녕읍 교상,35.5405977,128.50074715
진해 호반베르디움점,경남 창원시 진해구 웅천동로43번길 19 ,35.1025075,128.759688
진해 풍호우성점,경남 창원시 진해구 충장로 575-3 ,35.1529806,128.679332
진해 푸르지오점,경남 창원시 진해구 천자로 386 ,35.151579,128.6918613
진해 장천점,경남 창원시 진해구 충장로657번길 20,35.1307834,128.7060353
진해 자은이루미점,경남 창원시 진해구 진해대로 945 ,35.1152242,128.8024887
진해 일신님점,경남 창원시 진해구 안골로 359 ,35.0995214,128.8077884
진해 용원부영점,경남 창원시 진해구 안청남로 13 ,35.1012023,128.8052843
진해 신항만점,경남 창원시 진해구 신항북로 202,35.0859897,128.8282848
진해 석동점,경남 창원시 진해구 석동로83번길 2,35.1582987,128.7052885
진해 석동서일점,경남 창원시 진해구 진해대로 725 ,35.1152242,128.8024887
진해 냉천점,경남 창원시 진해구 냉천로 235 ,35.1526595,128.7056506
진천 스마트해법수학 진천점,충북 진천군 진천읍 상산로 66 ,36.8546309,127.4429088
진주 혁신도시1차점,경남 진주시 사들로 157 ,35.1779688,128.1484029
진주 평거휴먼시아3차점,경남 진주시 새평거로 111 ,35.1688541,128.0584788
진주 탑신평점,경남 진주시 진양호로 278 ,35.1674349,128.0423987
진주 초전장재초점,경남 진주시 초전동 ,35.20645915,128.11672297862472
진주 주약점,경남 진주시 천수로 55-1,35.1795369,128.0843932
진주 상평1점,경남 진주시 공단로 17-1,35.1751264,128.1057502
진주 무지개초점,경남 진주시 소호로 16 ,35.170322549999995,128.13536423656075
진주 SKY시티프라디움점,경남 진주시 개양로 100 ,35.1499071,128.1269117
중화산에코르점,전북 전주시 완산구 화산천변6길 3 ,35.8209202,127.1158797
중랑 탑e해법수학점,서울 중랑구 면목동 727-122,37.58178,127.09034
중랑 중랑초점,서울 중랑구 동일로101길 63 ,37.5889675,127.07822
중랑 이레학원점,서울 중랑구 용마산로94길 9-20,37.5899297,127.099328
중랑 신내윤강수학학원점,서울 중랑구 신내역로 213,37.6133485,127.1030295
중랑 신내우디안점,서울 중랑구 신내역로 165 ,37.6133485,127.1030295
중랑 신내성원1호점,서울 중랑구 신내동 783,37.61182,127.09298
중랑 신내9단지점,서울 중랑구 신내로 127 ,37.6000642,127.0970247
중랑 신내6단지점,서울 중랑구 신내로17길 83 ,37.6157797,127.0929797
중랑 상봉건영2차점,서울 중랑구 신내로7다길 3 ,37.6017468,127.0921848
중랑 사가정아이파크점,서울 중랑구 면목동 157-59,37.58178,127.09034
중랑 비콘힐영수학원점,서울 중랑구 숙선옹주로 85 ,37.6145054,127.0803595
중랑 묵동아이파크점,서울 중랑구 동일로157길 60 ,37.6096496,127.0753542
중랑 묵동브라운스톤1점,서울 중랑구 공릉로18길 68 ,37.6183531,127.0811746
중랑 면목 ES해법수학점,서울 중랑구 면목동 657-1,37.58178,127.09034
중랑 면동초점,서울 중랑구 면목동 499-4,37.58178,127.09034
중랑 더자람학원점,서울 중랑구 봉화산로56길 51 ,37.606017,127.099153
중동스마트해법,대구 수성구 수성로41길 32,35.8445997,128.6108402
중구 약수스마트해법수학점,서울 중구 동호로10길 30 ,37.5567072,127.0130598
중구 신당천재해법수학점,서울 중구 청구로1길 23 ,37.557798,127.0165226
중구 신당래미안하이베르점,서울 중구 퇴계로90길 74 ,37.563038,127.021633
좌동 한일유앤아이점,부산 해운대구 좌동 1274,35.1781799,129.1759973
좌동 상당초점,부산 해운대구 대천로103번길 61 ,35.1765794,129.1743725
좌동 롯데3차점,부산 해운대구 세실로 138,35.1711407,129.1771835
좌동 두산1차113동점,부산 해운대구 양운로 182 ,35.1765456,129.1705808
좌동 대림2차점,부산 해운대구 대천로103번길 9 ,35.1765794,129.1743725
좌동 다온스마트학원,부산 해운대구 좌동순환로 174 ,35.17764935,129.17500612627413
종로 혜화점,서울 종로구 혜화로 30 ,37.5875025,126.9998726
종로 창신해법점,서울 종로구 지봉로5길 4 ,37.5739284,127.0149611
제천 화산초점,충북 제천시 내토로41길 21 ,37.1291048,128.2122892
제천 중앙초해법수학점,충북 제천시 의림대로36길 22 ,37.1547628,128.2140786
제천 장락점,충북 제천시 죽하로 65 ,37.155028,128.2232621
제천 신원아침도시점,충북 제천시 원뜰로 25 ,37.1382249,128.1958171
제천 명지해법수학점,충북 제천시 강저로11다길 1 ,37.1188042,128.2041189
제주리플학원점,제주특별자치도 제주시 인다7길 4 ,33.4767657,126.5457079
제주 해법플러스에듀학원,제주특별자치도 제주시 연화로3길 1,33.4770091,126.4898856
제주 한림글로리점,제주특별자치도 제주시 한림읍 옹포,33.4023469,126.2547808
제주 하귀비비스터디점,제주특별자치도 제주시 애월읍 하귀,33.4679524,126.3395167
제주 자신감업 해법수학점,제주특별자치도 서귀포시 대청로 34 ,33.2524802,126.5047647
제주 에스클래스외도점,제주특별자치도 제주시 월대,33.4927019,126.4337236
제주 아름수학교실,제주특별자치도 제주시 건주로7길 24-6 ,33.5133729,126.5829994
제주 신서귀교실,제주특별자치도 서귀포시 신동로27번길 12-1,33.2521506,126.512385
제주 스마트해법수학도남학원점,제주특별자치도 제주시 도남로 59 ,33.4860241,126.533683
제주 스마트해법수학 동제주학원,제주특별자치도 제주시 동문로 56,33.5131379,126.5432587
제주 서호해법영수공부방,제주특별자치도 서귀포시 호근남로 26 ,33.2470762,126.5352374
제주 명륜아카데미,제주특별자치도 제주시 구남로7길 13-7 ,33.4934909,126.5330012
제주 대정교실점,제주특별자치도 서귀포시 대정읍 신영로 123-1 ,33.2215904,126.2539166
제주 남원점,제주특별자치도 서귀포시 남원읍 태위,33.281925,126.7224693
제니스마트수학학원,충북 옥천군 옥천읍 삼양로7길 9-19 ,36.3033728,127.5675812
정관 이진캐스빌109동점,부산 기장군 정관읍 정관로 545 ,35.3215556,129.2288266
정관 이지더원3차312동점,부산 기장군 정관읍 정관로 350 ,35.3215556,129.2288266
정관 이지2차점,부산 기장군 정관읍 정관2로 9,35.3338432,129.1657742
정관 신동아점,부산 기장군 정관읍 정관5로 75 ,35.3281207,129.1785984
정관 방곡초점,부산 기장군 정관읍 정관덕산길 60-1 ,35.3219258,129.1859157
정관 롯데캐슬점,부산 기장군 정관읍 정관3로 52 ,35.3305404,129.1705509
정관 동일2차213동점,부산 기장군 정관읍 정관3로 23 ,35.3305404,129.1705509
정관 동일2차 210동점,부산 기장군 정관읍 정관3로 23 ,35.3305404,129.1705509
정관 동일1차117동점,부산 기장군 정관읍 정관4로 24,35.3271628,129.172659
정관 동원로얄듀크2차점,부산 기장군 정관읍 정관5로 12 ,35.3281207,129.1785984
정관 달산점,부산 기장군 정관,35.341299449999994,129.17015735523836
정관 가동초점,부산 기장군 정관읍 가동2길 13,35.3282245,129.1797347
전북지사직영,전북 전주시 완산구 서신로 107 ,35.8349953,127.1156749
전북 진안점,전북 진안군 진안읍 군하리 136-,35.7914781,127.42590392736815
전북 임실 오수초점,전북 임실군 오수면 충효로 2039,35.53984,127.31519
전북 익산어양주공9차점,전북 익산시 궁동,35.96228375,126.99393802186196
전북 완주봉서초점,전북 완주군 봉동읍 원둔산6길 16,35.9631574,127.1262808
전북 남원월락,전북 남원시 ,35.4163118,127.3903713
전남 혁신점,전남 나주시 그린로 154 ,35.0094954,126.7910238
전남 해남송지점,전남 해남군 송지면 산정1길 63,34.3698919,126.5201208
전남 코아루1호점,전남 목포시 옥암동 1151-6,34.8112025,126.440326
전남 용당점,전남 목포시 양을로,34.812887,126.3996708
전남 오룡행복점,전남 무안군 일로읍 오,34.84438,126.50577
전남 오룡초점,전남 무안군 삼향읍 ,34.84376,126.44764
전남 무안점,전남 무안군 무안읍 불무로 38-7 ,34.9865261,126.4745945
전남 라온초점,전남 나주시 그린로 63 ,35.0094954,126.7910238
전남 대불중흥점,전남 영암군 삼호읍 대불주거6로 16 ,34.7563525,126.4611375
전남 달란트공부방점,전남 화순군 화순읍 광덕로 170 ,35.0620772,126.9924426
전남 남악초점,전남 무안군 삼향읍 남악리 16,34.813593,126.4676528
전남 나주우미점,전남 나주시 한빛로 61 ,35.0304313,126.7832003
전남 고금도점,전남 완도군 고금면 농상도남길 21-2 ,34.3906905,126.8083337
전남 강진중앙초점,전남 강진군 강진읍 중앙로 87 ,34.6400325,126.7697054
일광 e편한세상105동점,부산 기장군 일광,35.268279,129.2332968
인후인봉,전북 전주시 덕진구 무삼지로 8 ,35.8299276,127.1638924
인후스마트해법북일학원,전북 전주시 덕진구 견훤로 332 ,35.8520182,127.1540659
인천 학익풍림아이원점,인천 미추홀구 매소홀로 338 ,37.439151,126.6799415
인천 학익신동아마이티점,인천 미추홀구 학익소로63번길 73-36 ,37.4414614,126.6718194
인천 학익두산위브점,인천 미추홀구 노적산로 43 ,37.4418426,126.6538308
인천 하늘도시현대점,인천 중구 하늘별빛로 66 ,37.4878707,126.5663347
인천 하늘도시한라점,인천 중구 하늘별빛로 86 ,37.4878707,126.5663347
인천 하늘도시우미린2차점,인천 중구 하늘달빛로 113 ,37.4845157,126.5609547
인천 하늘도시e편한세상점,인천 중구 두미포로 112 ,37.4956353,126.5655469
인천 청학클래스점,인천 연수구 비류대로 208 ,37.4240809,126.6846563
인천 청람학원점,인천 서구 청라한울로 96 ,37.5373721,126.646935
인천 청라힐스테이트점,인천 서구 청라한내로 7 ,37.5259784,126.6284743
인천 청라호반29블럭486동점,인천 서구 청라커낼로 163 ,37.5275178,126.6388084
인천 청라호반14블럭점,인천 서구 청라라임로 109 ,37.5373063,126.6517791
인천 청라한양수자인649동점,인천 서구 청라동 85-1,37.5330681,126.6299034
인천 청라한양수자인643동점,인천 서구 청라한내로 132 ,37.5378237,126.6298966
인천 청라한신더휴점,인천 서구 청라한내로 40,37.5375549,126.6281819
인천 청라풍경채점,인천 서구 청라한울로 95 ,37.5397838,126.6468686
인천 청라초은초점,인천 서구 청라에메랄드로41번길 32 ,37.5294083,126.65612
인천 청라중흥점,인천 서구 청라라임로 131 ,37.5392264,126.6519222
인천 청라점,인천 서구 크리스탈로 100,37.5278761,126.6368027
인천 청라에일린의뜰점,인천 서구 청라커낼로 300 ,37.5350538,126.6466587
인천 청라센텀점,인천 서구 비,37.545,126.676
인천 청라서해그랑블점,인천 서구 청라에메랄드로 65 ,37.5369871,126.6564536
인천 청라도담초점,인천 서구 청라커낼로223번길 10 ,37.5288983,126.6442924
인천 청라꿈에그린점,인천 서구 크리스탈로 148 ,37.5378053,126.6386679
인천 청라굿모닝힐점,인천 서구 비지니스로28번길 13 ,37.5274823,126.6234775
인천 주안엘리트점,인천 미추홀구 미추홀대로646번길 44-5 ,37.4549476,126.6820743
인천 주안1캠퍼스점,인천 미추홀구 주안동 546-27,37.4587798,126.679789
인천 운서풍림3차점,인천 중구 신도시북로43번길 86-1 ,37.5016448,126.4845659
인천 용현해법점,인천 미추홀구 낙섬동로 101-4 ,37.4511954,126.6407339
인천 용현일점,인천 미추홀구 용오로 50,37.4544877,126.6411751
인천 용현신창캠퍼스점,인천 미추홀구 용현동 627-5,37.4508937,126.6492456
인천 용현대림점,인천 미추홀구 낙섬중로 4 ,37.4533085,126.6388124
인천 용현금호1차점,인천 미추홀구 낙섬동로 9 ,37.4511954,126.6407339
인천 왕길신명점,인천 서구 봉수대로1440번길 29 ,37.6023731,126.6510119
인천 옥련해법점,인천 연수구 능허대로79번길 30 ,37.4252833,126.642195
인천 영종푸르지오자이점,인천 중구 은하수로 412 ,37.500925,126.5610263
인천 영종중산센터점,인천 중구 하늘중앙로 193 ,37.4990997,126.571667
인천 영종자이점,인천 중구 운남서로 7 ,37.491366,126.5297499
인천 영종운서SK뷰2차점,인천 중구 흰바위로 249 ,37.4781882,126.5053706
인천 영종운서SK뷰1차점,인천 중구 운서동 2751-1,37.48447,126.48626
인천 어진마을점,인천 남동구 논현로 106 ,37.4019682,126.71803337079922
인천 신기점,인천 미추홀구 인하로257번길 29-1 ,37.4493854,126.6766989
인천 스마트해법수학선학초점,인천 연수구 선학동 355,37.4278854,126.6963107
인천 스마트해법수학서창점,인천 남동구 서창남로 16-34,37.4258703,126.748741
인천 스마트해법수학문학초점,인천 미추홀구 매소홀로 556-1 ,37.4467299,126.6378839
인천 스마트해법수학도화초점,인천 미추홀구 경인로 234 ,37.462402,126.6435055
인천 스마트해법관교한신점,인천 미추홀구 인하로352번길 11-12 ,37.447588,126.6886387
인천 송현해법점,인천 동구 수문통로 45-1 ,37.4772953,126.6318699
인천 송도호반3차점,인천 연수구 랜드마크로 110 ,37.41454,126.6173550509148
인천 송도호반1차점,인천 연수구 송도문화로84번길 84 ,37.3714823,126.6589543
인천 송도풍림1단지점,인천 연수구 신송로125번길 7 ,37.3949391,126.6516792
인천 송도퍼스트파크점,인천 연수구 컨벤시아대로252번길 30 ,37.3859582,126.6336488
인천 송도웰카운티점,인천 연수구 해송로30번길 19 ,37.3813488,126.6458445
인천 송도아트윈푸르지오점,인천 연수구 인천타워대로 253-25 ,37.39284455000001,126.63165100974098
인천 송도센트럴시티점,인천 연수구 송도국제대로 261 ,37.3886783,126.6629967
인천 송도마스터뷰점,인천 연수구 컨벤시아대로274번길 15 ,37.3844679,126.6319602
인천 송도마리나베이점,인천 연수구 랜드마크로 160 ,37.4108218,126.6124026
인천 송도글로벌푸르지오점,인천 연수구 송도문화로28번길 28 ,37.3745843,126.6538548
인천 송도e편한세상점,인천 연수구 랜드마크로 113 ,37.41286095,126.61616796287578
인천 서창 센트럴푸르지오점,인천 남동구 서창남순환로 55 ,37.4243919,126.7491864
인천 서구석남점,인천 서구 석남동 555-18,37.5056839,126.667044
인천 산곡푸르지오점,인천 부평구 안남로 269 ,37.51294,126.7095577
인천 산곡경남5차점,인천 부평구 마장로264번길 66 ,37.5012576,126.7067311
인천 불로월드점,인천 서구 검단로 836 ,37.6184263,126.6930754
인천 부흥초점,인천 부평구 부흥로366번길 39 ,37.4973991,126.7327663
인천 부평코오롱하늘채점,인천 부평구 동수천로 132 ,37.4911855,126.7358797
인천 부평청천푸르지오점,인천 부평구 세월천로 16,37.5143491,126.6950264
인천 부평청천금호점,인천 부평구 안남로 272 ,37.51294,126.7095577
인천 부평산곡경남3차점,인천 부평구 마장로272번길 89,37.5023511,126.705596
인천 부평두산위브더파크점,인천 부평구 마곡로 14,37.5121689,126.6998766
인천 부평동아1점,인천 부평구 부평문화로 37 ,37.49468625,126.71951139298662
인천 부평대림점,인천 부평구 부영로 196 ,37.5021711,126.71690605
인천 부개한국점,인천 부평구 동수로120번길 11 ,37.4839346,126.7316976
인천 부개서초점,인천 부평구 수변로 60-1 ,37.48908,126.74008
인천 부개비전점,인천 부평구 동수로 140 ,37.4849156,126.7216931
인천 미송초점,인천 연수구 랜드마크로 160 ,37.4108218,126.6124026
인천 만수주공4점,인천 남동구 백범로124번길 162 ,37.4579003,126.7359573
인천 만수벽산1호점,인천 남동구 호구포로 924 ,37.4671458,126.7226105
인천 만석비치점,인천 동구 화도진로 187 ,37.4758266,126.6342833
인천 마전초점,인천 서구 완정로34번길 20 ,37.5979261,126.6720767
인천 마전검단아이파크점,인천 서구 완정로92번길 28 ,37.6010747,126.6646433
인천 루원시티프라디움점,인천 서구 봉오재3로 66,37.5267948,126.6662487
인천 루원센트럴타운점,인천 서구 봉오재1로 36 ,37.5214953,126.6663089
인천 루원대성베르힐점,인천 서구 봉오재1로 15 ,37.5236951,126.6648895
인천 루원가원초점,인천 서구 봉오재3로 40 ,37.5273952,126.6716725
인천 루원SK2차점,인천 서구 봉오대로 270,37.5220007,126.633995
인천 루원SK1차점,인천 서구 가정로 437 ,37.5235928,126.6713144
인천 롯데캐슬캠퍼스타운점,인천 연수구 송도과학로27번길 55 ,37.3875541,126.6642597
인천 동춘해법점,인천 연수구 원인재로 124 ,37.420815,126.6936591
인천 더월드스테이트점,인천 미추홀구 경원대로 884 ,37.443844,126.6907516
인천 더샵부평센트럴시티124동점,인천 부평구 십정동 216,37.4766289,126.69743135639776
인천 대정초점,인천 부평구 화랑남로 13 ,37.4924293,126.7053066
인천 논현한화12단지점,인천 남동구 논고개로 10 ,37.416058,126.7271037
인천 논현주공2점,인천 남동구 함박뫼로 437 ,37.4127661,126.7037263
인천 논현에코6단지점,인천 남동구 아암대로1503번길 102 ,37.3928812,126.7274119
인천 논현에코10단지점,인천 남동구 아암대로1503번길 21 ,37.3928812,126.7274119
인천 구월힐스테이트점,인천 남동구 구월로 192 ,37.456638,126.7117892
인천 계양효성서초점,인천 계양구 봉오대로477번길 19 ,37.5296122,126.7013374
인천 계양화전초점,인천 계양구 작전동 175-2,37.5304086,126.7257911
인천 계양캠퍼스점,인천 계양구 계산동 1083-4,37.5417555,126.7270315
인천 계양부현초점,인천 계양구 장제로755번길 30-2,37.5354025,126.7321765
인천 계양부평초점,인천 계양구 경명대로 1074,37.5429301,126.7362527
인천 계양명현초점,인천 계양구 봉오대로569번길 13 ,37.5322082,126.7119873
인천 검암루시아빌점,인천 서구 검암동 642-1,37.56569,126.67546
인천 검암2점,인천 서구 검암로10번길 39 ,37.56522215,126.68184734908849
인천 검단호반써밋프라임뷰점,인천 서구 이음2로 70,37.5836327,126.7150937
인천 검단호반써밋1차점,인천 서구 이음5로 15 ,37.5941245,126.7121615
인천 검단초점,서울 강서구 양천로75길 22-10,37.5507345,126.875275
인천 검단신안인스빌점,인천 서구 이음1로 173 ,37.5960636,126.7159994
인천 갈산2동점,인천 부평구 굴포로 42 ,37.5117913,126.726579
인천 간석우성점,인천 남동구 방축로 501 ,37.466988,126.6919836
인천 가좌한신점,인천 서구 건지로 402 ,37.495269,126.6844116
인천 가정신현점,인천 서구 가정로 345 ,37.5098929,126.6724561
이플러스영수학원,경기 안산시 상록구 사동 1191-1,37.302418,126.8500056
이천마장초교점,경기 이천시 마장면 ,37.24892235,127.35802532628496
이천 한내초교점,경기 이천시 갈산로 47,37.2891313,127.4552628
이천 증포초교점,경기 이천시 이섭대천로 1411,37.2436354,127.4405341
이천 증포대우점,경기 이천시 이섭대천로 1427 ,37.2436354,127.4405341
이천 장호진성점,경기 이천시 장호원읍 장감로49번길 5 ,37.1174354,127.6280222
이천 장호원점,경기 이천시 장호원읍 장호원,37.1157113,127.6276835
이천 안흥점,경기 이천시 영창,37.2816939,127.4469674
이천 아미초교점,경기 이천시 부발읍 신아로92번길 7,37.255536,127.4914116
이천 신하세종점,경기 이천시 부발읍 경충대로 2216-3,37.2646739,127.4657158
이천 송정점,경기 이천시 증신로,37.2842395,127.4579454
이천 부발초교점,경기 이천시 부발읍 ,37.2836362,127.4869141
이천 동그라미점,경기 이천시 부발읍 신하,37.26084065,127.4785422759168
이천 대월아이파크점,경기 이천시 대월면 ,37.22988205,127.49239574943948
의정부역센트럴자이점,경기 의정부시 경의로 130,37.733085,127.0474723
의정부 회룡초교점,경기 의정부시 안말로 88 ,37.7145651,127.0487687
의정부 호원초교점,경기 의정부시 신흥로 57-14 ,37.7428304,127.0429129
의정부 호원신원점,경기 의정부시 회룡로105번길 37 ,37.726626,127.0455398
의정부 한울에듀해법수학,경기 의정부시 호동로 67 ,37.7274487,127.0431643
의정부 한라비발디점,경기 의정부시 오목로 73 ,37.7461966,127.0999776
의정부 탑석자이점,경기 의정부시 용민로 10 ,37.744663,127.0923582
의정부 중앙초교점,경기 의정부시 의정부동 227-37,37.7393544,127.0464579
의정부 위더스해법수학,경기 의정부시 송양로 29 ,37.7531226,127.1076109
의정부 우미린해법수학점,경기 의정부시 민락동 888,37.7414687,127.101008
의정부 신곡한일유앤아이점,경기 의정부시 시민로 256 ,37.7344598,127.0779307
의정부 신곡은하수점,경기 의정부시 추동로 12 ,37.747892,127.0673885
의정부 신곡동 e편한세상포레스타뷰점,경기 의정부시 금신로 276 ,37.744483,127.0631154
의정부 스마트해법수학신동학원점,경기 의정부시 신곡동 566-41,37.7374524,127.0600135
의정부 스마트해법수학가능교실,경기 의정부시 가능동 619,37.7495468,127.0322159
의정부 송산초해법수학점,경기 의정부시 민락로 211 ,37.7354163,127.09312
의정부 민락신안점,경기 의정부시 용현로 155 ,37.7412893,127.0900128
의정부 민락센트럴점,경기 의정부시 송양로 75 ,37.7531226,127.1076109
의정부 녹양힐스테이트2점,경기 의정부시 녹양동 355,37.7632835,127.0341847
의정부 금강e해법수학점,경기 의정부시 용민로 263 ,37.744663,127.0923582
의정부 고산해법수학점,경기 의정부시 월유로 13 ,37.7292374,127.110461
의정부 고산한신더휴점,경기 의정부시 입암로 13 ,37.7444164,127.1165453
의정부 고래e해법수학점,경기 의정부시 추동로124번길 36 ,37.7466356,127.0683502
의정부 가능초교점,경기 의정부시 가능동 663-21,37.7495468,127.0322159
의정부 e편한세상1차점,경기 의정부시 시민로 287 ,37.7344598,127.0779307
의왕파크푸르지오점,경기 의왕시 ,37.3449082,126.9689861
의왕숲속마을점,경기 의왕시 ,37.3449082,126.9689861
의왕삼동점,경기 의왕시 부,37.3449082,126.9689861
의왕모락산현대점,경기 의왕시 ,37.3449082,126.9689861
의왕모락산현대1호점,경기 의왕시 ,37.3449082,126.9689861
의왕 청계점,경기 의왕시 안양판교로 211 ,37.3945341,126.9856727
의왕 인덕원센트럴자이점,경기 의왕시 내손로 13 ,37.3839487,126.9761216
의왕 오전점,경기 의왕시 오전로 156 ,37.3481109,126.9818269
의왕 오전동백점,경기 의왕시 오전로 150 ,37.3481109,126.9818269
의왕 삼호한아름점,경기 의왕시 ,37.3449082,126.9689861
의왕 백운밸리효성점,경기 의왕시 백운,37.3813373,127.0006397
의왕 모락점,경기 의왕시 모락로 89-19 ,37.3700446,126.9661748
의왕 내손점,경기 의왕시 포일로 81 ,37.3923967,126.9855544
의왕 내손삼성래미안점,경기 의왕시 포일로 43 ,37.3900534,126.97758185334432
의왕 내손백운1호점,경기 의왕시 내손,37.3821161,126.9790943
의왕 갈뫼점,경기 의왕시 갈미,37.3782071,126.98455242687407
의왕 갈뫼1호점,경기 의왕시 갈미,37.3782071,126.98455242687407
은평지사직영점,서울 은평구 갈현로33길 21,37.6226861,126.9121137
은평증산점,서울 은평구 증산로 271 ,37.58211385,126.907324126147
은평신도초점,서울 은평구 진관2로 77 ,37.6341589,126.9269667
은평스마트해법진강남학원,서울 은평구 서오릉로17길 13-11 ,37.61420755,126.90886980966953
은평스마트해법응암캠퍼스,서울 은평구 응암로 211 ,37.6010222,126.9224129
은평상신2호점,서울 은평구 신사동 18-24,37.59547,126.90718
은평불광미성점,서울 은평구 불광동 248,37.6160647,126.9339579
은평 탁틴학원점,서울 은평구 통일로 796 ,37.5993593,126.9367389
은평 은평초교점,서울 은평구 은평로 221-1 ,37.5979639,126.9105646
은평 유클리드스마트해법점,서울 은평구 진관3로 15-35 ,37.6418377,126.9216295
은평 역촌천사점,서울 은평구 역촌동 219-8,37.605,126.91198
은평 신사초점,서울 은평구 가좌로 280 ,37.5935214,126.9131673
은평 신사상신점,서울 은평구 신사동 41-21,37.59547,126.90718
은평 스마트해법은진초점,서울 은평구 진관1로 21-10 ,37.6315602,126.9241254
은평 스마트해법수학역촌초점,서울 은평구 은평로3길 24,37.6004624,126.915079
은평 스마트해법수학 예일점,서울 은평구 연서로16길 4-1 ,37.6094664,126.9182491
은평 스마트해법수색대림점,서울 은평구 은평터널로 65 ,37.5846647,126.8984766
은평 수학하기좋은날점,서울 은평구 불광동 145-2,37.6160647,126.9339579
은평 불광초점,서울 은평구 불광동 600-3,37.6160647,126.9339579
은평 뉴타운아이파크점,서울 은평구 진관동 12,37.6364811,126.93576169260136
원주 현진에버빌4차점,강원 원주시 시청로 494 ,37.3359371,127.9279772
원주 풍경채점,강원 원주시 봉바위길 68 ,37.33102835,127.92943175
원주 푸른숨10단지점,강원 원주시 혁신로 350-1 ,37.335014,127.9817434
원주 평원캠퍼스점,강원 원주시 평원초교길 8 ,37.35033205,127.9298630964712
원주 태장주공3단지점,강원 원주시 흥양로51번길 16-1 ,37.3861275,127.9535091
원주 태일점,강원 원주시 보수골길 45 ,37.3607222,127.9557305
원주 태봉초교점,강원 원주시 흥양로51번길 20 ,37.385368,127.9566
원주 우산점,강원 원주시 진광길 24-7 ,37.3720302,127.9392536
원주 수학직영,강원 원주시 오리현길 57 ,37.338651,127.972099
원주 서원주점,강원 원주시 남원로469번길 25-39 ,37.32646425,127.94026682220102
원주 봉대캠퍼스점,강원 원주시 양지로 160-2 ,37.3255102,127.9828246
원주 버들초교점,강원 원주시 입춘로 73 ,37.3252232,127.9820103
원주 반곡점,강원특별자치도 원주시 오,37.3420996,127.9197603
원주 반곡아이파크점,강원 원주시 늘품로 199 ,37.335245,127.963129
원주 반곡벽산블루밍점,강원 원주시 반곡길 48 ,37.3395006,127.965904
원주 무실휴먼시아6단지점,강원 원주시 만대로 119 ,37.3321887,127.9248439
원주 무실캠퍼스점,강원 원주시 만대로 165 ,37.3321887,127.9248439
원주 무실요진점,강원 원주시 시청로 66 ,37.3359371,127.9279772
원주 무실솔샘점,강원 원주시 무실로 380 ,37.3332729,127.9309234
원주 무실뜨란채점,강원 원주시 시청로 90 ,37.3359371,127.9279772
원주 무실 세영점,강원 원주시 무실로 415 ,37.3288871,127.92932120561096
"원주 단구현진5,6차점",강원 원주시 단구동 1671-7,37.3238439,127.9530415
원주 단구 한신더휴 점,강원 원주시 단구로 250 ,37.3311386,127.95534036520311
원주 단계캠퍼스점,강원 원주시 원문로100번길 40 ,37.3573936,127.9357786
원주 남원주1점,강원 원주시 구곡길 10-27 ,37.32281785,127.94929125
원주 기업롯데1차점,강원 원주시 지정면 가곡로 50-1 ,37.376017,127.878324
원주 기업도시점,강원 원주시 지정면 신지정로 266 ,37.3847697,127.8741483
울주 덕하유림점,울산 울주군 청량읍 덕정1길 7 ,35.4858877,129.2954091
울산 화봉휴먼시아점,울산 북구 화봉동 1467,35.58998185,129.36925275302332
울산 해롬수학교습소,울산 남구 남중로 124,35.5375,129.34744
울산 장현최상위점,울산 중구 종가29길 1 ,35.5907249,129.3425401
울산 울주명지초점,울산 울주군 범서읍 점촌4길 25 ,35.5705,129.239
울산 염포초점,울산 북구 염포동 184-11,35.5394205,129.3975041
울산 신정초점,울산 남구 봉월로67번길 11-1 ,35.53897,129.30181
울산 신정점,울산 남구 팔등로 67 ,35.5442269,129.308563
울산 스마트해법수학동서학원점,울산 북구 중산서로 18 ,35.6531113,129.34903645377855
울산 삼호영수학원점,울산 남구 삼호로 35-1 ,35.5497949,129.2652449
울산 북구현대글로리아점,울산 북구 이화5길 23 ,35.663564,129.3375013
울산 병영초교실,울산 중구 병영성,35.5767372,129.3461331
울산 명촌초점,울산 북구 명촌7길 40 ,35.5558643,129.3588883
울산 매곡점,울산 북구 매곡1로 46 ,35.644682,129.3515339
울산 다운해법영수학원점,울산 중구 다운로 105 ,35.5812927,129.2652
울산 강남초점,울산 남구 중앙로128번길 25,35.5339136,129.3198762
우아동신초점,전북 전주시 덕진구 우아로 32 ,35.8507768,127.1558825
우림 2차 델타브이점,충북 청주시 청원구 오창읍 오창중앙로 65 ,36.7097623,127.4268993
용해초점,전남 목포시 포미로9번길 3 ,34.8168142,126.397133
용인 흥덕8단지점,경기 용인시 기흥구 흥덕2로118번길 25 ,37.2778634,127.07877648618692
용인 한숲시티4블록점,경기 용인시 처인구 남사,37.1140983,127.150135
용인 한숲5블럭점,경기 용인시 처인구 남사,37.1140983,127.150135
용인 한숲5블럭우등생수학점,경기 용인시 처인구 남사,37.1140983,127.150135
용인 피렌체3차점,경기 용인시 처인구 한터로152번길 62 ,37.2453523,127.230867
용인 풍덕삼성4차점,경기 용인시 수지구 수풍로 90 ,37.3281032,127.0912486
용인 청덕탑수학,경기 용인시 기흥구 중부대로788번길 15,37.2576493,127.1412891
용인 청덕에듀점,경기 용인시 기흥구 구성로 470,37.290613,127.1396258
용인 처인삼가늘푸른점,경기 용인시 처인구 중부대로,37.226607,127.2477947
용인 진산 스마트해법수학점,경기 용인시 수지구 진산로 26,37.3145481,127.0923976
용인 중동점,경기 용인시 기흥구 동백중앙로 175 ,37.2779974,127.1549811
용인 죽전퍼스트점,경기 용인시 수지구 죽전동 488,37.3292,127.11631
용인 죽전내대지점,경기 용인시 수지구 현암로 154 ,37.3315495,127.1268413
용인 인정프린스점,경기 용인시 처인구 금어로 2 ,37.26478225,127.21548977739258
용인 이룸스마트해법수학아카데미,경기 용인시 처인구 경안천로 196-1,37.2354083,127.2102248
용인 역북점,경기 용인시 처인구 용문로 64-1 ,37.2369563,127.197151
용인 역북CL점,경기 용인시 처인구 명지로40번길 15-15 ,37.2300305,127.1836045
용인 에브라임학원,경기 용인시 기흥구 덕영대로2077번길 33 ,37.2667361,127.0945468
용인 어정아이파크점,경기 용인시 기흥구 언동로217번길 7 ,37.2771821,127.1462941
용인 신봉자이1차점,경기 용인시 수지구 신봉2로 30 ,37.3307108,127.0708950129434
용인 신봉우남점,경기 용인시 수지구 신봉동 905,37.31916255,127.09311857787948
용인 신봉신리초점,경기 용인시 수지구 신봉1로48번길 11 ,37.3229678,127.0799065
용인 신봉센트럴점,경기 용인시 수지구 신봉2로 2 ,37.3231998,127.0778589
용인 신동백서해2차점,경기 용인시 기흥구 중동 1139,37.26934,127.15795
용인 스마트해법수학 흥덕7단지점,경기 용인시 기흥구 흥덕2로 125 ,37.2717225,127.0736214
용인 스마트해법수학 역북초아카데미,경기 용인시 처인구 중부대로 1352 ,37.226607,127.2477947
용인 스마트해법수학 상현점,경기 용인시 수지구 상현동 850,37.30318,127.07704
용인 스마트해법수학 기흥고매점,경기 용인시 기흥구 고매로,37.2314039,127.11104
용인 수지신봉효성점,경기 용인시 수지구 신봉1로 28 ,37.3206602,127.081801
용인 수지신봉학원,경기 용인시 수지구 신봉3로 1 ,37.327952800000006,127.06826723177508
용인 수지서원현대점,경기 용인시 수지구 포은대로 219 ,37.32676,127.1283221
용인 수지삼성2차점,경기도 용인시 수지구 수풍로 38 ,37.3272382,127.0913473
용인 성복효자초점,경기 용인시 수지구 성복1로 106 ,37.32268315,127.06217418443376
용인 성복롯데캐슬골드타운점,경기 용인시 수지구 성복2로 10 ,37.3125196,127.0835068
용인 성복데이파크점,경기 용인시 수지구 수지로113번길 16 ,37.3126925,127.0789381
용인 성복경남1단지점,경기도 용인시 수지구 성복1로 157 ,37.3144422,127.0623748
용인 상현상떼빌점,경기 용인시 수지구 상현로 30-10 ,37.310132,127.0838816
용인 상현LG자이점,경기 용인시 수지구 만현로133번길 35 ,37.3035849,127.0889458
용인 삼풍동점,경기 용인시 수지구 문인로 57 ,37.3317413,127.0962761
용인 보정동아솔레시티점,경기 용인시 기흥구 보정로 30 ,37.3198379,127.1155459
용인 메꾸는 포레스트점,경기 용인시 처인구 역북동 233,37.2357419,127.1886075
용인 마북프라자점,경기 용인시 기흥구 마북로154번길 12 ,37.3024606,127.1268329
용인 둔전점,경기 용인시 처인구 포곡읍 포곡로108번길 16,37.2683288,127.2185704
용인 두산제니스A점,경기 용인시 기흥구 동백죽전대로 509 ,37.3089718,127.1284753
용인 동천초점,경기 용인시 수지구 고기로 91 ,37.3474352,127.0898512
용인 동천더샵이스트포레점,경기 용인시 수지구 수풍로 89 ,37.3281032,127.0912486
용인 동천 스마트해법수학 교습소,경기 용인시 수지구 동천로 68,37.3399716,127.0961244
용인 동일2차점,경기 용인시 기흥구 언남동 496,37.29459,127.13182
용인 동백호수데시앙점,경기 용인시 기흥구 동백8로 11 ,37.2867999,127.1516787
용인 동백신영지웰점,경기 용인시 기흥구 동백5로 39 ,37.2760683,127.1548635
용인 동백동원로얄점,경기 용인시 기흥구 동백죽전대로 455-17 ,37.2797935,127.1490123
용인 김량장현대점,경기 용인시 처인구 백옥대로,37.2202784,127.2092134
용인 기흥성호샤인힐즈점,경기 용인시 기흥구 이현로29번길 72-42 ,37.3075609,127.0990651
용인 구성강남한라점,경기 용인시 기흥구 강남동로 126 ,37.2706091,127.1339634
용인 구갈강남7단지점,경기 용인시 기흥구 강남동로 54 ,37.2706091,127.1339634
용인 광교마을45단지점,경기 용인시 수지구 광교마을로 11 ,37.2979202,127.0725018
용인 강남마을점,경기 용인시 기흥구 강남동로 21 ,37.2706091,127.1339634
용인 갈곡초점,경기 용인시 기흥구 강남동로 54 ,37.2706091,127.1339634
용산 이촌라임점,서울 용산구 이촌동 300-322,37.52086,126.96612
용산 이룸에듀학원점,서울 용산구 원효로 51 ,37.5358175,126.962537
용산 문배이안점,서울 용산구 문배동 3-3,37.5367,126.96818
용산 도원삼성점,서울 용산구 도원동 28,37.53857,126.95576
옥정 천보초대방2차점,경기 양주시 옥정동 950-1,37.8207524,127.086985
옥정 제이드웰해법수학점,경기 양주시 옥정동로 106 ,37.8136048,127.0949735
오산시티자이2단지점,경기 오산시 부산중앙로 12 ,37.1518714,127.0915943
오산4단지점,경기 오산시 수청로 209,37.1753384,127.0567128
오산 청호자이점,경기 오산시 동부대로 332-14 ,37.1461191,127.0782122
오산 이편한2차대림점,경기 오산시 오산로132번길 8 ,37.1389075,127.072923
오산 원동초점,경기 오산시 오산로 91-5 ,37.1600137,127.0662696
오산 원동 대림점,경기 오산시 오산로160번길 11 ,37.1411852,127.0701818
오산 운천점,경기 오산시 부산동 778-8,37.15299,127.09032
오산 운암3단지점,경기 오산시 운암로 90 ,37.1525745,127.0766754
오산 운암2단지점,경기 오산시 운암로 89 ,37.1525745,127.0766754
오산 에브라임1점,경기 오산시 부원로 67-3 ,37.1406975,127.085984
오산 양산효성점,경기 오산시 양산로 422 ,37.1977916,127.0328091
오산 세교 1단지점,경기 오산시 수목원로 615 ,37.1459199,127.0552022
오산 더샵파크시티점,경기 오산시 문시로 183-4 ,37.1893444,127.05904
오산 대동점,경기 오산시 운암로 64 ,37.1525745,127.0766754
오산 다온초점,경기 오산시 부산동 815,37.15299,127.09032
오산 고현현대점,경기 오산시 남부대로 430-7 ,37.1342049,127.0428341
오류초점,서울 구로구 천왕동 ,37.4809508,126.8389546
오룡행복초점,전남 무안군 일로읍 오,34.84438,126.50577
예일탑등촌점,서울 양천구 등촌로 180 ,37.540304,126.8639268
예닮교실,경북 안동시 노하길 397-10 ,36.57801,128.69009
영천 지낭학원점,경북 영천시 야사,35.98273,128.94458
영천 수학의봄,경북 영천시 중앙동3길 20 ,35.9740856,128.9294667
영주 하이클래스점,경북 영주시 번영로102번길 41 ,36.8213232,128.6299092
영주 하이클래스가흥초점,경북 영주시 번영로102번길 41 ,36.8213232,128.6299092
영주 풍기교실점,경북 영주시 풍기읍 기주로 108-1 ,36.8703447,128.5248245
영주 청구교실점,경북 영주시 영주로 334 ,36.8228452,128.6091696
영주 천재점,경북 영주시 영주동 553-9,36.82851,128.62089
영주 이룸학원점,경북 영주시 원당로179번길 47 ,36.8266127,128.6302486
영주 남산1호점,경북 영주시 번영로 50 ,36.8225854,128.6274496
영주 가흥코아루노블점,경북 영주시 대학로261번길 27 ,36.8188195,128.6038008
영산초점,전남 목포시 남악2로9번길 14-9 ,34.805801,126.4519882
영등포 현대2차점,서울 영등포구 도신로4길 2 ,37.5001936,126.8968594
영등포 한마음점,서울 영등포구 가마산로61가길 8 ,37.5061109,126.9063006
영등포 푸르지오점,서울 영등포구 도신로29길 10 ,37.5093316,126.9050085
영등포 조이,서울 영등포구 선유로9길 30 ,37.5177493,126.88545
영등포 수학자신감,서울 영등포구 여의대방로35가길 19 ,37.50192955,126.91754111051289
영등포 문래미원점,서울 영등포구 문래로 38 ,37.5183029,126.9034752
영등포 문래두산위브점,서울 영등포구 선유로9나길 8 ,37.5168568,126.88593436616682
영등포 도림점,서울 영등포구 도신로 63 ,37.5077906,126.9038497
영등포 대림해법학원점,서울 영등포구 대림로8길 39 ,37.4908886,126.9050196
영등포 대림3동점,서울 영등포구 대림로34길 15 ,37.4992665,126.900398
영등포 당산리더스해법점,서울 영등포구 당산동 121-12,37.5346241,126.9065487
영덕 프라임아카데미학원점,경북 영덕군 영덕읍 중앙길 104 ,36.4114559,129.376723
연제 창신초점,부산 연제구 여고로14번길 31 ,35.192981,129.0661618
연제 온천천쌍용예가점,부산 연제구 세병로 68 ,35.1959355,129.0826094
연제 연산한일유앤아이상가점,부산 연제구 묘봉산로 4 ,35.1833377,129.0895627
연제 연산자이C상가점,부산 연제구 과정로343번길 43 ,35.1896603,129.0884191
연제 연산연천초점,부산 연제구 과정로225번길 23 ,35.186181,129.101317
연제 연산롯데캐슬점,부산 연제구 황령산로 615,35.17208565,129.0814735328641
연제 연산LG1호점,부산 연제구 고분로 200 ,35.1859369,129.0926619
연제 연산5동점,부산 연제구 연산동 1386-37,35.1834421,129.0899339
연제 롯데데시앙점,부산 연제구 월드컵대로 55,35.1804146,129.08329945659665
연제 다진학원,부산 연제구 고분로 246 ,35.1859369,129.0926619
여주 현암오학점,경기 여주시 ,37.2982901,127.637033
여주 세종초교점,경기 여주시 세종로 230 ,37.287739,127.6344158
여주 교리세종점,경기 여주시 세종로 204-18 ,37.287739,127.6344158
여의조촌점,전북 전주시 덕진구 여암2길 31-13 ,35.8711395,127.0754076
여의도 갈루아해법학원점,서울특별시 영등포구 국제금융로 78 ,37.5208211,126.931415
에코스마트해법수학 중앙점,전북 전주시 덕진구 세병로 67,35.8728309,127.1301938
에코데시앙14점,전북 전주시 덕진구 세병로 208,35.8728309,127.1301938
에코더샵3차점,전북 전주시 덕진구 세병로 138 ,35.8728309,127.1301938
에코더샵2차점,전북 전주시 덕진구 세병로 175,35.8728309,127.1301938
에코더샵1차점,전북 전주시 덕진구 세병로 42 ,35.8728309,127.1301938
양평 양평초교점,경기 양평군 양평읍 양근로137번길 12 ,37.4929889,127.4885851
양평 다문초교점,경기 양평군 용문면 다문리 1,37.4998943,127.5984
양천강서초점,서울 양천구 오목로4길 15 ,37.5209243,126.8418441
양천 윤클래스점,서울 양천구 신월동 18-3,37.52782,126.83692
양천 신정뉴타운점,서울 양천구 신월로20길 7 ,37.5180279,126.8456441
양천 신정2동쌍용점,서울 양천구 신목로 16 ,37.517951,126.8748279
양천 신은초점,서울 양천구 신정이펜2로 20 ,37.5141099,126.8313378
양천 스마트해법신목점,서울 양천구 목동중앙로 97 ,37.5378032,126.87262874400074
양천 샘수학지향초점,서울 양천구 신정로7길 60-7 ,37.5105616,126.836471
양천 목동초점,서울 양천구 목동동로12길 15-1 ,37.5223877,126.8766526
양천 목동점,서울 양천구 목동중앙본로5길 73 ,37.5377433,126.8684009
양천 목동9단지해법공부방점,서울 양천구 목동서로 340 ,37.5220673,126.8689204
양천 목동3단지점,서울 양천구 목동 773-4,37.53608,126.87585
양천 목동14단지점,서울 양천구 목동동로8길 23 ,37.5170074,126.8712098
양천 목동13단지점,서울 양천구 목동동로 100 ,37.51983,126.87042
양천 목6단지점,서울 양천구 목동동로 430 ,37.51983,126.87042
양천 계남초점,서울 양천구 목동동로 50 ,37.51983,126.87042
양천 강서초뮤엠점,서울 양천구 오목로5길 4 ,37.5240112,126.8402448
양주 옥정푸르지오점,경기 양주시 옥정동로 274 ,37.83145725,127.0991123215665
양주 옥정메트로포레e해법수학,경기 양주시 옥정동로 10 ,37.8136048,127.0949735
양주 옥정대방노블랜드점,경기 양주시 회천남로 54 ,37.8176772,127.0774941
양주 옥정계룡더파크포레점,경기 양주시 옥정로2길 265 ,37.811399,127.0992249
양주 옥정e편한세상3차점,경기 양주시 옥정서로1길 60 ,37.8145414,127.0857844
양주 옥빛초점,경기 양주시 옥정로 148,37.8071974,127.0823309
양주 삼성영어셀레나해법수학점,경기 양주시 덕계,37.8186361,127.0566509
양주 백석동화1차점,경기 양주시 백석읍 꿈나무로 299 ,37.793841,126.9875401
양주 굿뉴스점,경기 양주시 고암길 305-40 ,37.8341749,127.0689142
양주 고읍한양1차점,경기 양주시 고읍동 439-2,37.80278,127.07635
양주 고읍덕현점,경기 양주시 고읍로35번길 8 ,37.7993505,127.0798275
양주 e편한에듀파크점,경기 양주시 옥정동로1길 63 ,37.8164564,127.0945099
양산 이지더원3차점,경남 양산시 동면 금오16길 100 ,35.3179191,129.0260505
양산 어곡점,경남 양산시 두전길 40 ,35.3821672,129.0269614
양산 양우5차점,경남 양산시 물금읍 물금로 41 ,35.3113557,128.9912743
양산 신기주공점,경남 양산시 신기서길 23 ,35.3525614,129.0396103
양산 수자인점,경남 양산시 물금읍 서들로 148,35.3044216,129.0053631
양산 석산반도5차점,경남 양산시 동면 금오13길 12 ,35.3196218,129.0251923
양산 사송트루엘점,경남 양산시 동면 내송,35.3152239,129.0659969
양산 사송더샵데시앙1단지점,경남 양산시 동면 내송,35.3152239,129.0659969
양산 범어백년가약점,경남 양산시 물금읍 범어리 2676-1,35.33471265,129.00778506915037
양산 동면동원2차점,경남 양산시 동면 금오15길 9 ,35.3181442,129.0231761
양산 덕계두산위브점,경남 양산시 덕계동 180-5,35.37817,129.15881
양산 대운점,경남 양산시 대운7길 26 ,35.4078241,129.1725723
야탑 상탑초점,경기 성남시 분당구 판교로 627 ,37.4032112,127.1048255
압량초점,경북 경산시 압량읍 압독2로8길 8 ,35.8408924,128.7659989
안양호원메타점,경기 안양시 동안구 경수대로 597 ,37.3757383,126.9559112
안양호계덕현점,경기 안양시 동안구 경수대로584번길 37 ,37.3753822,126.959028
안양호계3동대림1호점,경기 안양시 동안구 호성로 49 ,37.3683193,126.9654266
안양평촌금호점,경기 안양시 동안구 귀인로 152 ,37.383072,126.9473908
안양안양초점,경기 안양시 만안구 안양로 2,37.4138852,126.9094082
안양석수삼성초점,경기 안양시 만안구 경수대로 1241 ,37.433928,126.903063
안양메가트리아점,경기 안양시 만안구 ,37.3863,126.9324
안양더샵점,경기 안양시 동안구 시민대로327번길 55 ,37.3970677,126.9642131
안양관양점,경기 안양시 동안구 관양동 1408-18,37.4043622,126.96415
안양9동점,경기 안양시 만안구 ,37.3863,126.9324
안양3동 성원점,경기 안양시 만안구 안양3동 ,37.3962646,126.9147024
안양1동래미안1호점,경기 안양시 만안구 ,37.3863,126.9324
안양 호계럭키점,경기 안양시 동안구 경수대로623번길 46 ,37.3766869,126.9531242
안양 호계꿈터점,경기 안양시 동안구 경수대로 458 ,37.3640647,126.96004398494428
안양 향촌현대4차점,경기 안양시 동안구 귀인로 193 ,37.383072,126.9473908
안양 향촌롯데1호점,경기 안양시 동안구 평촌대로180번길 28 ,37.3885602,126.9597397
안양 한가람신라1호점,경기 안양시 동안구 달안로 124 ,37.3918732,126.9443657
안양 한가람두산점,경기 안양시 동안구 달안로 125 ,37.3918732,126.9443657
안양 평촌현대점,경기 안양시 동안구 귀인로 213 ,37.383072,126.9473908
안양 평촌샘마을임광점,경기 안양시 동안구 평촌대로40번길 100 ,37.3762289,126.9628769
안양 평촌무궁화태영 점,경기 안양시 동안구 경수대로610번길 31 ,37.3780924,126.9592625
안양 지사직영점,경기 의왕시 갈미,37.3782071,126.98455242687407
안양 인덕원 삼성점,경기 안양시 동안구 관양로305번길 34 ,37.3979208,126.9785958
안양 씨엘포레자이점,경기 안양시 만안구 안양,37.4006488,126.9237086
안양 스카이벽산점,경기 안양시 만안구 박달로,37.4029926,126.8806045
안양 수리산점,경기 안양시 만안구 안양동 106,37.40010445,126.9252628
안양 석수현대점,경기 안양시 만안구 안양,37.4006488,126.9237086
안양 비산임곡점,경기 안양시 동안구 비산동 514,37.4011874,126.9428157
안양 비산샘모루점,경기 안양시 동안구 관악대로 121 ,37.4004725,126.9473914
안양 비산삼호점,경기 안양시 동안구 관악대로 177 ,37.4004725,126.9473914
안양 비산래미안1점,경기 안양시 동안구 관악대로 133 ,37.4004725,126.9473914
안양 비산꿈에그린점,경기 안양시 동안구 경수대로883번길 40 ,37.3968145,126.9358176
안양 범계점,경기 안양시 동안구 동안로 98 ,37.390918,126.9511057
안양 동편마을3단지점,경기 안양시 동안구 동편로 110 ,37.408411,126.973689
안양 관악부영점,경기 안양시 동안구 학의로 44 ,37.3970044,126.9446278
안양 공작부영점,경기 안양시 동안구 관평로212번길 21 ,37.3964005,126.9609863
안성 용머리초점,경기 안성시 공도읍 기업단지로 57-11 ,37.0116585,127.1583594
안성 아양수학교실점,경기 안성시 아양,37.004534,127.268529
안성 당왕대우경남점,경기 안성시 당왕동,37.0207338,127.2681625
안성 공도블루밍점,경기 안성시 공도읍 만정리 880,37.00204775,127.17208376429348
안성 공도금호점,경기 안성시 공도읍 도화길 87 ,37.0089121,127.1724635
안성 kcc스위첸점,경기 안성시 공도읍 공도로 150 ,36.9982022,127.1637493
안산호수공원대림점,경기 안산시 단원구 광,37.3426561,126.83056370109574
안산푸르지오5차점,경기 안산시 단원구 광,37.3426561,126.83056370109574
안산자이그랑시티1차,경기 안산시 상록구 해양,37.29420565,126.82378400541656
안산원곡푸르지오8차점,경기 안산시 단원구 원,37.2281034,126.5478284
안산신길대월점,경기 안산시 단원구 신길,37.3365361,126.78564924897836
안산본오우성점,경기 안산시 상록구 본오,37.29276795,126.86723739822575
안산 해법아영샘수학점,경기 안산시 단원구 초지,37.3206177,126.8061208
안산 푸른마을5단지점,경기 안산시 상록구 ,37.3007,126.8465
안산 푸르지오7차점,경기 안산시 상록구 해양,37.29420565,126.82378400541656
안산 푸르지오3차점,경기 안산시 단원구 광,37.3426561,126.83056370109574
안산 푸르지오1차점,경기 안산시 단원구 고잔동 781,37.3217024,126.82924126590532
안산 초지풍림교실점,경기 안산시 단원구 초지동 ,37.3099601,126.81682077252302
안산 초지12단지점,경기 안산시 단원구 초지동,37.3099601,126.81682077252302
안산 월피현대점,경기도 안산시 상록구 충장로 579 ,37.2851315,126.8562744
안산 원곡경남점,경기 안산시 단원구 원선,37.3282692,126.7976229
안산 영재해법점,경기 안산시 상록구 부,37.3007,126.8465
안산 스마트해법수학초지점,경기 안산시 단원구 초지동,37.3099601,126.81682077252302
안산 스마트해법수학메이저타운점,경기 안산시 단원구 화랑로 160 ,37.3217024,126.82924126590532
안산 스마트해법수학건건학원점,경기 안산시 상록구 건건로 1,37.31246655,126.903769504548
안산 센트럴푸르지오점,경기 안산시 단원구 고잔,37.316829,126.8239299
안산 성포주공11단지점,경기 안산시 상록구 성포,37.3261369,126.8513365
안산 선부점,경기 안산시 단원구 ,37.319,126.8122
안산 선부뿌리탑수학점,경기 안산시 단원구 와동 7,37.34247405,126.817673936668
안산 상록탑클래스점,경기 안산시 상록구 반,37.3124221,126.9038361
안산 부곡점,경기 안산시 상록구 부곡동 ,37.334214,126.8614999
안산 본원점,경기 안산시 상록구 본오동 885-15,37.29416975,126.8594769
안산 메트로푸르지오점,경기 안산시 단원구 ,37.319,126.8122
안산 담원해법수학학원점,경기 안산시 상록구 ,37.3007,126.8465
안산 그랑시티자이2차점,경기 안산시 상록구 사동 1639-,37.2990584,126.84534645558706
안산 고잔그린빌8단지점,경기 안산시 단원구 광,37.3426561,126.83056370109574
안산 15단지 지니점,경기 안산시 단원구 초지,37.3206177,126.8061208
안동 학샘수학학원,경북 안동시 ,36.5634886,128.7260798
안동 용상초교실점,경북 안동시 중평5길 39-9 ,36.5555269,128.7534105
안동 용상세인트점,경북 안동시 용상동 ,36.56525,128.76658
안동 용상6주공점,경북 안동시 경동로 977-5 ,36.554877,128.7582194
안동 옥동점,경북 안동시 노하길 397-10 ,36.57801,128.69009
안동 수학에반하다학원점,경북 안동시 복주길 52,36.5632882,128.6996394
안동 센트럴자이점,경북 안동시 배움길 77 ,36.5610221,128.7165114
안동 부원학원점,경북 안동시 배움길 74 ,36.5610221,128.7165114
안동 머스트학원점,경북 안동시 길주,36.55551945,128.7601373215412
안동 도청호반2차교실점,경북 예천군 호명면 양지로 14,36.5797212,128.4802771
안동 도청호반1차점,경북 예천군 호명면 행복로 215,36.5779349,128.4746771
안동 도청모아엘가교실,경북 예천군 호명면 양지로 55 ,36.5797212,128.4802771
안동 도청동일스위트점,경북 예천군 호명면 행복로 177 ,36.5779349,128.4746771
안동 꿈꾸는공부방점,경북 안동시 제비원로 173 ,36.5934551,128.7139915
안동 강남초점,경북 안동시 강남1길 105 ,36.548772150000005,128.7336353520908
안동 SL수학학원점,경북 안동시 강남6길 6 ,36.5501497,128.7339222
아산 풍기주은1호점,충남 아산시 어의정로183번길 14 ,36.77617135,127.01767264307692
아산 풍기이지더원1차1호점,충남 아산시 풍기동 240-6,36.7711084,127.023947
아산 풍기아이파크점,충남 아산시 남부로 321-8 ,36.77304815,127.01842339238787
아산 풍기동일하이빌1호점,충남 아산시 남부로 353 ,36.7728193,127.02000906213765
아산 풍기 이지더원 1차 2호점,충남 아산시 어의정로 184 ,36.77539145,127.01857266304177
아산 탕정트라팰리스1호점,충남 아산시 탕정면 탕정면로 37 ,36.79921155,127.0609236589091
아산 탕정지웰시티2단지점,충남 아산시 탕정면 매곡중앙로 70 ,36.7881472,127.0827832
아산 장존청솔1호점,충남 아산시 외암로 1247 ,36.7475537,127.0137894
아산 용화주공3단지점,충남 아산시 온중로 22 ,36.77243385,126.99662162111764
아산 용화아이파크점,충남 아산시 용화고길 46 ,36.7730645,127.0094849
아산 용화신도브래뉴점,충남 아산시 용화로9번길 4-18 ,36.7718946,127.0094164
아산 온천미소지움점,충남 아산시 아산로 124,36.8334717,126.966301
아산 법곡코아루점,충남 아산시 법곡길 8 ,36.7642933,127.0063037
아산 배방푸르지오점,충남 아산시 배방읍 공수리 273-27,36.7679502,127.0527192
아산 배방우방유쉘1단지점,충남 아산시 배방읍 공수리 193-5,36.7679502,127.0527192
아산 배방비발디점,충남 아산시 배방읍 배방로 131 ,36.7711343,127.077983
아산 배방 테라스인포레점,충남 아산시 배방읍 배방로 78 ,36.7711343,127.077983
아산 모종한라동백점,충남 아산시 삼동로 34 ,36.784977,127.0115601
아산 모종1호점,충남 아산시 모종동 361-5,36.7848603,127.0203644
아산 권곡초교점,충남 아산시 문화로243번길 13 ,36.7908485,127.0130679828779
아산 권곡서해그랑블2단지점,충남 아산시 문화로 257-24 ,36.79016135,127.01712534991928
신정뉴타운 아이파크위브점,서울 양천구 남부순환로85길 12 ,37.5145573,126.841437
신정뉴타운 롯데캐슬점,서울특별시 양천구 중앙로29길 61 ,37.5159134,126.8501743
신도림롯데,서울 구로구 신도림동 642,37.50941,126.88285
신길대치학원,서울 영등포구 당산로16길 7-9,37.5225571,126.8978324
신길5동해법교실,서울 영등포구 신길동 355-22,37.50556,126.91278
시흥정왕우등생점,경기 시흥시 옥구천동로374번길 67 ,37.3519525,126.7325436
시흥은계위너스학원,경기 시흥시 은계번영길 1,37.4363551,126.8019742
시흥배곧한라1차점,경기 시흥시 배곧1로 27-15 ,37.3581048,126.7180298
시흥배곧이지더원2차점,경기 시흥시 서울대학로 ,37.3754667,126.73811052154988
시흥대야지니어스해법수학,경기 시흥시 은행로 164 ,37.437534,126.795811
시흥 혜윰해법점,경기 시흥시 목감둘레로 41 ,37.3811892,126.8616833
시흥 해법하상점,경기도 시흥시 하상동 ,37.3936478,126.8149704
시흥 한신휴플러스점,경기 시흥시 배곧4로 106-26 ,37.377424,126.7278127
시흥 하상태평점,경기 시흥시 상직길 4 ,37.3894135,126.8147591
시흥 탑에듀학원점,경기 시흥시 산현동 497,37.374817,126.8380654
시흥 정왕세종3차점,경기 시흥시 중심상가로 105,37.3474719,126.7298109
시흥 정왕서해2차점,경기 시흥시 정왕신길로49번길 21 ,37.3610743,126.7289874
시흥 정왕서촌점,경기 시흥시 정왕대로118번길 34 ,37.350008,126.7271204
시흥 정왕문영점,경기 시흥시 함송로 35 ,37.3603883,126.7356159
시흥 장현호반써밋점,경기 시흥시 장현순환로 58 ,37.37685,126.7965233
시흥 장현슈츠수학학원점,경기 시흥시 장현능곡로 9 ,37.3724053,126.7957419
시흥 장현모아에듀포레점,경기 시흥시 장현순환로 81 ,37.37685,126.7965233
시흥 장현금강펜테리움점,경기 시흥시 군자동 222,37.35486,126.78038142226004
시흥 은행점,경기 시흥시 은행로 93 ,37.4399695,126.7945060863335
시흥 은계한양수자인점,경기 시흥시 은계남로 11 ,37.4347977,126.8010607
시흥 신천삼환점,경기 시흥시 신천동 949,37.43961895,126.77885229608218
시흥 배곧호반써밋1차점,경기 시흥시 서울대학로278번길 19-13 ,37.3710087,126.7269978
시흥 배곧해솔초교실점,경기 시흥시 배곧1로 27-16 ,37.3639658,126.71501035868852
시흥 배곧2차점,경기 시흥시 서울대학로 328 ,37.3735669,126.7377857
시흥 배곧 호반3차점,경기 시흥시 배곧4로 106-25 ,37.377424,126.7278127
시흥 목감운흥초점,경기 시흥시 목감중앙로 53 ,37.3737639,126.8549499
시흥 대야점,경기 시흥시 복지로 96 ,37.44726255,126.79184513724891
시흥 대야앤지스점,경기 시흥시 비둘기공원7길 22 ,37.4441042,126.79283756925302
시흥 다니엘e해법수학점,경기 시흥시 거모동 1717-1,37.3552987,126.7751935
스마트해법홍제원점,서울 서대문구 통일로34길 28-6 ,37.5860693,126.949811
스마트해법일루미스테이트1호점,경기 부천시 범안로 157-8,37.4570689,126.8148109
스마트해법영어수학 방서 동남점,충북 청주시 상당구 동남로 43,36.6036734,127.5142753
스마트해법수학포천신읍점,경기 포천시 군내면 호국로 1536-22,37.8890382,127.1972
스마트해법수학영어DMC역점,서울 은평구 수색로 217-1 ,37.5774108,126.9026094
스마트해법수학어울초점,서울 은평구 통일로 660,37.5993593,126.9367389
스마트해법수학마곡연세점,서울 강서구 방화대로34길 57 ,37.5701427,126.8193294
스마트해법수학나는최고점,경기 양주시 회천중앙,37.8315234,127.0628869
스마트해법수학 현대점,전남 광양시 광영동 760-3,34.962653,127.7164505
스마트해법수학 풍덕점,전남 순천시 팔마1길 18,34.9320815,127.5140266
스마트해법수학 창신초점,충북 청주시 서원구 창신로 9-1 ,36.6323662,127.4644336
스마트해법수학 직영점,전남 순천시 팔마1길 18 ,34.9320815,127.5140266
스마트해법수학 중흥7차점,전남 순천시 해룡면 좌야,34.9305246,127.54489762148224
스마트해법수학 중흥5차점,전남 순천시 해룡면 신대로 97 ,34.92767,127.5497657
스마트해법수학 조이점,전남 순천시 연향1로 55 ,34.9449758,127.5226523
스마트해법수학 율산점,전남 순천시 율산길 52 ,34.9395747,127.5342864
스마트해법수학 운천캠퍼스,충북 청주시 흥덕구 사운로 210 ,36.6570286,127.4683767
스마트해법수학 용당점,전남 순천시 용당,35.0170075,127.477089
스마트해법수학 옥길점,경기 부천시 양지,37.482248,126.813564
스마트해법수학 역촌점,서울 은평구 진흥로1길 11,37.6032991,126.9194524
스마트해법수학 여문점,전남 여수시 여문1로 90 ,34.7514316,127.7056631
스마트해법수학 여도점,전남 여수시 봉계동 33-66,34.7830789,127.6807818
스마트해법수학 서한점,전남 순천시 삼산초등길 20 ,34.9655649,127.4877175
스마트해법수학 새움점,전남 광양시 광양읍 서평1길 10 ,34.9797408,127.5765954
스마트해법수학 사천초점,충북 청주시 청원구 사뜸로 100-5 ,36.6674305,127.48041
스마트해법수학 비봉점,전남 순천시 봉화2길 128 ,34.9618762,127.5181195
스마트해법수학 보성점,전남 보성군 보성읍 중앙로 7 ,34.7694159,127.0818852
스마트해법수학 방화동성점,서울 강서구 방화동 829-4,37.57682,126.81422
스마트해법수학 미래점,전남 순천시 장,34.97549,127.29228
스마트해법수학 마곡W타워점,서울 강서구 방화대로 294 ,37.56696495,126.81694937139925
스마트해법수학 두아디라점,전남 순천시 서면 ,35.0341612,127.4432751
스마트해법수학 덕례점,전남 광양시 광양읍 대림오성로 11 ,34.9685367,127.5645878
스마트해법수학 녹동점,전남 고흥군 도양읍 천마로 86 ,34.53764,127.13941
스마트해법수학 남산점,전남 순천시 순천만정원로 86 ,34.9355845,127.4957805
스마트해법수학 프라임점,전남 광양시 광양읍 ,34.9632334,127.60189311057766
스마트해법수학 중앙점,전남 광양시 불로로 141 ,34.9443079,127.6826272
스마트해법 한뫼초점,경기 고양시 일산서구 고양대로 632,37.68553965,126.76628903066693
스마트해법 범박드림센터점,경기 부천시 범안로 141-10 ,37.4570689,126.8148109
스마트해법 강월초점,서울 양천구 신월동 987-1,37.52782,126.83692
스마트 해법수학 동일 스위트1단지점,대전 대덕구 대청로 43 ,36.4521291,127.4321801
수지e편한점,경기 용인시 수지구 포은대로313번길 7-10 ,37.3155157,127.0851183
수원직영교실점,경기 수원시 영통구 법조로 25 ,37.2881904,127.0662288
수원역 해모로점,경기 수원시 권선구 세류로 60 ,37.262887,127.0076931
수원 힐스테이트영통1점,경기도 수원시 영통구 망포,37.245765,127.0569012
수원 효탑초점,경기 수원시 권선구 ,37.2567361,126.9719715
수원 화양학원점,경기 수원시 팔달구 ,37.27499405,127.01614184294944
수원 화서주공점,경기 수원시 팔달구 덕영대로,37.2644758,127.0020252
수원 화서위브하늘채점,경기 수원시 팔달구 ,37.27499405,127.01614184294944
수원 화서역파크푸르지오점,경기 수원시 장안구 대평로 ,37.29196515,126.9963555891706
수원 화서벽산점,경기 수원시 팔달구 화양,37.2832799,126.99528061735926
수원 호매실호반2단지점,경기 수원시 권선구 매,37.26391195,127.04318801336832
수원 호매실초점,경기 수원시 권선구 호매실로,37.2568256,126.96901502500852
수원 호매실중앙점,경기 수원시 권선구 호매실로,37.2568256,126.96901502500852
수원 호매실밸섬시티점,경기 수원시 권선구 호매실로,37.2568256,126.96901502500852
수원 호매실모아점,경기 수원시 권선구 서수원,37.2582374,126.96983419292332
수원 호매실능실점,경기 수원시 권선구 호매실로,37.2568256,126.96901502500852
수원 호매실GS,경기 수원시 권선구 매,37.26391195,127.04318801336832
수원 호매실 금호초점,경기 수원시 권선구 칠보,37.267483,126.934611
수원 한화포레나장안점,경기 수원시 장안구 파장동 1,37.3090883,126.9950347
수원 한일타운점,경기 수원시 장안구 경수대로 940 ,37.3090883,126.9950347
수원 한일쌍용점,경기 수원시 장안구 경수대로,37.3090883,126.9950347
수원 하늘채코오롱2단지점,경기 수원시 권선구 곡반정로 158 ,37.2370259,127.030384
수원 하늘채더퍼스트점,경기 수원시 권선구 곡반정로 188 ,37.2370259,127.030384
수원 팔달힐스푸르지오점,경기 수원시 영통구 광교호수공원로 80 ,37.2797321,127.0595857
수원 팔달초점,경기 수원시 팔달구 우만동 131-4,37.2761059,127.0410416
수원 팔달래미안점,경기 수원시 팔달구 세지로 211 ,37.2798524,127.0239327
수원 태장초1점,경기 수원시 영통구 태장,37.2494667,127.05920786781196
수원 칠보마을5단지점,경기 수원시 권선구 금곡,37.2789374,126.9505264
수원 천천대월점,경기 수원시 장안구 천천,37.299456250000006,126.98311040757858
수원 천일초점,경기 수원시 장안구 ,37.3037639,127.0105254
수원 조원한일초점,경기 수원시 장안구 경수대로,37.3090883,126.9950347
수원 조원주공점,경기 수원시 장안구 ,37.3037639,127.0105254
수원 조원북중점,경기 수원시 장안구 조원로,37.29739805,127.0232545
수원 정천초점,경기 수원시 장안구 ,37.3037639,127.0105254
수원 정자한라점,경기 수원시 장안구 ,37.3037639,127.0105254
수원 정자풍림벽산점,경기 수원시 장안구 정자천로,37.2979237,126.99652613757708
수원 정자초점,경기 수원시 장안구 정자동 304,37.2979237,126.99652613757708
수원 정자스카이점,경기 수원시 장안구 이,37.3037639,127.0105254
수원 정자송림초점,경기 수원시 장안구 대평로,37.29196515,126.9963555891706
수원 정자송림점,경기 수원시 장안구 정자천로,37.2979237,126.99652613757708
수원 정자센터점,경기 수원시 장안구 대평로 ,37.29196515,126.9963555891706
수원 정자삼환점,경기 수원시 장안구 천천,37.299456250000006,126.98311040757858
수원 정자동신점,경기 수원시 장안구 정자동 3,37.295591,126.99257251093796
수원 정자대림점,경기 수원시 장안구 천천,37.299456250000006,126.98311040757858
수원 장안힐스점,경기 수원시 장안구 장안,37.3037639,127.0105254
수원 잠원초점,경기 수원시 영통구 태장,37.2494667,127.05920786781196
수원 입북자이점,경기 수원시 권선구 입북로 41,37.3004278,126.9573689
수원 일월코오롱점,경기 수원시 권선구 구운동 ,37.2788197,126.9691446
수원 인계한신점,경기 수원시 팔달구 인계동 319-6,37.2624334,127.0297259
수원 인계초점,경기 수원시 팔달구 인계동 268-,37.2611183,127.036989
수원 율전초점,경기 수원시 장안구 ,37.3037639,127.0105254
수원 율전밤꽃마을점,경기 수원시 장안구 상률,37.3047081,126.96957257894502
수원 위상수학학원,경기 수원시 장안구 ,37.3037639,127.0105254
수원 원천점,경기 수원시 영통구 매영,37.250209,127.075486
수원 원일점,경기 수원시 영통구 중부대로,37.2685431,127.0682853
수원 우만아주대점,경기 수원시 팔달구 우만동 3,37.2840309,127.0217135
수원 영화초점,경기 수원시 장안구 조원동 ,37.30860585,127.00582430753065
수원 영통황골보배점,경기 수원시 영통구 영통로 498 ,37.2620433,127.0769073
수원 영통청명학원,경기 수원시 영통구 봉영로,37.2650614,127.0821494
수원 영통청명점,경기 수원시 영통구 봉영로,37.2650614,127.0821494
수원 영통벽적골점,경기 수원시 영통구 영통로,37.2620433,127.0769073
수원 영통롯데점,경기 수원시 영통구 덕영대로,37.2464971,127.0669237
수원 영통9단지점,경기 수원시 영통구 봉영로,37.2650614,127.0821494
수원 영통7단지점,경기 수원시 영통구 봉영로 1526,37.2650614,127.0821494
수원 영통3단지점,경기 수원시 영통구 영통로 460 ,37.2620433,127.0769073
수원 연무점,경기 수원시 장안구 연무동 240-,37.3085298,127.0292364
수원 아이파크캐슬1단지점,경기 수원시 영통구 덕영대로 1410 ,37.2464971,127.0669237
수원 아이파크에비뉴점,경기 수원시 권선구 동수원로,37.2558244,127.0363804
수원 아이파크시티점,경기 수원시 권선구 동수원로,37.2558244,127.0363804
수원 신성초1점,경기 수원시 영통구 청명북로 33 ,37.2571273,127.0799726
수원 스카이점,경기 수원시 장안구 이,37.3037639,127.0105254
수원 수일초점,경기 수원시 팔달구 팔달로 124,37.2818991,127.0057903
수원 수원초점,경기 수원시 팔달구 고등,37.275206,127.0098712
수원 수원역푸르지오점,경기 수원시 팔달구 덕영대로803번길 43,37.2761368,126.9961385
수원 수성초1점,경기 수원시 장안구 ,37.3037639,127.0105254
수원 송죽초점,경기 수원시 장안구 송죽동,37.2979237,126.99652613757708
수원 송정초점,경기 수원시 장안구 송정로 58,37.2965035,127.0007946
수원 셀파진흥교실점,경기 수원시 팔달구 화서동 ,37.275206,127.0098712
수원 센트럴타운3단지점,경기 수원시 권선구 세권로 1 ,37.2591243,127.0103916
수원 센트라우스1점,경기 수원시 장안구 대평로 ,37.29196515,126.9963555891706
수원 서평초점,경기 수원시 권선구 세화로,37.2667439,126.9932841
수원 서수원푸르지오점,경기 수원시 권선구 입북로,37.3004278,126.9573689
수원 상률초교실점,경기 수원시 장안구 상률로12번길 7,37.3054752,126.9670217
수원 산남점,경기 수원시 영통구 ,37.2593,127.0466
수원 비단베스트점,경기 수원시 장안구 정자,37.2979237,126.99652613757708
수원 명인점,경기 수원시 장안구 수성,37.2943519,127.01212136649464
수원 매탄힐스점,경기 수원시 영통구 권광로,37.2643555,127.0329137
수원 매탄주공그린빌점,경기 수원시 영통구 매탄,37.27207465,127.05411928311408
수원 매탄위브하늘채점,경기 수원시 영통구 효원,37.25916125,127.03874172664746
수원 매교힐스점,경기 수원시 팔달구 수원천로,37.2830472,127.0178501
수원 매교푸르지오점,경기 수원시 팔달구 인계로 20 ,37.267714,127.0301605
수원 매교SK푸르지오2호점,경기 수원시 팔달구 인계로 20 ,37.267714,127.0301605
수원 망포힐스테이트점,경기 수원시 영통구 망포동 7,37.2451452,127.0561804
수원 망포한양수자인점,경기 수원시 영통구 영통로,37.2620433,127.0769073
수원 망포아이파크캐슬3단지점,경기 수원시 영통구 망포,37.245765,127.0569012
수원 망포늘푸른벽산1점,경기 수원시 영통구 망포,37.245765,127.0569012
수원 망포LG1점,경기 수원시 영통구 태장,37.2494667,127.05920786781196
수원 로얄팰리스점,경기 수원시 장안구 송죽동 385-,37.2979237,126.99652613757708
수원 라퍼스트점,경기 수원시 영통구 법조로 25,37.2881904,127.0662288
수원 동보신명점,경기 수원시 영통구 매영,37.250209,127.075486
수원 당찬해법수학점,경기 수원시 장안구 정자,37.2979237,126.99652613757708
수원 당수점,경기 수원시 권선구 당진로 19 ,37.2929808,126.9410022
수원 능실초점,경기 수원시 권선구 호매실로,37.2568256,126.96901502500852
수원 남수원점,경기 수원시 권선구 경수대로,37.2498383,127.0185086
수원 금호어울림점,경기 수원시 권선구 호매실로,37.2568256,126.96901502500852
수원 금곡LG1점,경기 수원시 권선구 금곡,37.2789374,126.9505264
수원 권선이편한세상점,경기 수원시 권선구 세권로,37.2591243,127.0103916
수원 권선아이파크7단지1점,경기 수원시 권선구 덕영대로,37.2637261,127.0023308
수원 권선래미안점,경기 수원시 팔달구 매교동 177-1,37.275206,127.0098712
수원 권선꿈에그린2단지점,경기 수원시 권선구 서수원,37.2582374,126.96983419292332
수원 권선3교실점,경기 수원시 권선구 세권로,37.2591243,127.0103916
수원 구운점,경기 수원시 권선구 ,37.2567361,126.9719715
수원 구운삼환점,경기 수원시 권선구 구운동 4,37.2821538,126.97940838114188
수원 광교힐스테이트점,경기 수원시 영통구 도청로 65 ,37.2918648,127.0471546
수원 광교호반수자인점,경기 수원시 영통구 광교호수로,37.276074,127.0666544
수원 광교초중점,경기 수원시 영통구 ,37.2593,127.0466
수원 광교초점,경기 수원시 영통구 광교호수공원로 277 ,37.2835115,127.05520304468482
수원 광교참누리레이크점,경기 수원시 영통구 법조로 134 ,37.2881904,127.0662288
수원 광교중흥해법,경기 수원시 영통구 광교호수공원로 277,37.2835115,127.05520304468482
수원 광교중앙역점,경기 수원시 영통구 센트럴타운로 92,37.287908,127.0582179
수원 광교점,경기 수원시 팔달구 정조로 667,37.2677993,127.0166609
수원 광교원천호반점,경기 수원시 영통구 월드컵로,37.27611005,127.04459857320953
수원 광교에듀타운점,경기 수원시 영통구 에듀타운로 17 ,37.2891246,127.0465123
수원 광교앨리웨이점,경기 수원시 영통구 광교호수공원로 80 ,37.2797321,127.0595857
수원 광교아이파크2호점,경기 수원시 영통구 광교호수공원로 20 ,37.2797321,127.0595857
수원 광교60단지점,경기 수원시 영통구 센트럴타운로22번길 36 ,37.2907276,127.059118
수원 광교40단지점,경기 수원시 영통구 광교마을로 156 ,37.2956087,127.0813523
수원 곡정초점,경기 수원시 권선구 곡선로 20 ,37.2388311,127.0298591
수원 곡선초점,경기 수원시 권선구 덕영대로,37.2637261,127.0023308
수원 OMG영통해법수학점,경기 수원시 영통구 영통동 ,37.2609854,127.07405896092988
수원 EZM스마트해법수학(매교역점),경기 수원시 팔달구 정조로 667,37.2677993,127.0166609
수원 직영점,경기 수원시 영통구 법조로 25,37.2881904,127.0662288
수영 최강학원점,부산 수영구 광서로16번길 3 ,35.166608,129.112881
수영 민락초점,부산 수영구 광남로258번길 8 ,35.1587156,129.1273842
수영 망미초점,부산 수영구 수미로25번길 20 ,35.1749394,129.1138209
수영 망미수미점,부산 수영구 망미로22번길 42 ,35.1714869,129.0990034
수영 망미더샵점,부산 수영구 연수로315번길 16 ,35.1731356,129.1052183
수영 남천코오롱하늘채점,부산 수영구 남천동로 33 ,35.141283,129.1119687
수영 광안4동점,부산 수영구 장대골로 42 ,35.1594159,129.1091765
수영 sk뷰점,부산 수영구 망미배산로76번길 16 ,35.1748695,129.1003096
송파 헬리오시티4단지점,서울 송파구 가락동 479,37.49672,127.11744
송파 헬리오시티 3단지점,서울 송파구 송파대로 345 ,37.4986411,127.10889435512192
송파 해법티매쓰학원점,서울 송파구 석촌호수로 135 ,37.51525045,127.0837348976171
송파 풍납한강극동점,서울 송파구 토성로 38-6,37.52900055,127.11179990408785
송파 파크리오잠실점,서울 송파구 올림픽로 435 ,37.52276505,127.10964859539564
송파 최강셀파수학학원점,서울 송파구 올림픽로 145 ,37.5119427,127.087788
송파 장지스마트플레이스점,서울 송파구 충민로4길 6 ,37.4791858,127.1296173
송파 잠실엘스교실점,서울 송파구 올림픽로 111 ,37.51225165,127.08156100466267
송파 잠실리센츠1호점,서울 송파구 올림픽로 135 ,37.5107105,127.0709259
송파 잠실5단지점,서울 송파구 잠실동,37.5122807,127.0855986
송파 위례스마트스퀘어점,서울 송파구 위례송파로 123 ,37.4870279,127.1488374
송파 위례별초점,서울 송파구 위례광장로 230 ,37.4806185,127.1435202
송파 올림픽선수촌아카데미점,서울 송파구 양재대로 1218 ,37.5150373,127.1322169
송파 엘리수학학원점,서울 송파구 석촌호수로 61 ,37.51042,127.10615
송파 석촌해법학원점,서울 송파구 석촌동 269,37.5024827,127.103495
송파 마천초교점,서울 송파구 마천로 333 ,37.49391685,127.152003
송파 마천아카데미점,서울 송파구 거마로 56,37.5026746,127.1492978
송파 거여영재교실점,서울 송파구 거여동 20-5,37.48921,127.14667
송파 거여아파트2호점,서울 송파구 양산로4길 16 ,37.4897233,127.1449737
송파 거여아파트1호점,서울 송파구 거여동 290,37.48921,127.14667
송파 가원아카데미점,서울 송파구 중대로 24 ,37.49833,127.12569
송파 가락쌍용점,서울 송파구 동남로 189 ,37.5169852,127.1438592
송천윈윈점,전북 전주시 덕진구 송천동1가 833-4,35.8583571,127.1267523
송천신일점,전북 전주시 덕진구 오송,35.865886,127.13051998895408
송천송원초점,전북 전주시 덕진구 송천동2가 543-3,35.8712869,127.1211313
송정 양운점,부산 해운대구 세실로27번길 17,35.1683159,129.17814442831656
속초 교동초교점,강원 속초시 미시령로 3361 ,38.2039094,128.5246646
소하교실,경기 광명시 소하,37.4432784,126.8823406
소하1동 동양점,경기 광명시 하안,37.4619112,126.88560178742662
셀파영수학원,부산 사하구 하신번영로 233 ,35.098947,128.9592316
센트럴3단지점,경기 평택시 ,36.9924966,127.1127168
세종 현대엠코점,세종특별자치시 도움1로 105 ,36.5018581,127.245064
세종 첫마을현대점,세종특별자치시 누리로 27 ,36.4742964,127.25420706705933
세종 수루배4단지점,세종특별자치시 한누리대로 1820 ,36.4880455,127.3019606
세종 소담 브랜드점,세종특별자치시 소담1로 12 ,36.485113,127.30158979913236
세종 새샘3단지1호점,세종특별자치시 한누리대로 2018 ,36.48479485,127.29946039719258
세종 새뜸 4단지 1호점,세종특별자치시 새롬북로 13 ,36.4863622,127.2465402
세종 범지기3단지점,세종특별자치시 달빛1로 201 ,36.5165662,127.2455899
세종 도원점,세종특별자치시 조치원읍 이화로 40,36.5897882,127.2884325
세종 도램15단지점,세종특별자치시 보듬2로 43 ,36.511114,127.2638514
세종 도담점,세종특별자치시 보듬2로 43 ,36.511114,127.2638514
세종 나성점,세종특별자치시 나성북로 47,36.4901699,127.2628923
세종 나릿재점,세종특별자치시 국세청로 45,36.4890988,127.261138
세종 가재5단지1호점,세종특별자치시 도움1로 106 ,36.50265045,127.24796985053716
세종 가온1단지 2호점,세종특별자치시 다정남로 22 ,36.4937364,127.2490241
세종 가온12단지점,세종특별자치시 다정남로 12,36.4937364,127.2490241
세종 가온 6단지점,세종특별자치시 다정중앙로 77 ,36.4991278,127.2492458
세종 가온 3단지 1호점,세종특별자치시 다정북로 109 ,36.4963436,127.2436225
세종 가온 1단지 1호점,세종특별자치시 다정남로 22 ,36.4937364,127.2490241
세종 가락초점,세종특별자치시 마음안로 131 ,36.5125879,127.2335225
세종 가락21단지점,세종특별자치시 마음안로 221 ,36.5125879,127.2335225
세종 가락19단지점,세종특별자치시 ,36.4799999,127.289
세종 가락18단지점,세종특별자치시 마음안1로 137 ,36.5184071,127.2299309
세종 가락 6단지점,세종특별자치시 마음로 14 ,36.5021336,127.2409585
세종 가재12단지점,세종특별자치시 달빛로 80 ,36.5179199,127.2521122
성북 종암삼성래미안점,서울 성북구 종암로25길 30 ,37.6001742,127.0311219
성북 종암래미안라센트점,서울 성북구 종암동 134,37.59631,127.03333
성북 정릉대우아파트점,서울 성북구 보국문로30길 15 ,37.6171464,127.0036081
성북 장곡스마트해법수학점,서울 성북구 돌곶이로 211 ,37.6176528,127.0479112
성북 의지와땀학원점,서울 성북구 오패산로 98,37.6026182,127.0384865
성북 연세종암해법수학점,서울 성북구 종암동 79-27,37.59631,127.03333
성북 스마트해법수학코오롱하늘채점,서울 성북구 돌곶이로 220 ,37.6176528,127.0479112
성북 석관석계학원점,서울 성북구 화랑로48길 16 ,37.6147499,127.0663452
성북 상월곡점,서울 성북구 상월곡동 101-2,37.60607,127.04629
성북 삼선푸르지오점,서울 성북구 삼선동3가 115-1,37.58635,127.01311
성북 래미안루나밸리점,서울 성북구 하월곡동 226-3,37.60444,127.03764
성북 두산위브1호점,서울 성북구 하월곡동 222,37.60444,127.03764
성북 다온해법수학,서울 성북구 길음로 33 ,37.6052079,127.022127
성북 길음푸르지오점,서울 성북구 길음로 119 ,37.6133579,127.015889
성북 길음두산위브교실점,서울 성북구 길음로13길 22,37.6094433,127.0193259
성북 길음동부센트레빌점,서울 성북구 숭인로2길 61 ,37.6093522,127.024975
성북 길음뉴타운9단지점,서울 성북구 길음로9길 50 ,37.6025511,127.0210055
성북 기린스마트해법수학,서울 성북구 돌곶이로37길 24,37.6171481,127.0478646
성동 행당초교점,서울 성동구 행당동 141-6,37.55783,127.03571
성동 행당청담클루빌학원점,서울 성동구 행당로 76 ,37.55616,127.02701
성동 용답KEM영수학원점,서울 성동구 용답15길 14 ,37.5640175,127.0509097
성동 왕십리텐즈힐점,서울 성동구 무학로 33 ,37.5692138,127.0302563
성동 옥수점,서울 성동구 한림말길 31 ,37.54072,127.01423
성동 송정건영점,서울 성동구 송정동 90-7,37.55421,127.05676
성동 성수별해법수학교실점,서울 성동구 성덕정3길 3 ,37.5398363,127.047643
성동 성수뚝섬점,서울 성동구 성수동1가 13-44,37.5435,127.03742
성동 명진해법학원점,서울 성동구 옥수동 250-7,37.54176,127.01648
성동 마장해법점,서울 성동구 무학로6길 50 ,37.5646457,127.0347164
성동 금호비전학원점,서울 성동구 금호동2가 510-2,37.55311,127.0211
성동 금북해법학원,서울 성동구 금호동1가 167-1,37.55286,127.02393
성동 경수초교점,서울 성동구 성수동2가 264-5,37.54048,127.05601
성동 경동별해법수학점,서울 성동구 성수일로 42 ,37.5463546,127.0503732
성남 판교밸리자이1단지점,경기 성남시 수정구 대왕판교로 995,37.4550733,127.1068592
성남 지사직영점,경기 성남시 중원구 ,37.4307,127.137
성남 위례한빛점,경기 성남시 수정구 위례,37.4631734,127.1419712
성남 위례중앙초교점,경기 성남시 수정구 위례광장로 310 ,37.472839,127.1424342
성남 위례센터점,경기 성남시 수정구 위례,37.4631734,127.1419712
성남 여수초교점,경기 성남시 중원구 여수,37.4221127,127.1194068
성남 상대원1동점,경기 성남시 중원구 ,37.4307,127.137
성남 삼부르네상스점,경기 성남시 수정구 수정로 312 ,37.4614494,127.1527455
성남 산성포레스티아점,경기 성남시 수정구 수정로 291,37.4614494,127.1527455
성남 단대푸르지오점,경기 성남시 수정구 산성대로 4,37.458438,127.1641597
성남 금상초교점,경기 성남시 중원구 ,37.4307,127.137
성남 금빛초교점,경기 성남시 수정구 ,37.4503386,127.1462933
성남 고등포레자이점,경기 성남시 수정구 고등,37.4219132,127.089565
서학학원,전북 전주시 완산구 흑석로 30 ,35.800399,127.1507859
서초 플래그십점,서울 서초구 사임당로 158 ,37.4914518,127.0247531
서초 프라임에듀학원,서울 서초구 효령로46길 5 ,37.4823059,127.0084012
서초 포레스타교실,서울 서초구 헌릉로8길 45 ,37.4543211,127.0626802
서초 잠원학습관,서울 서초구 신반포로23길 41 ,37.5083279,127.0032639
서초 원명최상위교실,서울 서초구 고무래로 90-7,37.5005774,127.0183812
서초 양재우성학습관,서울 서초구 바우뫼로 91 ,37.4798659,127.0410708
서초 스카이에듀학원점,서울 서초구 서초대로1길 30 ,37.4874249,126.9831418
서초 서초우솔교실,서울 서초구 양재대로2길 34 ,37.4595297,127.02272
서초 서초삼호학습관,서울 서초구 서운로 207 ,37.4924361,127.0263806
서초 서초네이처학원,서울 서초구 태봉로2길 60 ,37.4619455,127.0260862
서초 방배해법수학,서울 서초구 서초대로7길 9 ,37.4872433,126.9867466
서초 방배스마트플레이스점,서울 서초구 효령로33길 59 ,37.483539,126.9970753
서초 방배삼호학습관,서울 서초구 방배로 269 ,37.4843821,126.9957527
서초 반포래미안교습소점,서울 서초구 신반포로 100 ,37.5001425,126.985354
서초 마인드업해법수학교실,서울 서초구 바우뫼로7길 16 ,37.4735169,127.0235102
서초 루키업스마트해법학원,서울 서초구 남부순환로339길 60 ,37.4848804,127.0219038
서재 아이위시점,대구 달성군 다사읍 서재로7길 25 ,35.8715203,128.489525
서신한일동아점,전북 전주시 완산구 새터로 95 ,35.8355553,127.1158885
서신초점,전북 전주시 완산구 전주천서로 445 ,35.810041,127.1513209
서신제일비사벌,전북 전주시 완산구 당산로 49 ,35.8321721,127.1191616
서신스마트해법학원,전북 전주시 완산구 온고을로 121 ,35.8339377,127.1220745
서신서일점,전북 전주시 완산구 서신로 108 ,35.8312346,127.1157691
서신동아2차점,전북 전주시 완산구 새터로 51,35.8357153,127.1118776
서산 테크노힐스테이트점,충남 서산시 성연면 성연3로 76 ,36.8302898,126.4526968
서산 테크노힐스테이트2호점,충남 서산시 성연면 성연3로 76,36.8302898,126.4526968
서산 읍내현대점,충남 서산시 호수공원6로 19 ,36.7732481,126.4492636
서산 예천 효성해링턴점,충남 서산시 예천3로 43 ,36.7698686,126.4422719
서산 센스빌점,충남 서산시 동서1로 130 ,36.7670559,126.4506448
서산 석림라온점,충남 서산시 석림1로 74 ,36.7659747,126.4686856
서대문가재울초점,서울 서대문구 가재울미래로 17 ,37.5722359,126.9145218
서대문 홍제초점,서울 서대문구 세검정로1길 48 ,37.5952041,126.946268
서대문 홍제인왕점,서울 서대문구 세무서길 84 ,37.591572,126.9473583
서대문 스마트해법연가초점,서울 서대문구 증가로 193 ,37.5705757,126.9305063
서대문 스마트해법아이터치학원점,서울 서대문구 모래내로15길 62 ,37.57313,126.92033
서대문 스마트해법수학선일점,서울 서대문구 통일로34길 43,37.5860693,126.949811
서대문 북성초점,서울 서대문구 북아현로1길 50 ,37.5586955,126.9541525
서대문 북가좌1호점,서울 서대문구 북가좌2동,37.58130355,126.91431813587822
서대문 독립문해법수학점,서울 서대문구 독립문공원길 13 ,37.5719561,126.9583
서대문 가재울e편한세상점,서울 서대문구 수색로 100 ,37.5772579,126.9027849
상주 천년나무교실점,경북 상주시 동수4길 33 ,36.4230964,128.1547781
상주 중앙점,경북 상주시 상서문,36.4140438,128.1551527
상주 상영점,경북 상주시 남성동 201-16,36.4130742,128.158987
상주 독한논술강한수학점,경북 상주시 복룡3길 29 ,36.4179071,128.1726886
상주 낙양점,경북 상주시 상서문,36.4140438,128.1551527
삼천탑매쓰학원,전북 전주시 완산구 성지,35.7970565,127.124141
삼천이룸학원,전북 전주시 완산구 용리로 133 ,35.7986554,127.1161164
사천 정석점,경남 사천시 주공로 7 ,34.93902695,128.08608629170038
사수 서한이다음점,대구 북구 한강로 17 ,35.898651,128.51170642962143
사당5동 신남성초교점,서울 동작구 사당로2차길 25 ,37.4867109,126.9664717
사당3동 롯데캐슬점,서울특별시 동작구 사당로23아길 6 ,37.49136,126.969387
빛가온제2교실,경기 광명시 신,37.479065,126.854479
분당서현삼성점,경기 성남시 분당구 중앙공원,37.3758631,127.1295156
분당 판교원마을9단지점,경기 성남시 분당구 ,37.3825999,127.1188
분당 판교원마을3단지점,경기 성남시 분당구 판교동 ,37.3899504,127.0986022
분당 판교원마을11단지점,경기 성남시 분당구 판교동 ,37.3899504,127.0986022
분당 판교산운13단지점,경기 성남시 분당구 운중동 ,37.3898396,127.0796096
분당 판교봇들2단지점,경기 성남시 분당구 삼평동 7,37.406082600000005,127.1163277330345
분당 판교대장점,경기 성남시 분당구 판교대장로7길 16,37.3725131,127.0711137
분당 판교 대장초교점,경기 성남시 분당구 판교대장로 92 ,37.36705645,127.06843472342293
분당 정든한진점,경기 성남시 분당구 내정로 10 ,37.3686842,127.1147935
분당 정든동아점,경기 성남시 분당구 불정,37.3591744,127.1190508
분당 이매점,경기 성남시 분당구 야탑동 5,37.411549,127.1298651
분당 이매안말초교점,경기 성남시 분당구 양현,37.3900856,127.1224063
분당 이매아름점,경기 성남시 분당구 판교로 432 ,37.4032112,127.1048255
분당 이매선경점,경기 성남시 분당구 이매동 ,37.3988015,127.12592268541128
분당 이매매송점,경기 성남시 분당구 성남대로779번길 56 ,37.3992096,127.1214206
분당 야탑매화2단지점,경기 성남시 분당구 야탑동 ,37.40769,127.13375
분당 야탑 중탑점,경기 성남시 분당구 ,37.3825999,127.1188
분당 야탑 목련점,경기 성남시 분당구 야탑,37.4112976,127.1287143
분당 시범우성점,경기 성남시 분당구 중앙공원,37.3758631,127.1295156
분당 수내파크타운점,경기 성남시 분당구 돌마로 361 ,37.3688615,127.1213333
분당 서당초교점,경기 성남시 분당구 불정,37.3591744,127.1190508
분당 샛별라이프점,경기 성남시 분당구 분당,37.3825999,127.1188
분당 까치주공2단지점,경기 성남시 분당구 미금,37.3500225,127.1089985
분당 금곡점,경기 성남시 분당구 정자일로 55 ,37.3507854,127.1063437
북수원자이점,경기 수원시 장안구 정자동 528-,37.2979237,126.99652613757708
북구 그린빌6단지점,대구 북구 도남,35.97082,128.58815
부천힐스테이트중동점,경기 부천시 길주로 234 ,37.506556,126.7401826
부천행복한마을점,경기 부천시 소,37.5014422,126.7660139
부천진달래대림점,경기 부천시 도,37.5021254,126.77732447346172
부천지사,경기 부천시 상동 546-3,37.4965503,126.7510536
부천일신매스1점,경기 부천시 범안로,37.4570689,126.8148109
부천 해법오정프라자점,경기 부천시 오정동 725,37.5289512,126.7852251
부천 해법오정초점,경기 부천시 소사로,37.4708667,126.7958041
부천 해법수학고강점,경기 부천시 고강동 370-10,37.53033,126.81572
부천 한아름현대점,경기 부천시 장말로 71,37.4941841,126.7455811
부천 한아름동성점,경기 부천시 원미,37.4926826,126.7914425
부천 한라스카이점,경기 부천시 계남,37.4971391,126.7735881
부천 하얀마을1점,경기 부천시 원미,37.4926826,126.7914425
부천 포도마을1점,경기 부천시 조마루로 135 ,37.502249250000006,126.7593441332744
부천 춘의1호점,경기 부천시 춘의동 141-4,37.5035798,126.7954619
부천 지니어스카운티점,경기 부천시 중동 1289,37.4991027,126.7676559
부천 중동은하마을점,경기 부천시 중동 1039-1,37.4991027,126.7676559
부천 중동역푸르지오점,경기 부천시 중동로 ,37.51291315,126.76978987313171
부천 위즈덤스마트해법점,경기 부천시 도당동 264-9,37.5121297,126.7851887
부천 온트랙송내점,경기 부천시 경인로 20 ,37.4872182,126.8186215
부천 옥길에이플러스점,경기 부천시 옥길,37.46751795,126.8233683703094
부천 오정스마트해법점,경기 부천시 오정동 137,37.5289512,126.7852251
부천 역곡온수e편한점,경기 부천시 역곡동 111-8,37.4899524,126.807212
부천 역곡북부점,경기 부천시 역곡동 111-8,37.4899524,126.807212
부천 스마트해법이룸학원,경기 부천시 괴안동 173-3,37.4813456,126.8104404
부천 스마트해법원종역점,경기 부천시 원종동 233-13,37.5265576,126.8052113
부천 스마트해법부천점,경기 부천시 중동로,37.51291315,126.76978987313171
부천 스마트해법 상동스카이뷰자이점,경기 부천시 부일로 203 ,37.4867576,126.8142736
부천 송내해법점,경기 부천시 ,37.5014422,126.7660139
부천 송내래미안점,경기 부천시 중동로 1,37.49959,126.76806
부천 소사본동점,경기 부천시 소사,37.4827657,126.7955903
부천 소사동문해법수학점,경기 부천시 소사,37.4827657,126.7955903
부천 상동다정삼성점,경기 부천시 평천로 616 ,37.5166438,126.7467893
부천 범박힐스테이트3단지점,경기 부천시 범안로,37.4570689,126.8148109
부천 백송자이점,경기 부천시 원미,37.4926826,126.7914425
부천 반달동아점,경기 부천시 원미,37.4926826,126.7914425
부천 매스비비안점,경기 부천시 원종동 348-14,37.5265576,126.8052113
부천 라일락마을점,경기 부천시 도,37.5021254,126.77732447346172
부천 그린타운천재점,경기 부천시 중동 1185-2,37.4991027,126.7676559
부암 휴 포레시티즌파크,부산 부산진구 동평로 173 ,35.1705283,129.0552081
부산서부지사,부산 사하구 장평로 437 ,35.0770818,128.9730063
부산 화잠초점,부산 북구 와석장터로 36 ,35.2353384,129.0152066
부산 화명캐슬카이저101동점,부산 북구 화명1동,35.22970705,129.0268240461716
부산 화명대천리점,부산 북구 양달로 78 ,35.2430232,129.0178376
부산 화명낙천대점,부산 북구 화명신도시로 156 ,35.2441398,129.0110824
부산 화명21C점,부산 북구 화명동 1411-1,35.2326638,129.010709
부산 화명 해법단과학원,부산 북구 화명동 1130-15,35.2326638,129.010709
부산 화명 가우스해법수학,부산 북구 금곡대로303번길 12 ,35.235593,129.0122969
부산 학장승학점,부산 사상구 엄궁동 5-5,35.1253802,128.9724058
부산 학장구학초점,부산 사상구 학감대로49번길 34 ,35.135905,128.9929193
부산 하단가락3단지점,부산 사하구 하신중앙로 265 ,35.0808501,128.9646941
부산 하단1호점,부산 사하구 하단동 1157-12,35.1114947,128.9595583
부산 포스코더샵 e해법 셀파수학점,부산 강서구 명지국제2로 27 ,35.0984896,128.9078625
부산 진구양정1동점,부산 부산진구 양정동 418-13,35.1729981,129.0701213
부산 진구부암캐슬점,부산 부산진구 당감로 108,35.1621933,129.0399506
부산 진구반도보라점,부산 부산진구 가야공원로 39 ,35.1492037,129.030028
부산 진구 캐슬아너점,부산 부산진구 가야공원로 39 ,35.1492037,129.030028
부산 진구 동원초점,부산 부산진구 백양산로 55 ,35.1719393,129.0330701
부산 중구부평점,부산 중구 흑교로 71-2 ,35.0998441,129.0250188
부산 전포사랑으로점,부산 부산진구 동성로 82 ,35.1590097,129.0679923
부산 장림지큐빌점,부산 사하구 다대로277번길 85 ,35.0774769,128.978185
부산 영센뜰점,부산 영도구 태종로 172,35.0787549,129.0737114
부산 영도동삼점,부산 영도구 동삼동 851-27,35.0751315,129.0728955
부산 연지초점,부산 부산진구 연지동 189-5,35.1725741,129.0539533
부산 연지 래미안110동점,부산 부산진구 성지로 42 ,35.1794573,129.0524985
부산 엄궁캐슬점,부산 사상구 엄궁북로 40 ,35.1281641,128.9747295
부산 양정초점,부산 부산진구 중앙대로941번길 11 ,35.1748298,129.0701503
부산 양정2동점,부산 부산진구 양정동 271-54,35.1729981,129.0701213
부산 양정 양동초점,부산 부산진구 양정동 12-6,35.1729981,129.0701213
부산 양덕초점,부산 북구 덕천로 72 ,35.2108341,129.02033
부산 신호동스마트해법수학점,부산 강서구 신호산단2로 29 ,35.0863255,128.87780229611258
부산 신평한신상가점,부산 사하구 비봉로 42 ,35.0973359,128.9642994
부산 신명초점,부산 강서구 명지국제5로 10 ,35.1090011,128.9218222
부산 신개금LG 수학의 봄,부산 부산진구 백양대로300번길 20 ,35.1552724,129.0184468
부산 스마트해법수학괴정초점,부산 사하구 대티로1번길 22 ,35.1043449,128.9993818
부산 스마트해법수학 장림초점,부산 사하구 장림번영로104번길 10 ,35.0778625,128.9760111
부산 스마트해법수학 상학초점,부산 북구 상학산복길 207,35.2155201,129.0330556
부산 수정1동점,부산 동구 홍곡로 50 ,35.1252032,129.0421592
부산 서면트레이더스점,부산 부산진구 시민공원로19번길 24 ,35.1641177,129.0517098
부산 서면아이파크105동점,부산 부산진구 동성로 50,35.1590097,129.0679923
부산 서면쌍용102동점,부산 부산진구 신천대로220번길 31 ,35.161243,129.0524663
부산 서면더샵점,부산 부산진구 중앙대로666번길 50 ,35.1522042,129.0614356
부산 새신평하남초점,부산 사하구 신평동 589-2,35.097,128.95831
부산 삼덕해법학원,부산 사상구 삼락동 417-1,35.1837761,128.9791895
부산 사하현대점핑점,부산 사하구 다대로429번길 20 ,35.0635267,128.9809711
부산 부산항점,부산 동구 홍곡로 47 ,35.1252032,129.0421592
부산 봄여름가을겨울점,부산 부산진구 당감동 870-12,35.1666831,129.033972
부산 보수1동점,부산 중구 보수동1가 40-18,35.10617,129.02549
부산 범천성서초점,부산 부산진구 범천동 842-30,35.14925,129.05386
부산 범천e편한점,부산 부산진구 가야대로 686 ,35.1567742,129.047986
부산 모라우신점,부산 사상구 백양대로 884 ,35.1808784,128.9885474
부산 모라엘리트점,부산광역시 사상구 모라로110번길 40-47 ,35.1848934,128.9929405
부산 모라백양점,부산 사상구 모라로110번길 96 ,35.1848934,128.9929405
부산 명지중흥2차점,부산 강서구 명지국제5로 90 ,35.1090011,128.9218222
부산 명지오션퀸덤3단지점,부산 강서구 명지오션시티11로 51 ,35.0843281,128.8972318
부산 명지국제신도시중앙점,부산 강서구 명지국제8로 265 ,35.0992914,128.9079765
부산 멘토해법학원점,부산 북구 덕천로276번길 32-6 ,35.2068849,129.0340877
부산 만덕점,부산 북구 만덕1로 24 ,35.21429,129.03137
부산 만덕베스티움105동점,부산 북구 상리로 86 ,35.2081569,129.0354621
부산 만덕 신나는 해법수학,부산 북구 덕천로234번길 41 ,35.2101403,129.0296841
부산 만덕 벽산라인201동점,부산 북구 덕천로 182 ,35.2108341,129.02033
부산 만덕 드림스쿨,부산 북구 덕천로234번길 5 ,35.2101403,129.0296841
부산 동구범일포세이돈점,부산 동구 자성로 106-1 ,35.133875,129.0548586
부산 대신롯데캐슬점,부산 서구 대티로 161 ,35.1105568,129.009749
부산 대신동1점,부산 서구 구덕로321번길 15 ,35.1115139,129.0138922
부산 당리엘리트점,부산 사하구 승학로 54 ,35.106679,128.9717326
부산 당감국제백양점,부산 부산진구 백양관문로 104 ,35.16759555,129.02541780131622
부산 당감 탄탄해법수학,부산 부산진구 당감로17번길 90 ,35.1619077,129.0340082
부산 당감 화승점,부산 부산진구 당감서로80번길 19 ,35.1674927,129.0377319
부산 다대현대드림점,부산 사하구 다대로 473 ,35.0993898,128.9771601
부산 다대삼환@ 양덕상가점,부산 사하구 다대로429번길 15 ,35.0635267,128.9809711
부산 다대롯데캐슬1점,부산 사하구 다대낙조2길 100 ,35.0512,128.9657
부산 다대롯데블루점,부산 사하구 다송로 23 ,35.0532429,128.9949221
부산 금곡화목조성점,부산 북구 효열로220번길 22 ,35.2630499,129.0204568
부산 국제삼정그린코아점,부산 강서구 명지국제3로 97 ,35.0926941,128.9122952
부산 개금현대아이점,부산 부산진구 엄광로 16 ,35.1482147,129.0186233
부산 감천점,부산 사하구 감천로15번길 12 ,35.0919068,128.9949637
부산 가야초점,부산 부산진구 대학로 21 ,35.153470299999995,129.03679054036456
부산 가야엘리트학원점,부산 부산진구 가야대로 635-12 ,35.1567742,129.047986
부산 H학습 코칭센터점,부산 부산진구 거제대로 37-1 ,35.1720174,129.0674098
부산 e편한세상상가점,부산 강서구 명지국제2로 80 ,35.0984896,128.9078625
봉담 효행초점,경기 화성시 봉담읍 ,37.2200304,126.94998354801668
본촌 힐스테이트점,광주 북구 본촌마을길 157-22 ,35.2169794,126.8852124
보라매한성점,서울 동작구 여의대방로10길 13 ,37.4945753,126.9146927
박건화 스마트 해법수학,부산 사하구 괴정로 166,35.1021881,128.9711001
밀양 삼문대우점,경남 밀양시 중앙로 234-13 ,35.4725214,128.7749977
밀양 미리벌점,경남 밀양시 삼문동 720-20,35.4830996,128.752977
문경 점촌점,경북 문경시 중앙로 63-4,36.5901054,128.1949609
문경 모전점,경북 문경시 호서로 105 ,36.6021773,128.2023075
목포 지사직영점,전남 목포시 당가두로13번길 9 ,34.8094973,126.4379536
목포 용해이로1호점,전남 목포시 이로로9번길 16 ,34.8029953,126.4064724
목포 용해골드1호점,전남 목포시 용해지구로,34.8175086,126.3943501
목포 옥암초점,전남 목포시 남악1로52번길 82 ,34.8117371,126.4504232
목포 연산산정점,전남 목포시 연산로159번길 5 ,34.8101021,126.3789571
목포 신흥꿈동산점,전남 목포시 하당남부로 25 ,34.8001004,126.4303031
목포 석현점,전남 목포시 상동 251-5,34.8080793,126.4189568
목포 서희점,전남 목포시 텃골로 19 ,34.8228239,126.4204676
목포 삼성점,전남 목포시 부흥,34.8042087,126.4352369
목포 산정신안팔래스점,전남 목포시 청호로 210 ,34.8057705,126.374005
목포 백년초점,전남 목포시 연산,34.8188609,126.3834813
목포 미항초점,전남 목포시 평화로140번길 6 ,34.8016225,126.4370272
목동3단지 스마트해법수학점,서울 양천구 목동서로 100 ,37.5220673,126.8689204
명지국제신도시 명일초점,부산 강서구 명지국제13로가길 10 ,35.1084066,128.9219779
맞춤해법수학교습소,충북 진천군 덕산읍 대월로 127 ,36.9030871,127.5410619
마포 채움해법학원,서울 마포구 서강로 55 ,37.5523822,126.9330611
마포 진림해법학원,서울 마포구 큰우물로 4,37.5429204,126.9433806
마포 염리자이3차점,서울 마포구 숭문길 98 ,37.5466859,126.9453649
마포 서교천재점,서울 마포구 합정동 428-24,37.54678,126.9084
마포 서교점,서울 마포구 서교동 441-8,37.5550706,126.92382487891514
마포 상암10단지점,서울 마포구 월드컵북로 502-36 ,37.5694153,126.9057035
마포 도화EM해법수학점,서울 마포구 도화동 82,37.5386394,126.9492428212704
마포 광흥창점,서울 마포구 창전로 32 ,37.5450919,126.9313447
마산창원 직영점,경남 창원시 의창구 사림동 114-18,35.24789,128.69929
마산 호계코오롱1차점,경남 창원시 마산회원구 내서읍 호원로 361-3 ,35.2406693,128.5378173
마산 현동중흥3차점,경남 창원시 마산합포구 현동1길 8 ,35.14749115,128.55931106832836
마산 현동점,경남 창원시 마산합포구 현동,35.15801,128.5608
마산 합포초점,경남 창원시 마산합포구 합포로 143-1 ,35.2140192,128.586384
마산 한일1차점,경남 창원시 마산회원구 석전동로 7 ,35.2320503,128.5749456
마산 코오롱하늘채2차점,경남 창원시 마산회원구 내서읍 호원로 359 ,35.2459484,128.5271582
마산 월포점,경남 창원시 마산합포구 월영북15길 9 ,35.1813884,128.5578033
마산 월영연세점,경남 창원시 마산합포구 월영동 704-1,35.17524,128.5572
마산 월영마린애시앙점,경남 창원시 마산합포구 가포순환로 33 ,35.172297,128.5650971
마산 월영마린애시앙2호점,경남 창원시 마산합포구 가포순환로 33 ,35.172297,128.5650971
마산 월영동아2차점,경남 창원시 마산합포구 월영마을로 29 ,35.1706583,128.556863
마산 월영SK뷰점,경남 창원시 마산합포구 월영남12길 12 ,35.1762923,128.5591605
마산 양덕메타플러스점,경남 창원시 마산회원구 팔용로 39 ,35.2459884,128.5938149
마산 신포센트럴점,경남 창원시 마산합포구 서성로 23 ,35.2002253,128.5710651
마산 삼계매쓰파크점,경남 창원시 마산회원구 내서읍 삼계로 2 ,35.2321541,128.5048058
마산 삼계내서점,경남 창원시 마산회원구 내서읍 삼계리 35-12,35.2375839,128.5041404
마산 버클리점,경남 창원시 마산합포구 자산동 120-11,35.2035633,128.5644044
마산 무학자이A점,경남 창원시 마산합포구 노산서18길 19 ,35.2150095,128.565874
마산 메트로시티1차점,경남 창원시 마산회원구 양덕서로 30 ,35.2271228,128.5801623
마산 메트로2차점,경남 창원시 마산회원구 삼호로 80 ,35.2260413,128.5780896
마산 구암점,경남 창원시 마산회원구 구암북19길 150 ,35.255522,128.5944815
마산 구암대동점,경남 창원시 마산회원구 구암남14길 8 ,35.2502528,128.6005938
마산 교방롯데캐슬점,경남 창원시 마산합포구 교방동 373-8,35.21036,128.55136
로뎀해법학원,부산 기장군 정관읍 방곡2로 6-6 ,35.3254833,129.189969
동해 평릉부영점,강원 동해시 평원로 110 ,37.5352697,129.1110245
동해 청운점,강원 동해시 청운2길 17-4,37.4845482,129.1064664
동해 천곡중앙점,강원 동해시 천곡로 46-1 ,37.524579,129.1175327
동해 천곡점,강원 동해시 천곡로 39-3,37.524579,129.1175327
동탄 반도9차점,경기 화성시 동탄대로,37.1932945,127.0989825
동작캠퍼스점,서울 동작구 여의대방로36길 32 ,37.5084726,126.9315521
동작 흑석1호점,서울 동작구 서달로14가길 1,37.5074995,126.9629157
동작 최강해법학원점,서울 동작구 장승배기로 96 ,37.504143,126.9392147
동작 신상도점,서울 동작구 상도동 203-36,37.4988159,126.9441045
동작 상도맵플러스점,서울 동작구 만양로 26 ,37.5096477,126.9455378
동작 보라매파크빌점,서울 동작구 신대방동 498-2,37.4955756,126.9195788
동작 롯데낙천점,서울 동작구 여의대방로10길 38 ,37.4945753,126.9146927
동작 대방대림초교점,서울 동작구 상도로 69 ,37.5041276,126.9383467
동삭더샵점,경기 평택시 동,36.9947451,127.09100369314396
동래사직쌍용예가1호점,부산 동래구 사직로 80 ,35.1958891,129.0622377
동래 효성해링턴점,부산 동래구 아시아드대로255번길 14 ,35.2080901,129.0642623
동래 온천초점,부산 동래구 충렬대로107번길 102 ,35.20974,129.0731
동래 안락현대점,부산 동래구 명장로 128-1 ,35.2053461,129.1032982
동래 안락뜨란채상가점,부산 동래구 연안로 74 ,35.1931006,129.1080506
동래 안락sk뷰114동점,부산 동래구 충렬대로 487 ,35.2034139,129.0804082
동래 사직롯데캐슬점,부산 동래구 아시아드대로,35.1947288,129.0664093
동래 민수학 학원점,부산 동래구 사직북로63번길 33-1 ,35.1986611,129.057872
동래 명륜초점,부산 동래구 명륜로 170 ,35.2157581,129.0839062
동래 달북초점,부산 동래구 사직동 662-2,35.1983566,129.0653657
동대문성북지사,서울 성북구 하월곡동 226-3,37.60444,127.03764
동대문 휘경드릴스터디학원점,서울 동대문구 한천로 264,37.5953861,127.0681531
동대문 해법현대아카데미점,서울 동대문구 휘경동 150-26,37.58773,127.06526
동대문 플러스수학학원점,서울특별시 동대문구 이문로 88-13 ,37.60134,127.06205
동대문 전농우성1호점,서울 동대문구 전농동 6,37.58070025,127.0483709
동대문 전농1점,서울 동대문구 전농동 645-2,37.5806,127.05543
동대문 시카고영어수학학원점,서울 동대문구 약령시로 18 ,37.5827062,127.0314264
동대문 스마트해법이문학원점,서울 동대문구 신이문로 39 ,37.60301,127.0647751
동대문 스마트해법수학탑브레인점,서울 동대문구 장안벚꽃로 107 ,37.5870827,127.0703453
동대문 스마트해법수학답십리초교점,서울 동대문구 전농로 55 ,37.5719816,127.0561188
동대문 답십리1호점,서울 동대문구 답십리로 95 ,37.5765595,127.0465065
동대구지사직영점,대구 수성구 중동 551-85,35.84506,128.6116
도봉 핵사곤해법수학점,서울특별시 도봉구 해등로32길 76,37.6585749,127.0225108
도봉 함해법수학점,서울 도봉구 마들로 555 ,37.6605886,127.0488372
도봉 한신점,서울 도봉구 도봉동 30-1,37.6826056,127.0425405
도봉 최강셀파수학점,서울 도봉구 도봉로150길 43 ,37.6660397,127.044596
도봉 창동해법수학점,서울 도봉구 해등로16길 46 ,37.6539739,127.0454455
도봉 창동주공3단지점,서울 도봉구 해등로 50 ,37.657838,127.02978
도봉 창동 태영점,서울 도봉구 도봉로110다길 51 ,37.644273,127.033219
도봉 자운초 스마트해법수학점,서울 도봉구 노해로69가길 11 ,37.6586843,127.0478218
도봉 열강선수학해법수학점,서울 도봉구 덕릉로63가길 94 ,37.6434666,127.0390239
도봉 엘리트점,서울특별시 도봉구 노해로41길 26 ,37.6493763,127.0256631
도봉 쌍문선덕점,서울 도봉구 시루봉로 56 ,37.6603818,127.0277016
도봉 신방학점,서울 도봉구 방학동 313-3,37.66442,127.03333
도봉 백운중 창경초점,서울 도봉구 도봉로129길 49 ,37.6561386,127.0367677
도봉 방학초해법수학점,서울 도봉구 방학동 669-5,37.66442,127.03333
도봉 래미안도봉점,서울 도봉구 도봉로170길 40 ,37.6791314,127.0501278
도봉 두드림해법수학점,서울 도봉구 노해로70길 81 ,37.64907,127.05222
덕의초점,서울 구로구 고척동 159-7,37.5034631,126.8585846
대전 해법수학 신계초점,대전 서구 복수남로32번길 49 ,36.299664,127.378065
대전 판암초점,대전 동구 옥천로 178-1 ,36.3469176,127.4974835
대전 태평쌍용예가점,대전 중구 평촌로 93 ,36.3218577,127.3903454
대전 탄방산호점,대전 서구 탄방동 689,36.3450208,127.391157
대전 지족4단지점,대전 유성구 노은서로,36.3669246,127.3127743
대전 중리초점,대전 대덕구 중리북로 46 ,36.3671532,127.4291716
대전 자양동아점,대전 동구 자양동 211-19,36.33312755,127.4432794775862
대전 용운에코포레점,대전 동구 용운로 184-1 ,36.3281731,127.4459578
대전 오류삼성점,대전 중구 오류동 172-2,36.3253384,127.4050329
대전 신평점,대전 중구 태평동 417-14,36.322657,127.39505888610208
대전 송촌선비마을3단지점,대전 대덕구 동춘당로94번길 11-15 ,36.3662838,127.4396891
대전 세종지사 직영점,대전 유성구 반석동로 54 ,36.3903164,127.312204
대전 선비마을1단지점,대전 대덕구 계족로690번길 21 ,36.3720058,127.4308131
대전 상대트리풀1호점,대전 유성구 상대남로 26 ,36.3430438,127.3336516
대전 상대초점,대전 유성구 상대동 454-2,36.342149,127.3353454
대전 산성점,대전 중구 문화로46번길 27 ,36.3092738,127.3914445
대전 봉명1호점,대전 유성구 봉명동 563-14,36.3537281,127.3449775
대전 법동삼익소월점,대전광역시 대덕구 동춘당로 160 ,36.3625418,127.4442535
대전 버드내점,대전 중구 태평로 15 ,36.3179661,127.3915352
대전 반석6단지점,대전 유성구 반석서로 98 ,36.3886222,127.3102894
대전 반석1단지점,대전 유성구 지족로 317 ,36.3879684,127.3119958
대전 둔산샘머리1호점,대전 서구 문예로 174 ,36.3478815,127.3902385
대전 둔산문정점,대전 서구 문정로170번길 206 ,36.350134,127.3990211
대전 둔산가람점,대전 서구 둔산북로 215 ,36.3558434,127.3903031
대전 도안어울림하트흥도초점,대전 유성구 원신흥남로12번길 42 ,36.3334809,127.340147
대전 도안수목토점,대전 서구 도안동로 177 ,36.3088661,127.3518096
대전 도안 수목토 2호점,대전 서구 도안동로 177,36.3088661,127.3518096
대전 도마경남점,대전 서구 배재로 155-7 ,36.3105425,127.3683628
대전 대동새들뫼점,대전 동구 계족로 137 ,36.3505336,127.4310069
대전 노은해법학원점,대전 유성구 지족동 868-4,36.3802428,127.3075849
대전 구봉9단지점,대전 서구 관저서로 20 ,36.3002734,127.3289866
대전 가오은어송1호점,대전 동구 은어송로52번길 60 ,36.3046934,127.4563284
대전 e해법수학 용전초점,대전 동구 계족로483번길 48-11 ,36.3549875,127.4314956
대전 열매4단지점,대전 유성구 노은서로,36.3669246,127.3127743
대봉초점,대구 남구 이천동 268-12,35.8519911,128.6011321
대방동 현대점,서울 동작구 등용로 127 ,37.5103026,126.9320528
대구 황금캐슬2A점,대구 수성구 청수로 213 ,35.839549950000006,128.62944627422223
대구 화원캐스빌점,대구 달성군 화원읍 비슬로 2545 ,35.8059832,128.5057059
대구 한실초점,대구 달서구 한실로6길 134 ,35.7971293,128.5289789
대구 풍경채점,대구 달성군 현풍읍 테크노상업로 49 ,35.692082,128.4535078
대구 펀 스마트 해법수학점,대구 수성구 지범로39길 11-3,35.8210145,128.6411299
대구 팔달두산점,대구 북구 매천로2길 19 ,35.8969884,128.5419195
대구 파동초해법수학점,대구 수성구 파동로,35.8169066,128.6138199
대구 티에스점,대구 달서구 장기로 244 ,35.8435549,128.5265964
대구 태전휴포레점,대구 북구 태암남로 60 ,35.9253623,128.5501479
대구 태전현대점,대구 북구 구암로16길 7 ,35.9313642,128.5491532
대구 침산화성파크드림점,대구 북구 침산로 166-26 ,35.893911,128.589774
대구 침산코오롱점,대구 북구 침산남로 178 ,35.8881839,128.591649
대구 침산이튼학원점,대구 북구 옥산로17길 45 ,35.8866697,128.5856909
대구 침산동해법수학점,대구 북구 침산남로37길 24 ,35.8887074,128.5951537
대구 지산현대점,대구 수성구 지산동 1272-3,35.8232092,128.6318527
대구 중앙초점,대구 수성구 만촌로 134 ,35.8663464,128.6428691
대구 중리캐슬점,대구 서구 국채보상로34길 12 ,35.8657155,128.5499202
대구 죽전초점,대구 서구 달구벌대로323길 93 ,35.8572928,128.5418585
대구 죽곡휴포레점,대구 달성군 다사읍 달구벌대로174길 50 ,35.8582197,128.461734
대구 장기파랑새점,대구 달서구 한들로 70 ,35.8466793,128.5278403
대구 이현점,대구 서구 평리동 1497-33,35.8733773,128.5584061
대구 이현서평점,대구 서구 당산로 446,35.85786,128.54705
대구 이곡점,대구 달서구 이곡동로 60 ,35.854066,128.5096977
대구 율하리버파크뷰점,대구 동구 금호강변로 315 ,35.8606366,128.690281
대구 월성코오롱하늘채1점,대구 달서구 조암남로16길 19 ,35.8219164,128.5233182
대구 월배점,대구 달서구 월배로5길 76,35.8161473,128.5116455
대구 월배아이파크1단지점,대구 달서구 조암남로 182 ,35.8201891,128.5239307
대구 월배아이파크1단지2호점,대구 달서구 조암남로 182 ,35.8201891,128.5239307
대구 월배삼정그린코아점,대구 달서구 조암로 149 ,35.8179732,128.5144478
대구 월배e편한세상점,대구 달서구 월성로 132 ,35.8277801,128.5237801
대구 월곡점,대구 달서구 상인로 39 ,35.8163455,128.5459409
대구 용산보람점,대구 달서구 새동네로 34 ,35.8523613,128.518057
대구 옥포강림점,대구 달성군 옥포읍 돌미로 52 ,35.7823989,128.4478573
대구 연경뉴웰시티점,대구 동구 동화천로77길 30 ,35.9414355,128.633155
대구 앞산비스타점,대구 남구 봉덕동 1652,35.8405228,128.5985277
대구 신암건영2점,대구 동구 신암남로 50 ,35.8844022,128.6322026
대구 신매신화점,대구 수성구 신매동 577-7,35.83496,128.70863
대구 시지노변점,대구 수성구 노변동 147,35.83098,128.70445
대구 스마트해법수학 연경점,대구 북구 연경중앙로,35.9456735,128.6182576
대구 수성황금1점,대구 수성구 황금동 818-12,35.8457954,128.6263968
대구 수성신세계점,대구 수성구 수성동1가 273-2,35.85519,128.61044
대구 수목원점,대구 달서구 갈밭로 6 ,35.800854,128.53260871669025
대구 세천초점,대구 달성군 다사읍 세천북로 9 ,35.8779373,128.476578
대구 서재점,대구 달서구 월배로5길 76 ,35.8161473,128.5116455
대구 서변성북점,대구 북구 서변로 65-1 ,35.9244467,128.5967728
대구 상인화성파크2단지점,대구 달서구 송현로7길 15 ,35.8182162,128.5463796
대구 상인점,대구 달서구 상원로 24-24 ,35.8193114,128.5309507
대구 상인영남점,대구 달서구 상인서로 76 ,35.8125538,128.5462044
대구 사수브라운스톤점,대구광역시 북구 내곡로 89,35.90202565,128.51475881276946
대구 비슬초점,대구 달성군 유가읍 테크노북로5길 5,35.6977115,128.460795
대구 봉덕경일점,대구 남구 신촌길 15,35.8383459,128.6031537
대구 범어초해법수학,대구 수성구 달구벌대로489길 54 ,35.8596881,128.6336327
대구 범어동천점,대구 수성구 상록로 68-1 ,35.8631614,128.6239989
대구 범어경신점,대구 수성구 범어로16길 6-7 ,35.8559343,128.6368785
대구 매호매동점,대구 수성구 고산로 160-8 ,35.8418382,128.7053567
대구 매호누리점,대구광역시 수성구 달구벌대로637길 21 ,35.8424301,128.7069694
대구 매천동 스마트해법점,대구 북구 매전로4길 9 ,35.9078537,128.5432353
대구 매천 화성파크드림점,대구 북구 매전로 17 ,35.9086895,128.5439062
대구 만촌화성해법수학점,대구 수성구 교학로 13 ,35.85347995,128.65275301636865
대구 만촌대림점,경북 청도군 이서면 ,35.68162,128.66447
대구 들안길스마트수학점,대구 수성구 들안로20길 27 ,35.8381038,128.6194431
대구 동호상록점,대구 동구 동호로 79 ,35.8655625,128.7234668
대구 동구강동초점,대구 동구 동호로7길 12 ,35.8690912,128.730826
대구 동구 안일초해법수학점,대구 동구 방촌동 1084-30,35.8790343,128.6644411
대구 도원점,대구 달서구 도원남로 54 ,35.804215,128.5352974
대구 도남 스마트해법점,대구 북구 도남,35.97082,128.58815
대구 대현신화점,대구 북구 침산동 100-64,35.8920401,128.5878923
대구 대현동 해법수학,대구 북구 대현동 316-1,35.88326,128.60829
대구 대명초점,대구 남구 대명로20길 10 ,35.8371241,128.5680471
대구 대곡래미안1점,대구 달서구 화암로73길 14-16 ,35.8069137,128.518981
대구 남산미쉘점,대구 중구 달구벌대로 1970 ,35.8648605,128.5843877
대구 남산롯데캐슬점,대구 중구 남산동 130-2,35.8616174,128.587267
대구 구지점,대구 달성군 구지면 창리로11길 33 ,35.6571821,128.4125894
대구 구지세현초점,대구 달성군 구지면 과학마을로5길 45 ,35.6569362,128.4185689
대구 구지모아미래도점,대구 달성군 구지면 국가산단대로70길 42 ,35.661238,128.4204336
대구 구암엘리트해법수학,대구 북구 팔거천동로 52 ,35.9441878,128.5584584
대구 고성달성점,대구 북구 칠성남로 101 ,35.878507,128.5910379
대구 경운1점,대구 서구 내당동 258-9,35.86285,128.56149
대구 AK그랑폴리스점,대구 달서구 월배로11길 33 ,35.8156833,128.5196298
당진한라비발디점,충남 당진시 원당로 51-9 ,36.9037018,126.6404298
담양남초점,전남 담양군 담양읍 죽녹원로 45 ,35.3283142,126.9886749
논산 코아루점,충남 논산시 대화로133번길 13,36.21125,127.0901896
노형솔루션점,제주특별자치도 제주시 수덕7길 21 ,33.486005,126.4750867
노원중랑남양주지사,서울 노원구 동일로 1053 ,37.6175709,127.075671
노원상계주공9단지점,서울 노원구 노원로 532 ,37.6573,127.06643
노원상계은빛점,서울 노원구 동일로245가길 41,37.6795237,127.0545907
노원 하계청솔점,서울 노원구 하계동 274-1,37.63793,127.07251
노원 하계연촌점,서울 노원구 공릉로58길 82 ,37.6363705,127.0748619
노원 중계주공6단지1점,서울 노원구 한글비석로8길 41 ,37.64808,127.07803
노원 중계유경점,서울 노원구 한글비석로 232 ,37.6483618,127.0769344
노원 중계염광점,서울 노원구 한글비석로15길 48 ,37.6548902,127.073337
노원 중계양지대림2차점,서울 노원구 한글비석로15길 125 ,37.6548902,127.073337
노원 중계상아점,서울 노원구 섬밭로 265 ,37.63805,127.0646
노원 중계불암학원점,서울 노원구 중계로 166,37.6375119,127.0812442
노원 중계그린1점,서울 노원구 동일로 1279 ,37.6175709,127.075671
노원 중계건영점,서울 노원구 노원로22길 71 ,37.6475373,127.07523
노원 중계5단지1호점,서울 노원구 중계로 230 ,37.6375119,127.0812442
노원 월계현대점,서울 노원구 월계동 929,37.6289,127.0567
노원 월계청백1호점,서울 노원구 월계로45가길 89 ,37.6298221,127.050926
노원 월계주공2단지2호점,서울 노원구 초안산로 19 ,37.63412,127.05217
노원 월계성원점,서울 노원구 월계동 322-1,37.6289,127.0567
노원 월계서광점,서울 노원구 마들로1길 44 ,37.6231487,127.0671218
노원 월계삼호점,서울 노원구 마들로 111,37.63432,127.06006
노원 월계미성점,서울 노원구 마들로 59 ,37.63432,127.06006
노원 월계롯데캐슬2호점,서울 노원구 월계동 947,37.6289,127.0567
노원 월계동신점,서울 노원구 광운로2나길 30 ,37.6169616,127.0603849
노원 월계대동점,서울 노원구 광운로 46 ,37.6220558,127.0594209
노원 월계그랑빌123동점,서울 노원구 마들로 31 ,37.6257799,127.06583425708516
노원 수락리버시티3단지1호점,서울 노원구 누원로 22 ,37.6872013,127.0527966
노원 상원점,서울 노원구 한글비석로54길 92 ,37.6670163,127.0619547
노원 상계현대3차점,서울 노원구 수락산로 232 ,37.6708277,127.0528684
노원 상계푸르지오점,서울 노원구 수락산로 9 ,37.6677694,127.0683308
노원 상계주공4단지1호점,서울 노원구 상계동 751-4,37.66727,127.07242
노원 상계주공2단지3호점,서울 노원구 동일로 1355 ,37.6175709,127.075671
노원 상계주공1단지점,서울특별시 노원구 덕릉로 459-21 ,37.6454335,127.0574543
노원 상계주공11단지점,서울 노원구 동일로 1549 ,37.6175709,127.075671
노원 상계주공10단지점,서울 노원구 노원로 564 ,37.6573,127.06643
노원 상계제니퍼영수학원점,서울 노원구 노원로 522 ,37.6573,127.06643
노원 상계은빛2단지점,서울 노원구 동일로245가길 41 ,37.6795237,127.0545907
노원 상계은빛1단지점,서울 노원구 동일로245길 162 ,37.681352,127.0523756
노원 상계수락한신점,서울 노원구 동일로242바길 15-5 ,37.6730736,127.061604
노원 상계불암동아점,서울 노원구 덕릉로118길 29 ,37.6675241,127.0795796
노원 상계불암대림점,서울 노원구 덕릉로 730 ,37.6454335,127.0574543
노원 상계보람1호점,서울 노원구 한글비석로 474 ,37.6335072,127.064282
노원 상계벽산점,서울 노원구 한글비석로 396 ,37.6335072,127.064282
노원 상계벽산1호점,서울특별시 노원구 상계동,37.66727,127.07242
노원 상계미도점,서울 노원구 덕릉로 459-18 ,37.6454335,127.0574543
노원 뿌탄스마트해법수학점,서울 노원구 동일로215길 48 ,37.6508187,127.0586197
노원 공릉화랑점,서울 노원구 화랑로51길 78 ,37.6250295,127.088761
노원 공릉한보점,서울 노원구 공릉로46길 19 ,37.6279252,127.07964731332984
노원 공릉풍림1점,서울 노원구 섬밭로 139 ,37.63805,127.0646
노원 공릉태강1호점,서울 노원구 공릉로34길 38 ,37.6257016,127.081142
노원 공릉초점,서울 노원구 공릉동 598-18,37.63021,127.08818
노원 공릉우방1호점,서울 노원구 노원로 58 ,37.6573,127.06643
노원 공릉동신점,서울 노원구 공릉로 211 ,37.6393895,127.0693259
남양주도곡초점,경기 남양주시 와부읍 덕소로 180,37.5873698,127.2090858
남양주 효성해법수학점,경기 남양주시 호평로 134 ,37.6558015,127.2398278
남양주 호평효성1호점,경기 남양주시 호평로 118 ,37.6558015,127.2398278
남양주 호평현대아이파크점,경기 남양주시 늘을3로 7 ,37.659313,127.2435388
남양주 호평한라비발디점,경기도 남양주시 늘을1로 270 18,37.6615337,127.2415913
남양주 호평알프하임107동점,경기 남양주시 호평동 ,37.6626839,127.2471519
남양주 호평동원점,경기 남양주시 호평로 93 ,37.6558015,127.2398278
남양주 평내중흥1차점,경기 남양주시 평내로 146 ,37.645691850000006,127.24340239986114
남양주 평내유진마젤란점,경기 남양주시 평내로 89 ,37.6440158,127.2367619
남양주 평내상록데시앙1점,경기 남양주시 경춘로1286번길 35 ,37.6473097,127.23758
남양주 평내메트로원점,경기 남양주시 평내로 145 ,37.6440158,127.2367619
남양주 평내가우스점,경기 남양주시 평내로29번길 41,37.6453934,127.2349592
남양주 청학주공3단지점,경기 남양주시 별내면 청학로68번길 23 ,37.7108061,127.1200425
남양주 청학주공2단지점,경기 남양주시 별내면 청학로68번길 23-1,37.7108061,127.1200425
남양주 진접폴리점,경기 남양주시 진접읍 금곡리 1,37.7195601,127.2048051
남양주 진접신안인스빌13블럭1점,경기 남양주시 진접읍 해밀예당1로 298 ,37.7098114,127.1844003
남양주 진접신도브래뉴점,경기 남양주시 진접읍 금곡리 111,37.7257115,127.19400989413484
남양주 진접센트레빌1단지점,경기 남양주시 진접읍 부평로 42 ,37.7403493,127.2010198
남양주 진접반도유보라점,경기 남양주시 진접읍 해밀예당1로 145 ,37.7098114,127.1844003
남양주 진접메소드학원점,경기 남양주시 진접읍 해밀예당3로 95,37.7182465,127.1970125
남양주 진접 해밀신안인스빌점,경기 남양주시 진접읍 해밀예당1로 66 ,37.7109003,127.1878696
남양주 진건한신4차점,경기 남양주시 진건읍 진건오남로86번길 38 ,37.658462,127.1820141
남양주 오남푸르지오점,경기 남양주시 오남읍 진건오남로759번길 70 ,37.6949576,127.1994597
남양주 오남어람초점,경기 남양주시 오남읍 진건오남로,37.7073956,127.1891265
남양주 오남금호어울림점,경기 남양주시 오남읍 진건오남로 472 ,37.7073956,127.1891265
남양주 별빛스마트해법수학점,경기 남양주시 다산중앙로82번길 84 ,37.61970375,127.16394401540856
남양주 별내한화꿈에그린점,경기 남양주시 별내4로 8 ,37.6484028,127.1173841
남양주 별내유승한내들점,경기 남양주시 송산로 277 ,37.7033315,127.1207203
남양주 별내신일유토빌점,경기 남양주시 별내동 1050,37.6565148,127.1216627
남양주 별내대우푸르지오점,경기 남양주시 별내5로 189-130,37.658096,127.1223395
남양주 별내 현대아이파크2차점,경기 남양주시 별내동 826-6,37.6565148,127.1216627
남양주 마석보미청광점,경기 남양주시 화도읍 맷돌로 50 ,37.6580058,127.3054477
남양주 마석라온프라이빗1점,경기 남양주시 화도읍 경춘,37.6698089,127.3738354
남양주 마석두산위브점,경기 남양주시 화도읍 비,37.6538308,127.3196785
남양주 마석공신학원점,경기 남양주시 화도읍 비,37.6538308,127.3196785
남양주 마석경향점,경기 남양주시 화도읍 수레로1233번길 9,37.6469033,127.299735
남양주 마석SEM쌤영수학원점,경기 남양주시 화도읍 맷돌로 114 ,37.6580058,127.3054477
남양주 도농제이앤에스학원점,경기 남양주시 미금로 14 ,37.6062333,127.15289043550406
남양주 도농부영7단지점,경기 남양주시 도농로 71 ,37.6070601,127.1578531
남양주 덕소동부센트레빌점,경기 남양주시 와부읍 덕소리 251-4,37.58680665,127.2088239204816
남양주 다산한양수자인점,경기 남양주시 다산순환로 165 ,37.6248549,127.1466479
남양주 다산탑해법수학점,경기 남양주시 다산지금로 140 ,37.5996604,127.1738165
남양주 다산자이점,경기 남양주시 다산중앙로81번길 25 ,37.6205391,127.1500298
남양주 다산욱현하이브점,경기 남양주시 다산중앙로171번길 40 ,37.6287886,127.14798240277588
남양주 다산신안인스빌2차점,경기 남양주시 다산지금로123번길 13 ,37.6017378,127.1762272
남양주 다산수공감학원점,경기 남양주시 다산순환로 432 ,37.6269182,127.1473828
남양주 다산부영5단지점,경기 남양주시 도농로 34 ,37.6070601,127.1578531
남양주 다산부영2단지점,경기 남양주시 도농로 34 ,37.6070601,127.1578531
남양주 다산반도유보라2차점,경기 남양주시 다산지금로146번길 67 ,37.6002451,127.1699193
남양주 다산더함수학학원점,경기 남양주시 다산순환로 350,37.6269182,127.1473828
남양주 다산꿈에그린점,경기 남양주시 다산지금로16번길 56 ,37.6085413,127.1690306
남양주 다산가운초점,경기 남양주시 가운로2길 55 ,37.60069705,127.1569781
남양주 다산SKY점,경기 남양주시 다산지금로145번길 15,37.5989129,127.1787077
남양주 다산e편한세상1차점,경기 남양주시 다산중앙로82번길 15 ,37.6205766,127.154917
남양주 다산 윤쌤학원,경기 남양주시 다산순환로 300 ,37.6269182,127.1473828
남양주 금곡동곡초점,경기 남양주시 홍유릉로248번길 39 ,37.6264569,127.2022386
남구 용호초점,부산 남구 용호로42번길 104,35.1225241,129.1096148
남구 문현한화꿈에그린점,부산 남구 전포대로20번길 26 ,35.1381158,129.0699514
남구 문현삼성점,부산 남구 전포대로20번길 15 ,35.1381158,129.0699514
남구 대연파크푸르지오점,부산 남구 석포로86번길 80 ,35.1263163,129.0906057
남구 대연초점,부산 남구 못골로 91-30 ,35.1353728,129.0838294
남구 대연롯데캐슬점,부산 남구 진남로 130 ,35.1382299,129.0833193
남구 국제자유점,부산 남구 양지골로 340 ,35.1193149,129.0847699
남구 LG메트로209동점,부산 남구 분포로 111 ,35.13537,129.1117173
나주 수학의봄점,전남 나주시 대호길 25 ,35.0400636,126.7180868
김해양산지사,경남 김해시 번화1로44번길 26 ,35.1911753,128.801415
김해 현대아이파크점,경남 김해시 삼계로 232 ,35.2568893,128.8663631
김해 한솔솔파크점,경남 김해시 삼계로 218 ,35.2568893,128.8663631
김해 한림풀에버점,경남 김해시 율하3로 100 ,35.1758636,128.81670915663307
김해 한라비발디 센텀시티점,경남 김해시 두,35.1900428,128.7978698485907
김해 팔판e그린3차점,경남 김해시 덕정로 68 ,35.1796939,128.7960388
김해 진영중흥에코시티점,경남 김해시 진영읍 진산대로 59-3 ,35.3109077,128.7264361
김해 진영중흥1단지점,경남 김해시 진영읍 장등로 55 ,35.3121087,128.7329764
김해 진영점,경남 김해시 진영읍 진산대로26번길 13-7 ,35.3086,128.72563
김해 지내동원점,경남 김해시 분성로727번길 16 ,35.2313775,128.9218051
김해 중흥2단지점,경남 김해시 진영읍 장등로19번길 18 ,35.308627,128.7296459
김해 주촌초점,경남 김해시 주촌면 천곡로15번길 1 ,35.2313924,128.8392128
김해 주촌두산제니스점,경남 김해시 주촌면 ,35.2358054,128.8306621
김해 장유코아점,경남 김해시 능동로 153 ,35.1988031,128.8032541
김해 장유초점,경남 김해시 금관대로599번길 27 ,35.2033462,128.8143345
김해 장유능동점,경남 김해시 능동로 25 ,35.1988031,128.8032541
김해 장유e그린2차점,경남 김해시 삼문동 584-2,35.19706,128.78935
김해 자이점,경남 김해시 율하6로 18 ,35.1716157,128.8238755
김해 일동한신점,경남 김해시 분성로 14 ,35.2354679,128.9025878
김해 이안1단지점,경남 김해시 율하1로 130 ,35.1746699,128.8089927
김해 율하초점,경남 김해시 율하2로58번길 4 ,35.1726257,128.8079668
김해 율하점,경남 김해시 율하동 1332-1,35.16696,128.80978
김해 율하모아미래도2차점,경남 김해시 율하1로 90 ,35.1746699,128.8089927
김해 율하모산점,경남 김해시 율하숲길 24 ,35.1700911,128.8226097
김해 월산푸르지오점,경남 김해시 부곡동 806-6,35.2114266,128.7966731
김해 원메이저현대점,경남 김해시 율하5로 99 ,35.1640702,128.8267118
김해 외동한국2차점,경남 김해시 분성로 155 ,35.2354679,128.9025878
김해 신문이편한점,경남 김해시 장유로334번길 76 ,35.193816,128.8125192
김해 센텀한라비발디109동점,경남 김해시 두,35.1900428,128.7978698485907
김해 석봉부영15차점,경남 김해시 능동로 118 ,35.1988031,128.8032541
김해 상아탑분원점,경남 김해시 외동 1251,35.2318508,128.8606426
김해 삼정점,경남 김해시 인제로65번길 38 ,35.2343226,128.9027319
김해 삼계푸르지오1차점,경남 김해시 가야로 19 ,35.2377311,128.8881293
김해 부곡드림해법영수학원점,경남 김해시 월산로 111-43 ,35.2049644,128.8024819
김해 명성리더스점,경남 김해시 김해대로 1784-7 ,35.2290559,128.9197533
김해 더원학원,경남 김해시 관동로27번길 99 ,35.1777151,128.8129722
김해 대청부영점,경남 김해시 계동로 86 ,35.1814277,128.7960043
김해 내친구공부방점,경남 김해시 삼계로 248 ,35.2568893,128.8663631
김해 구산주공점,경남 김해시 구산동 5,35.25006,128.87243
김해 구산구지점,경남 김해시 구산로5번길 89 ,35.2500253,128.8692756
김해 관동초점,경남 김해시 율하3로 107 ,35.1693368,128.8120514
김해 갑오주공점,경남 김해시 계동로102번길 9 ,35.185674,128.7960719
김해 갑오계동점,경남 김해시 계동로 86 ,35.1814277,128.7960043
김해 HJ해법학원,경남 김해시 관동동 451-3,35.17116,128.79446
김포 호반탑클래스점,경기 김포시 김포한강2로 229 ,37.6477982,126.6608694
김포 향산힐스테이트1단지점,경기 김포시 고촌읍 상미로 38 ,37.6194673,126.7409855
김포 해법수학풍무점,경기 김포시 풍무로 166 ,37.6096908,126.7252211
김포 함께하는 쎈학원,경기 김포시 김포한강4로420번길 80 ,37.6507448,126.63355687966872
김포 한강힐스테이트점,경기 김포시 김포한강7로22번길 22 ,37.64193045,126.64085505
김포 한강센트럴자이105점,경기 김포시 태장로 845 ,37.6147517,126.740991
김포 한가람우미린점,경기 김포시 김포한강5로 417 ,37.649505000000005,126.62481143921256
김포 풍무유현마을점,경기 김포시 유현로33번길 16,37.59954,126.7258179
김포 탄탄에듀학원,경기 김포시 김포한강4로420번길 80 ,37.6507448,126.63355687966872
김포 최상위수학학원,경기 김포시 고촌읍 수기로 115 ,37.5986364,126.76579
김포 중흥파크애비뉴점,경기 김포시 김포한강2로 362 ,37.6511949,126.66723261247554
김포 중흥리버티점,경기 김포시 김포한강2로 113 ,37.6436704,126.6789878
김포 장기호반베르디움점,경기 김포시 김포한강2로 229 ,37.6477982,126.6608694
김포 장기한양수자인604점,경기 김포시 김포한강3로 290-13 ,37.6429708,126.6606183
김포 이진해법수학점,경기 김포시 풍무로,37.6066215,126.7225699
김포 유티에스학원,경기 김포시 걸포로 34,37.6455709,126.7003814
김포 운양KCC,경기 김포시 김포한강11로 37 ,37.6500273,126.7002558
김포 예미지점,경기 김포시 김포한강9로 11 ,37.6402611,126.6268622
김포 아론해법수학점,경기 김포시 김포한강2로23번길 42 ,37.6413879,126.6795196
김포 스마트해법운양점,경기 김포시 김포한강1로 230 ,37.6408231,126.6662945
김포 스마트해법에듀마인학원,경기 김포시 김포한강1로51번길 46 ,37.6445069,126.66611122011804
김포 스마트해법수학 이랜드점,경기 김포시 김포한강11로255번길 15 ,37.6561608,126.6776657
김포 스마트해법 쑨샘수학점,경기 김포시 풍무로,37.6066215,126.7225699
김포 솔터마을2단지점,경기 김포시 김포한강8로 331 ,37.6369669,126.6429725
김포 센트럴자이114점,경기 김포시 태장로 845 ,37.6147517,126.740991
김포 생각나무수학교실점,경기 김포시 고촌읍 태리로 236,37.5952074,126.7594907
김포 사우해냄교습소점,경기 김포시 사우중로73번길 43,37.62294225,126.7205488
김포 보름스마트해법수학점,경기 김포시 고촌읍 수기로 136,37.5986364,126.76579
김포 메트로예미지점,경기 김포시 솔터로 22 ,37.6433905,126.6323422
김포 마스터율 수학교습소,경기 김포시 김포한강8로 173-88 ,37.6369669,126.6429725
김포 라임학원1점,경기 김포시 김포한강9로12번길 123 ,37.6393664,126.6293128
김포 고촌파밀리에1단지점,경기 김포시 고촌읍 태리로 236 ,37.5952074,126.7594907
김포 YSU1885점,경기 김포시 유현로 200 ,37.6020496,126.7314833
김포 SM e해법셀파수학교실점,경기 김포시 김포한강11로 227 ,37.6500273,126.7002558
김천 천재대곡점,경북 김천시 문지왈길 45 ,36.121581,128.0887481
김천 지좌아주아트빌점,경북 김천시 공,36.0785956,128.259644
김천 율곡점,경북 김천시 혁신4로 72 ,36.1212313,128.1865113
김천 엠코점,경북 김천시 용전1로 9 ,36.1234054,128.1877005
김천 신음현대점,경북 김천시 시청로 46 ,36.1630785,128.1153556
김천 신음주공그린빌점,경북 김천시 신음새동네,36.1341785,128.1199342
김천 부곡점,경북 김천시 부곡동 432-1,36.1182425,128.0957323
김천 덕곡한마음점,경북 김천시 황산로 81 ,36.1183279,128.1441898
김천 KCC스위첸점,경북 김천시 혁신5로 11 ,36.1200048,128.1748264
기장 한신점,부산 기장군 기장읍 차성로338번길 28 ,35.2477006,129.2153327
금천 탑동초점,서울 금천구 시흥동 237-27,37.4507049,126.9085555
금천 시흥힐스테이트점,서울 금천구 시흥동 492-15,37.4507049,126.9085555
금천 시흥초점,서울 금천구 가산로 99 ,37.4713854,126.8983364
금천 시흥3동점,서울 금천구 시흥동 945-40,37.4507049,126.9085555
금천 샘지점,서울 금천구 독산로40길 41-3 ,37.4618233,126.9081655
금천 롯데캐슬2단지점,서울 금천구 벚꽃로 30 ,37.45829495,126.89387083190876
금천 두산초점,서울 금천구 벚꽃로 114,37.4576832,126.893558
금천 독산초점,서울 금천구 시흥대로104길 26,37.4646088,126.899448
금천 독산2동점,서울 금천구 시흥대로104길 26 ,37.4646088,126.899448
금정산쌍용예가점,부산 금정구 수림로66번길 66 ,35.2431794,129.0862713
금정 장서초점,부산 금정구 중앙대로1841번안길 21 ,35.2472921,129.0874572
금정 부곡롯데캐슬점,부산 금정구 동부곡로15번길 89,35.2283168,129.0937803
금정 금정초점,부산 금정구 금강로 208 ,35.25160585,129.0885489
금정 구서롯데캐슬305동점,부산 금정구 금강로 502 ,35.2278558,129.0835843
금정 경민학원,부산 금정구 금강로 700 ,35.2278558,129.0835843
군포수론백두한양점,경기 군포시 고산로 ,37.3585887,126.9234938
군포대야미점,경기 군포시 대야,37.33703815,126.90514486467134
군포당동초점,경기 군포시 용호,37.34717635,126.9409633
군포 수리산한양점,경기 군포시 산본동 1151-,37.36050825,126.936091161083
군포 송안초점,경기 군포시 송부,37.32039645,126.9250290723948
군포 산본한라4단지점,경기 군포시 번영로 380-1 ,37.3505541,126.925534174872
군포 산본한라4단지2차점,경기 군포시 번영로 3,37.3583988,126.9327483
군포 산본금강복합상가점,경기 군포시 고산로 ,37.3585887,126.9234938
군포 산본군포초점,경기 군포시 당동 794-42,37.3473986,126.9425754
군포 산본가야점,경기 군포시 산본동 1155-4,37.3574889,126.93352
군포 산본6단지을지1호점,경기 군포시 산본천로 1,37.370428,126.9395385
군포 산본12단지목련한양점,경기 군포시 산본,37.3575433,126.9321639
군포 산본11단지 장미점,경기 군포시 산본,37.3575433,126.9321639
군포 산본 우륵교육센터점,경기 군포시 산본,37.3575433,126.9321639
군포 부곡중앙점,경기 군포시 송부,37.32039645,126.9250290723948
군산 지곡해나지오점,전북 군산시 계산로 78 ,35.9518337,126.7137259
군산 지곡엠코1차점,전북 군산시 계산로 90 ,35.9518337,126.7137259
군산 지곡군산초점,전북 군산시 계산로 71 ,35.9518337,126.7137259
군산 조촌동초점,전북 군산시 신촌1길 20 ,35.9650132,126.7392231
군산 월명초점,전북 군산시 수송동로 18,35.96463,126.7195749
군산 수송잇츠점,전북 군산시 수송로 135 ,35.96422535,126.71025880007168
군산 수송리첼점,전북 군산시 수송동로 100 ,35.96463,126.7195749
군산 미장풍경채점,전북 군산시 미장13길 33 ,35.9633603,126.7349326
군산 미장아이파크2차점,전북 군산시 미장안길 45 ,35.9670233,126.7265903
군산 미장아이파크1차점,전북 군산시 미장남로 10 ,35.9615502,126.7239003
군산 미장쉐르빌,전북 군산시 미장안2길 3 ,35.9661151,126.7258817
군산 나운현대4차점,전북 군산시 나운안길 27 ,35.9643608,126.7036874
군산 나운주공5차점,전북 군산시 나운동 4,35.9659609,126.6941015
군산 나운이룸점,전북 군산시 상신5길 2 ,35.9718505,126.6975017
구암 화성그랜드 점,대구 북구 구암로65길 6 ,35.9419305,128.5648155986974
구미 형곡스마트해법점,경북 구미시 신시로 3,36.113289,128.3395217
구미 한결해법영수학원점,경북 구미시 인동38길 15-14 ,36.0928315,128.4341232
구미 중흥1차 스마트해법수학점,경북 구미시 해마루공원로 80 ,36.1498383,128.4314973
구미 원호한누리 해법수학점,경북 구미시 고아읍 ,36.2109662,128.3284609
구미 옥계우미린3차점,경북 구미시 산동,36.1686663,128.4362309
구미 오태점,경북 칠곡군 북삼읍 금오대로10길 23 ,36.0709677,128.3497227
구미 송정한신점,경북 구미시 백산로 153,36.1186572,128.3497217
구미 선산다니엘점,경북 구미시 선산읍 노상리 94-2,36.2559751,128.2867968
구미 산동호반해법수학점,경북 구미시 산동읍 해마루공원로 115 ,36.1498383,128.4314973
구미 산동중흥3차점,경북 구미시 산동읍 신당인덕3로 1 ,36.1628198,128.4379275
구미 문성점,경북 구미시 고아읍 ,36.2109662,128.3284609
구미 도량그린빌점,경북 구미시 도량2동 ,36.13774,128.3215169
구미 도량1동점,경북 구미시 문장로,36.1350765,128.3324243
구리 토평한일유앤아이점,경기 구리시 장자,37.5867519,127.13534206532324
구리 토평라온해법수학,경기 구리시 검배로 124 ,37.5940684,127.1515291
구리 인창주공6단지점,경기 구리시 건원,37.6072437,127.13562852922658
구리 인창신일5단지점,경기 구리시 건원,37.6072437,127.13562852922658
구리 인창스마트해법영수학원점,경기 구리시 동구릉로 98 ,37.6465259,127.1405811
구리 인창삼보3단지점,경기 구리시 건원,37.6072437,127.13562852922658
구리 스마트해법수학인창건영점,경기 구리시 동구릉로 155 ,37.6465259,127.1405811
구리 수택남양점,경기 구리시 경춘로,37.6009831,127.1226757
구리 교문하나아파트점,경기 구리시 체,37.5800214,127.1586334
구리 갈매푸르지오점,경기 구리시 갈매중앙로 16 ,37.639223,127.1270876
구리 갈매윤수학학원점,경기 구리시 갈매순환로 198 ,37.6385546,127.1203605
구리 갈매e해법셀파수학학원점,경기 구리시 갈매순환로 7 ,37.6385546,127.1203605
구로 항동수목원점,서울 구로구 항동 14-3,37.4813204,126.8244434
구로 태영점,서울 구로구 새말로 93 ,37.5055354,126.8900335
구로 천왕센타점,서울 구로구 천왕로 36 ,37.4854029,126.8377697
구로 제니스점,서울 구로구 오류로 60 ,37.4879079,126.8396875
구로 이아이이점,서울 구로구 구로동 685-14,37.4945849,126.8845477
구로 아이비스마트해법학원,서울 구로구 연동로 197 ,37.478890500000006,126.82269121335165
구로 신미림초점,서울 구로구 신도림동 642,37.50941,126.88285
구로 신도림성광점,서울 구로구 신도림로19길 7 ,37.5119611,126.8825719
구로 새솔점,서울 구로구 공원로 35 ,37.5012637,126.8902659
구로 두산위브점,서울 구로구 구로동 791-51,37.4969336,126.88596856422262
구로 고척캠퍼스점,서울 구로구 중앙로6길 5-15 ,37.500296,126.8658452
구로 고척2동점,서울 구로구 중앙로15길 84 ,37.508461,126.8517475
구로 개봉초점,서울 금천구 가산동 775,37.4751631,126.8862961358618
구로 개봉1동점,서울 구로구 고척로 95-6 ,37.5040205,126.852967
광진 중곡한가람학원점,서울 광진구 영화사로 19 ,37.5525116,127.0995989
광진 중곡리더스해법학원,서울 광진구 용마산로22길 16 ,37.5636661,127.0882127
광진 자양현대3차점,서울 광진구 뚝섬로56가길 10 ,37.5283532,127.0841329
광진 자양초교점,서울 광진구 아차산로44가길 10 ,37.5357791,127.0797754
광진 자양신양초교점,서울 광진구 능동로6길 22 ,37.5338864,127.0687964
광진 자양다온학원점,서울 광진구 자양동 648-12,37.5329735,127.0727409
광진 용마초교점,서울 광진구 중곡동 138-35,37.56687655,127.0886089997574
광진 동자초점,서울 광진구 자양번영로 46 ,37.529737,127.0746347
광진 능동점,서울 광진구 능동 238-3,37.55444,127.08156
광진 구의아카데미점,서울 광진구 구의동 641-3,37.54417,127.09262
광진 광장앤스마일학원점,서울 광진구 광장로 47 ,37.5473486,127.1041974
광주에듀마스터학원,광주 서구 유림로98번길 41 ,35.1710041,126.8669591
광주 힐스테이트3단지,광주 서구 화운로 24 ,35.1693457,126.8774115
광주 효천해법학원,광주 남구 행암동 584,35.0998012,126.8878678
광주 효천정수학학원,광주 남구 임암동 867,35.1036046,126.8712642
광주 효성해링턴점,경기 광주시 ,37.4290844,127.255189
광주 한아람초교점,경기 광주시 ,37.4290844,127.255189
광주 한쌤독수리점,광주 남구 진월동 500-33,35.1156752,126.9005747
광주 하남월곡점,광주 광산구 우산동 1586-9,35.1542122,126.81521850486143
광주 태전성원점,경기 광주시 ,37.4290844,127.255189
광주 태전동 힐스테이트점,경기 광주시 태전동,37.39038,127.22346
광주 탄벌점,경기 광주시 ,37.4290844,127.255189
광주 타임수학전문학원점,광주 광산구 월계로 191 ,35.2134142,126.8440568
광주 초월 도곡초점,경기 광주시 초월읍 경충대로 1023-22 ,37.375877,127.2963571
광주 첨단영재점,광주 광산구 월계동 777-2,35.2141311,126.8385309
광주 진월한신1차점,광주 남구 광복마을4길 9 ,35.1207313,126.8967054
광주 지산영수학원,광주 동구 밤실로30번길 4-7 ,35.15007,126.9385526
광주 일곡대우점,광주 북구 일곡택지로 50-1 ,35.2059029,126.8942424
광주 운암점,광주 북구 북문대로159번길 17,35.1824183,126.8706294
광주 운암엠탐수학학원,광주 북구 황계로55번길 2 ,35.1780259,126.8749256
광주 운암나산점,광주 북구 북문대로169번길 16,35.1835353,126.86998774879028
광주 운남금구점,광주 광산구 사암로340번길 47 ,35.1750114,126.8105178
광주 우산중흥s센트럴점,광주 광산구 금봉로 106 ,35.1517909,126.806578
광주 용산점,광주 동구 용산1로 4 ,35.1183125,126.9244224
광주 온새미로수학점,광주 광산구 선운로 55 ,35.1496308,126.7738314
광주 오포더샵점,경기 광주시 오포읍 ,37.36562455,127.2157482737246
광주 오포 신능점,경기 광주시 능평,37.3505851,127.1616109
광주 연제현대점,광주 북구 연제동 36-1,35.2003772,126.8645646
광주 역동초교점,경기 광주시 ,37.4290844,127.255189
광주 양산자이1차점,광주 북구 양산로71번길 8 ,35.2118997,126.8829765
광주 양벌초교점,경기 광주시 오포읍 ,37.36562455,127.2157482737246
광주 쌍촌해법수학학원,광주 서구 상일로 55 ,35.1599534,126.8631908
광주 쌍령초점,경기 광주시 경충대로,37.3286436,127.3851318
광주 쌍동초교점,경기 광주시 초월읍 경충대로1127번길 46 ,37.3771041,127.2917513
광주 스마트해법수학매곡학원,광주 북구 매곡로 55,35.1881645,126.8943549
광주 수완자이점,광주 광산구 풍영로330번길 34 ,35.2010013,126.8176939
광주 수완은빛점,광주 광산구 수완로33번길 79 ,35.1882669,126.826068
광주 수완새별초점,광주 광산구 풍영로101번안길 18 ,35.1819384,126.80986205
광주 수완대방노블랜드6차점,광주 광산구 왕버들로132번길 35 ,35.2000835,126.8240299
광주 수완대방1차점,광주 광산구 수등로76번길 40 ,35.1822752,126.817588
광주 수완 에스원영수학원점,광주 광산구 풍영로200번길 67,35.1896506,126.8164632
광주 송화점,광주 남구 노대동 827,35.1013144,126.9064869
광주 선운점,광주 광산구 선암동 565,35.1474784,126.7770496
광주 서희마라톤수학전문학원점,광주 북구 군왕로 297 ,35.1765595,126.9337985
광주 상무용수학점,광주 서구 치평로 60 ,35.153906,126.8474016
광주 삼호e해법수학,광주 광산구 첨단중앙로181번길 88-16 ,35.2199669,126.8315839
광주 산정부영점,광주 광산구 목련로 42 ,35.1727635,126.7989097
광주 빛고을점,광주 광산구 풍영철길로 20-20 ,35.1648323,126.8157918
광주 비아호반점,광주 광산구 비아로 185 ,35.2241404,126.82455540029252
광주 부영3차점,광주 광산구 첨단중앙로68번길 131 ,35.2114439,126.846226
광주 봉선영재점,광주 남구 봉선1로 78 ,35.1270739,126.9112416
광주 벌원초교점,경기 광주시 회안대로 637-36 ,37.4164605,127.2452904
광주 방림점,광주 남구 방림동 107-26,35.1315928,126.9203009
광주 동림토킹클럽,광주 북구 북문대로 242 ,35.1878455,126.8628662
광주 능평초교점,경기 광주시 창뜰,37.3504486,127.1676827
광주 노대7단지점,광주 남구 노대실로 89 ,35.108214,126.9051388
광주 계림초점,광주 동구 무등로375번길 26 ,35.1624795,126.9241627
광주 각화수학학원점,광주 북구 월동로 96 ,35.1783922,126.9372191
광주 SP에듀학원,전남 영광군 영광읍 현암길 29-2 ,35.2766447,126.5082863
광주 e해법수학,광주 남구 효우2로26번길 25 ,35.10234965,126.88821771177372
광주 EM영수학원,광주 광산구 풍영로 275 ,35.176001,126.8117527
광명초점,경기 광명시 오리로 938 ,37.4689098,126.8686113
광명지사,경기 광명시 하안동 35-6,37.4611134,126.8698981
광명역푸르지오1점,경기 광명시 양,37.4606346,126.8891702
광명역파크자이점,경기 광명시 광명역,37.4189725,126.88233855676488
광명역 데시앙1호점,경기 광명시 양지,37.4153717,126.8787348
광명동작 남사초점,서울 동작구 사당동 1026-32,37.4856963,126.9723525
광명 하안6단지점,경기 광명시 하안,37.4619112,126.88560178742662
광명 하안5단지1호점,경기 광명시 가,37.4791271,126.8543568
광명 하안3단지점,경기 광명시 안현로 3,37.46417,126.8745
광명 하안10단지중앙상가,경기 광명시 안,37.4606346,126.8891702
광명 하안10단지점,경기 광명시 하안로 3,37.459981,126.882952
광명 중앙하이츠점,경기 광명시 도덕로 50 ,37.4687277,126.8526488
광명 역세권4단지점,경기 광명시 성채로 37 ,37.4315306,126.8772754
광명 신촌2단지점,경기 광명시 소하,37.4432784,126.8823406
광명 소하역세권3단지점,경기 광명시 오리로 346 ,37.4689098,126.8686113
광명 소하7단지점,경기 광명시 소하,37.4432784,126.8823406
광명 서초점,경기 광명시 너부대,37.4787963,126.8466517
광명 래미안자이점,경기 광명시 디지털로 56 ,37.47301595,126.87346424099984
광명 두산점,경기 광명시 ,37.4810539,126.8631275
관악 청룡동점,서울 관악구 봉천동 1589-9,37.484665,126.9484961
관악 조원초교점,서울 관악구 조원로 62 ,37.4854249,126.9171127
관악 일등해법수학점,서울 관악구 은천로 92 ,37.4868596,126.9477174
관악 인헌초교점,서울 관악구 봉천동 207-33,37.484665,126.9484961
관악 신사동점,서울 관악구 신림동 482-22,37.48682825,126.92826657522512
관악 봉천9동벽산점,서울 관악구 은천로 93 ,37.4868596,126.9477174
관악 봉천6동우성점,서울 관악구 봉천,37.4823889,126.9419387
관악 드림타운1호교실점,서울 관악구 성현로 80,37.4930021,126.9455286
관악 당곡초점,서울 관악구 당곡길 22 ,37.4910317,126.9284397
관악 남현점,서울 관악구 남현동 1067-19,37.4715479,126.9764934
관악 난향초점,서울 관악구 난향길 10 ,37.4628205,126.9155782
관악 난우초점,서울 관악구 난우10길 19-1 ,37.4759927,126.9190996
과천 주공8단지점,경기 과천시 별양로 180 ,37.4255977,126.9946031
과천 3단지삼성래미안점,경기 과천시 별양로 12 ,37.4255977,126.9946031
고양 후곡점,경기 고양시 일산서구 후곡로 19 ,37.6793436,126.76333029297422
고양 화정 달빛점,경기 고양시 덕양구 화중로 219 ,37.639411,126.8321551
고양 화전양지마을점,경기 고양시 덕양구 중앙로 184,37.6282124,126.8257771
고양 호수3단지점,경기 고양시 일산동구 노루목로 78 ,37.6481745,126.7706868
고양 향동두산점,경기 고양시 덕양구 향기5로 66 ,37.6077213,126.8967635
고양 향동1교실점,경기 고양시 덕양구 향기로 60 ,37.59544205,126.89249476733424
고양 행신스마트점,경기 고양시 덕양구 소원로 270 ,37.6148965,126.85152926090764
고양 햇빛교실,경기 고양시 덕양구 성신로 99 ,37.6277518,126.8307822
고양 푸른마을 6단지점,경기 고양시 덕양구 ,37.6369,126.8322
고양 탄현5단지점,경기 고양시 일산서구 현중로 61 ,37.69641,126.76583231280787
고양 진학원,경기 고양시 일산동구 일산로 202 ,37.65449885,126.79044915176554
고양 진세교실점,경기 고양시 덕양구 고양대로1384번길 60 ,37.6527407,126.837184
고양 지사직영점,경기 고양시 일산동구 중산로 105,37.68144715,126.78139833020964
고양 중산9단지점,경기 고양시 일산동구 탄중로 416 ,37.6876693,126.7816482
고양 임광105점,경기 고양시 일산서구 탄현로 133 ,37.6984467,126.768736
고양 인스카이해법수학점,경기 고양시 일산서구 대산로 123 ,37.6742814,126.76361802799404
고양 옥빛수공방,경기 고양시 덕양구 백양로 8 ,37.6379796,126.8350489
고양 에이메쓰점,경기 고양시 덕양구 화신로 101 ,37.6319889,126.8268262
고양 식사5단지점,경기 고양시 일산동구 위시티1로 7 ,37.6745073,126.8078664
고양 스마트해법한류초점,경기 고양시 일산동구 연리지로 51,37.65992185,126.75497036531816
고양 스마트해법지축초점,경기 고양시 덕양구 오부자1길 20 ,37.652805,126.9141789
고양 스마트해법샘터학원,경기 고양시 덕양구 충장로123번길 19 ,37.6242222,126.8323865
고양 스마트해법 덕은한강꿈꾸는교실점,경기 고양시 덕양구 대덕산로 20 ,37.5825293,126.8679843
고양 스마트해법 DMC리버포레자이,경기 고양시 덕양구 대덕산로 21 ,37.5825293,126.8679843
고양 센트럴 아이파크1점,경기 고양시 일산동구 중산로 70 ,37.6800035,126.7817763
고양 성사캠퍼스점,경기 고양시 덕양구 호국로 851,37.6129437,126.8165293
고양 서정5단지점,경기 고양시 덕양구 충경로 156 ,37.6154868,126.8388209
고양 생각하는 수학점,경기 고양시 일산동구 강촌로 24 ,37.6463245,126.77912278599489
고양 삼송초교점,경기 고양시 덕양구 세솔로 149 ,37.6527159,126.8877199
고양 삼송신원점,경기 고양시 덕양구 권율대로 889 ,37.6303968,126.8621006
고양 삼송리슈빌점,경기 고양시 덕양구 동세로 125 ,37.6529574,126.8819201
고양 빠져드는해법수학점,경기 고양시 일산동구 태극로 11 ,37.6616626,126.7527804
고양 별빛9단지점,경기 고양시 덕양구 화신로 319 ,37.63263295,126.82631891575896
고양 백석흰돌3단지점,경기 고양시 일산동구 백석로 26 ,37.6484614,126.7878779
고양 백마5단지점,경기 고양시 일산동구 경의로 333 ,37.6587512,126.78990701461704
고양 로켓수학점,경기 고양시 일산서구 하이파크1로 77 ,37.6962171,126.7542779
고양 대화교실점,경기 고양시 일산서구 대화2로 102 ,37.6731508,126.7301138
고양 고양초교점,경기 고양시 덕양구 ,37.6369,126.8322
고양 강촌3단지점,경기 고양시 일산동구 강송로 153 ,37.6483805,126.7879863
고양 강선마을2단지,경기 고양시 일산서구 강선로 116 ,37.67350615,126.77024175
고양 가좌3단지점,경기 고양시 일산서구 가좌2로 53 ,37.6895448,126.7208282
고양 e해법수학창릉초점,경기 고양시 덕양구 덕수천2로 150 ,37.6475835,126.8876343
고양 e해법수학 풍산초교점,경기 고양시 일산동구 숲속마을로 49-28 ,37.66600595,126.79699124593024
고령 다산점,경북 고령군 다산면 ,35.82152,128.42451
경주 황성지금공부학원점,경북 경주시 용담로104번길 29-2 ,35.86802,129.213438
경주 황남초교실점,경북 경주시 용황구획4길 39 ,35.8822723,129.2275479
경주 현곡점,경북 경주시 현곡면 용담로 548-12,35.89146,129.17002
경주 충효1호점,경북 경주시 충효1길 22-10 ,35.8414706,129.1905408
경주 지금공부학원,경북 경주시 안강읍 산대리 2,36.0000838,129.1949834
경주 유림학원점,경북 경주시 용담로92번길 42-1 ,35.8662575,129.2133599
경주 외동점,경북 경주시 외동읍 외남로 1737-15 ,35.72275,129.34798
경주 동천지금공부점,경북 경주시 백률로57번길 19 ,35.8585647,129.2257446
경주 동천1호,경북 경주시 탈해로 20-3 ,35.8494739,129.2289354
경주 금장점,경북 경주시 현곡면 안현로 38 ,35.8714295,129.2039126
경주 경주초점,경북 경주시 황성로 25 ,35.8681662,129.2178112
경주 건천청림학원점,경북 경주시 건천읍 단석로 2037-,35.80059,129.06509
경산더샵 해법수학점,경북 경산시 중산동 635-1,35.8308697,128.7202074
경산 하양금락3점,경북 경산시 하양읍 대학로,35.9106859,128.8233607
경산 팰리스 부영2단지점,경북 경산시 삼성현로,35.808952,128.7362299
경산 코오롱점,경북 경산시 정평,35.8341351,128.7283981
경산 정평해법수학,경북 경산시 대학로,35.86777,128.77575
경산 삼주해법수학점,경북 경산시 진량읍 봉황길 72 ,35.884296,128.8216382
경산 사동점,경북 경산시 사동 662-1,35.81266,128.75613
경산 백천월드2점,경북 경산시 경청로,35.7880629,128.7275858
경산 동부2점,경북 경산시 원효로26길 31-2 ,35.8209075,128.7500348
경북 청송해법수학점,경북 청송군 청송읍 월막6길 3 ,36.4344722,129.054445
경북 성주점,경북 성주군 성주읍 성주읍2길 26-1 ,35.9207876,128.2892538
경북 석적대교점,경북 칠곡군 석적읍 석적로 933-11 ,36.0751451,128.3934432
경북 군위교실점,경북 군위군 군위읍 동서,36.2371631,128.568955
경북 고령점,경북 고령군 대가야읍 쾌빈,35.7443,128.26623
경남 의령점,경남 의령군 의령읍 중동리 390-,35.3211888,128.26159916207592
경남 의령부림점,경남 의령군 부림면 한지,35.4654056,128.3237405
경남 산청점,경남 산청군 산청읍 산청리 280-,35.41642684999999,127.87451528084624
경남 남해점,경남 남해군 남해읍 화전로 75-3,34.8472029,127.8945795
경남 남지점,경남 창녕군 남지읍 낙동로 446 ,35.4162035,128.4307551
경남 고성캠퍼스점,경남 고성군 고성읍 남포로 141 ,34.9748682,128.3204182
경남 고성대초점,경남 고성군 고성읍 동외로,34.9659535,128.3324496
경남 거창점,경남 거창군 거창읍 거열로4길 123 ,35.6940056,127.907132
거제 중앙초점,경남 거제시 중곡2로 89-1 ,34.8955739,128.6360433
거제 장평유진점,경남 거제시 장평2로 22 ,34.88675725,128.60880572172553
거제 옥포하이엔드점,경남 거제시 옥포중앙로 76 ,34.896173250000004,128.69413307411696
거제 옥포e편한점,경남 거제시 성산로 33 ,34.898082200000005,128.69532420000002
거제 아주점,경남 거제시 아주2로 111-1 ,34.86929495,128.6792527385333
거제 아주덕산1차점,경남 거제시 아주로 100-10 ,34.8660754,128.68477615
거제 아주대동다숲2차점,경남 거제시 아주2로2길 13 ,34.8694852,128.68551758786353
거제 신현고려1차점,경남 거제시 서문로1길 20 ,34.88955415,128.61710609421317
거제 수월자이점,경남 거제시 해명로 52 ,34.8943598,128.64343
거제 삼룡초점,경남 거제시 거제중앙로 1537 ,34.860463100000004,128.64416559635754
거제 덕산베스트타운점,경남 거제시 상동1길 15-9 ,34.863880550000005,128.6400938008493
거제 덕산5차점,경남 거제시 옥포로 315 ,34.901506600000005,128.68534628338583
거제 대동다숲점,경남 거제시 상동7길 30 ,34.869464550000004,128.63113793786977
개봉초해법학원,서울 구로구 구로동 1263,37.4969336,126.88596856422262
강원 횡성초교점,강원 횡성군 횡성읍 교항리 54-3,37.4848168,127.981738
강원 횡성성북교실,강원 횡성군 횡성읍 읍마북로 6 ,37.4895543,127.9943599
강원 홍천점,강원 홍천군 홍천읍 ,37.6894014,127.8843043
강원 한솔초교점,강원 강릉시 하평4길 35-1 ,37.7714918,128.9166089
강원 평창중앙점,강원 평창군 평창읍 백오로 116 ,37.3674536,128.4017777
강원 이도주공점,강원 동해시 이원길 180-2 ,37.4798498,129.1032236
강원 영월점,강원 영월군 영월읍 하송안길 116 ,37.1818655,128.4665282
강원 신철원점,강원 철원군 갈말읍 ,38.19944,127.31697
강원 동해평릉점,강원 동해시 하평로 72 ,37.5311509,129.108663
강서 힐스테이트점,서울 강서구 우현로 67 ,37.54759055,126.83721209530088
강서 화곡우장산아이파크점,서울 강서구 강서로 266 ,37.55003405,126.83687711268428
강서 스마트해법학원방화동점,서울 강서구 방화동 571-49,37.57682,126.81422
강서 스마트해법염동초점,서울 강서구 양천로71길 8 ,37.5529972,126.8719689
강서 스마트해법염경초점,서울 강서구 염창동 66-9,37.5573562,126.8699304
강서 스마트해법어썸에듀학원,서울 강서구 개화동로23길 94,37.5661345,126.8089898
강서 스마트해법수학염동초점,서울 강서구 양천로73가길 19,37.5504126,126.8745588
강서 스마트해법수명산점,서울 강서구 내발산동 750-1,37.5538883,126.8377001
강서 스마트해법백석초점,서울 강서구 공항대로55길 17 ,37.5536691,126.8608126
강서 스마트해법발산초점,서울 강서구 강서로45나길 60 ,37.55069435,126.83583720858988
강서 스마트해법갈산초점,서울 양천구 목동남로4길 51,37.5075721,126.8675274
강서 방화엘리트학원점,서울 강서구 양천로24길 78 ,37.570935,126.8134114
강서 내발산점,서울 강서구 우장산로 24 ,37.5544426,126.8407214
강서 공진초교연학원점,서울 강서구 공항대로 140 ,37.55931425,126.8225462
강북 인수초교점,서울 강북구 인수봉로 276 ,37.6331021,127.0135479
강북 인수엘리트해법수학점,서울 강북구 인수봉로77길 20 ,37.6444531,127.0097798
강북 수유벽산점,서울 강북구 수유동 186-11,37.6352212,127.0090642
강북 번동꿈의숲해법수학점,서울특별시 강북구 월계로37길 43,37.6240529,127.0456238
강북 백운초교점,서울 강북구 우이동 100-8,37.6575291,127.0089505
강북 미아송천초해법수학점,서울 강북구 미아동 637-51,37.628995,127.02575433718266
강북 미아벽산점,서울 강북구 솔샘로 167 ,37.6194664,127.0103967
강북 도봉의정부양주지사,경기 의정부시 부용로 105 ,37.7512902,127.0693767
강북 SK북한산해법수학,서울 강북구 삼양로19길 157 ,37.6173843,127.0152241024237
강동 프라이어팰리스점,서울 강동구 고덕로 130 ,37.5547286,127.1364591
강동 투플러스학원점,서울 강동구 천호동 293-14,37.54294,127.12733
강동 좋은수학학원점,서울 강동구 양재대로 1592 ,37.5340323,127.1385781
강동 암사롯데교실점,서울 강동구 고덕로 133 ,37.5547286,127.1364591
강동 성일초교점,서울 강동구 성내동 543-1,37.52998,127.12875
강동 성내1동삼성점,서울 강동구 풍성로 136 ,37.53104,127.12854
강동 명일솔베뉴점,서울 강동구 양재대로 1650 ,37.5340323,127.1385781
강동 둔촌글로벌학원점,서울 강동구 둔촌동 148-2,37.5289579,127.1447659
강동 고래힐점,서울 강동구 아리수로50길 50 ,37.5588261,127.1488077
강동 고덕연세아카데미,서울 강동구 상일로 55,37.5470226,127.173524
강동 고덕아카데미점,서울 강동구 양재대로 1708 ,37.5340323,127.1385781
강동 고덕아이파크점,서울 강동구 고덕동 535-7,37.56528,127.15761
강동 고덕베네루체점,서울 강동구 상일동 188,37.55073,127.1704
강동 고덕그라시움1호점,서울 강동구 고덕로 333 ,37.5564857,127.16765093037353
강동 강일연세학원점,서울 강동구 아리수로,37.5598235,127.1453151
강동 강일 스마트플레이스점,서울 강동구 아리수로,37.5598235,127.1453151
강남 포이점,서울 강남구 개포로22길 94,37.4760298,127.050135
강남 자곡래미안학습관,서울 강남구 자곡로 101 ,37.4694739,127.0917658
강남 일원청솔 학습관,서울 강남구 광평로10길 50 ,37.4827048,127.0799026
강남 일원에이치에듀센터점,서울 강남구 광평로19길 10 ,37.4846311,127.0864389
강남 일원상록학습관,서울 강남구 광평로10길 15 ,37.4827048,127.0799026
강남 일원대청점,서울 강남구 개포로109길 9 ,37.4968938,127.077245
강남 역삼해법수학학원,서울 강남구 언주로 314 ,37.5127061,127.0355919
강남 역삼개나리 학습관,서울 강남구 역삼로 306 ,37.4989726,127.0469391
강남 언북연세아카데미점,서울 강남구 삼성로135길 41 ,37.5197105,127.0467852
강남 스마트플레이스 직영,서울 강남구 영동대로 22 ,37.49062385,127.0741592214258
강남 스마트대치해법수학점,서울 강남구 삼성로57길 5 ,37.49800145,127.06060936712186
강남 세명학습관점,서울 강남구 자곡로3길 21,37.4705072,127.0898211
강남 삼성아카데미점,서울 강남구 삼성동 7-3,37.5154937,127.06023760561496
강남 매쓰점프점,서울 강남구 헌릉로570길 30,37.4633176,127.1029406
강남 래미안포레교실,서울 강남구 밤고개로21길 25 ,37.4733456,127.1123547
강남 도성해법학습관,서울 강남구 역삼로 315-1 ,37.5029327,127.0581438
강남 도곡언주해법수학,서울 강남구 도곡동 903-9,37.4878395,127.0438569
강남 데시앙포레학습관,서울 강남구 광평로34길 55 ,37.4815213,127.0917406
강남 논현아카데미점,서울 강남구 논현동 167-17,37.5123018,127.0294935
강남 구룡스마트플레이스점,서울 강남구 개포로 265 ,37.4808942,127.05300914232797
강남 개포주공5단지교실,서울 강남구 삼성로4길 17 ,37.4866849,127.0689592
강남 개포스마트스퀘어점,서울 강남구 선릉로 8 ,37.5050134,127.0488953
강남 Abu Dhabi Academy,서울 강남구 영동대로 22 ,37.49062385,127.0741592214258
가경아이파크점,충북 청주시 흥덕구 서현로 60,36.6186108,127.4308737
sk view,서울 영등포구 여의대방로35가길 19 ,37.50192955,126.91754111051289
DMC스마트해법학원,서울 서대문구 증가로 150 ,37.5705757,126.9305063
스마트해법수학 왕지점,전남 순천시 연동남길 39 ,34.956071,127.5343266
스마트해법 북아현점,서울 서대문구 북아현동 180-27,37.55947205,126.9552493630483
수원 광교SK레이크점,경기 수원시 영통구 법조로 25 ,37.2881904,127.0662288
